KWWD 230015Z AUTO 26004KT 10SM CLR 14/08 A3012 RMK AO1
KBLM 230015Z AUTO 27007KT 10SM CLR 16/06 A3008 RMK AO1
KWWD 230035Z AUTO 26004KT 10SM CLR 14/08 A3013 RMK AO1
KBLM 230035Z AUTO 26006KT 10SM CLR 15/06 A3008 RMK AO1
KTEB 230051Z 00000KT 10SM CLR 16/06 A3005 RMK AO2 SLP177 T01560056
KEWR 230051Z 00000KT 10SM CLR 17/05 A3006 RMK AO2 SLP180 T01670050
KTTN 230053Z 31004KT 10SM CLR 16/06 A3008 RMK AO2 SLP181 T01560056
KFWN 230053Z AUTO 00000KT 10SM CLR 12/06 A3007 RMK AO2 SLP184 T01170061
KCDW 230053Z AUTO 00000KT 10SM CLR 13/06 A3007 RMK AO2 SLP188 T01280061 TSNO
KSMQ 230053Z AUTO 00000KT 10SM CLR 10/07 A3006 RMK AO2 SLP181 T01000072 TSNO
KMIV 230054Z AUTO 00000KT 10SM CLR 08/07 A3011 RMK AO2 SLP195 T00830067
KVAY 230054Z AUTO 24003KT 10SM CLR 12/07 A3009 RMK AO2 SLP190 T01220072 TSNO
K12N 230054Z AUTO 00000KT 11/08 A3009 RMK AO2 SLP190 T01110078 PWINO TSNO
KACY 230054Z 22003KT 10SM CLR 13/06 A3011 RMK AO2 SLP196 T01330061
KBLM 230055Z AUTO 25004KT 10SM CLR 15/06 A3008 RMK AO1
KWWD 230055Z AUTO 25005KT 10SM CLR 14/09 A3013 RMK AO1
KMMU 230055Z 00000KT 10SM SKC 11/07 A3007
KWRI 230055Z AUTO 24003KT 10SM CLR 12/07 A3007 RMK AO2 SLP184 T01250065
KBLM 230115Z AUTO 24004KT 10SM CLR 15/06 A3008 RMK AO1
KWWD 230115Z AUTO 26005KT 10SM CLR 14/09 A3012 RMK AO1
KBLM 230135Z AUTO 23005KT 10SM CLR 14/06 A3009 RMK AO1
KWWD 230135Z AUTO 25005KT 10SM CLR 14/09 A3013 RMK AO1
KMMU 230145Z 00000KT 10SM SKC 10/06 A3008 RMK LAST
KEWR 230151Z 20003KT 10SM CLR 16/06 A3007 RMK AO2 SLP182 T01610061
KTEB 230151Z 00000KT 10SM CLR 13/06 A3006 RMK AO2 SLP177 T01280056
KSMQ 230153Z AUTO 00000KT 10SM CLR 08/07 A3007 RMK AO2 SLP183 T00830072 TSNO
KFWN 230153Z AUTO 29003KT 10SM CLR 11/06 A3008 RMK AO2 SLP186 T01060061
KCDW 230153Z AUTO 00000KT 10SM CLR 12/07 A3008 RMK AO2 SLP190 T01170067 TSNO
KTTN 230153Z AUTO 00000KT 10SM CLR 14/06 A3009 RMK AO2 SLP183 T01390056
K12N 230154Z AUTO 00000KT 09/07 A3009 RMK AO2 SLP190 T00940072 PWINO TSNO
KACY 230154Z 00000KT 10SM CLR 12/06 A3012 RMK AO2 SLP197 T01220061
KMIV 230154Z AUTO 26003KT 10SM CLR 09/07 A3012 RMK AO2 SLP197 T00890067
KVAY 230154Z AUTO 00000KT 10SM CLR 13/07 A3010 RMK AO2 SLP191 T01280067 TSNO
KWWD 230155Z AUTO 25005KT 10SM CLR 15/09 A3013 RMK AO1
KBLM 230155Z AUTO 23005KT 10SM CLR 14/06 A3009 RMK AO1
KWRI 230155Z AUTO 27003KT 10SM CLR 12/07 A3007 RMK AO2 SLP185 T01160066
KNEL 230200Z AUTO 00000KT 10SM CLR 09/06 A3008 RMK AO2 SLP186 T00940061
KWWD 230215Z AUTO 26004KT 10SM CLR 14/09 A3013 RMK AO1
KBLM 230215Z AUTO 25005KT 10SM CLR 14/06 A3009 RMK AO1
KWWD 230235Z AUTO 26005KT 10SM CLR 14/09 A3013 RMK AO1
KBLM 230235Z AUTO 26005KT 10SM CLR 13/06 A3009 RMK AO1
KTEB 230251Z 00000KT 10SM CLR 12/06 A3007 RMK AO2 SLP181 T01170056 51009
KEWR 230251Z 24003KT 10SM CLR 14/06 A3008 RMK AO2 SLP184 T01440061 53006
KSMQ 230253Z AUTO 00000KT 10SM CLR 08/07 A3008
KCDW 230253Z AUTO 00000KT 10SM CLR 11/06 A3009 RMK AO2 SLP193 T01060061 53006 TSNO
KFWN 230253Z AUTO 24004KT 10SM CLR 08/06 A3009 RMK AO2 SLP188 T00830056 53003
KSMQ 230253Z AUTO 00000KT 10SM CLR 08/07 A3008 RMK AO2 SLP185 T00830067 53005 TSNO
KTTN 230253Z AUTO 00000KT 10SM CLR 11/06 A3010 RMK AO2 SLP186 T01060061 53004
KACY 230254Z 26003KT 10SM CLR 11/06 A3012
KACY 230254Z 26003KT 10SM CLR 11/06 A3012 RMK AO2 SLP200 T01060061 53005
KMIV 230254Z AUTO 26003KT 10SM CLR 09/07 A3012 RMK AO2 SLP199 T00940072 53003
K12N 230254Z AUTO 00000KT 09/07 A3010 RMK AO2 SLP193 T00890072 53004 PWINO TSNO
KVAY 230254Z AUTO 24003KT 10SM CLR 12/07 A3010 RMK AO2 SLP194 T01170072 53004 TSNO
KWWD 230255Z AUTO 26006KT 10SM CLR 14/09 A3013 RMK AO1 52003
KWRI 230255Z AUTO 29005KT 10SM CLR 12/07 A3008 RMK AO2 SLP188 T01220066 53003
KBLM 230255Z AUTO 27006KT 10SM CLR 13/06 A3009 RMK AO1 52007
KMMU 230255Z AUTO 30003KT 10SM CLR 12/07 A3008 RMK AO2
KMMU 230255Z AUTO 30003KT 10SM CLR 12/07 A3008 RMK AO2
KMMU 230255Z AUTO 30003KT 10SM CLR 12/07 A3008 RMK AO2
KNEL 230300Z AUTO 00000KT 10SM CLR 08/06 A3009 RMK AO2 SLP190 T00780061 51006
KBLM 230315Z AUTO 28007KT 10SM CLR 12/06 A3009 RMK AO1
KWWD 230315Z AUTO 25005KT 10SM CLR 14/08 A3013 RMK AO1
KMMU 230315Z AUTO 00000KT 10SM CLR 09/07 A3008 RMK AO2
KBLM 230335Z AUTO 27005KT 10SM CLR 12/06 A3009 RMK AO1
KMMU 230335Z AUTO 00000KT 10SM CLR 08/07 A3008 RMK AO2
KWWD 230335Z AUTO 00000KT 10SM CLR 13/08 A3012 RMK AO1
KEWR 230351Z 22004KT 10SM FEW250 14/06 A3007
KTEB 230351Z 00000KT 10SM CLR 12/06 A3006
KEWR 230351Z 22004KT 10SM FEW250 14/06 A3007
KTEB 230351Z 00000KT 10SM CLR 12/06 A3006 RMK AO2 SLP180 T01220061
KEWR 230351Z 22004KT 10SM FEW250 14/06 A3007 RMK AO2 SLP183 T01440061
KEWR 230351Z 22004KT 10SM FEW250 14/06 A3007
KTTN 230353Z AUTO 00000KT 10SM CLR 10/06 A3009 RMK AO2 SLP184 T01000056
KSMQ 230353Z AUTO 00000KT 10SM CLR 08/06 A3008 RMK AO2 SLP187 T00780061 TSNO
KFWN 230353Z AUTO 00000KT 10SM CLR 08/06 A3009 RMK AO2 SLP190 T00780056
KCDW 230353Z AUTO 00000KT 10SM CLR 10/06 A3008 RMK AO2 SLP192 T01000061 TSNO
K12N 230354Z AUTO 00000KT 08/07 A3010 RMK AO2 SLP193 T00830067 PWINO TSNO
KMIV 230354Z AUTO 25003KT 10SM CLR 07/06 A3012 RMK AO2 SLP197 T00720061
KACY 230354Z 00000KT 10SM CLR 11/06 A3012 RMK AO2 SLP197 T01060061
KWWD 230355Z AUTO 25003KT 10SM CLR 13/08 A3013 RMK AO1
KMMU 230355Z AUTO 00000KT 10SM CLR 07/07 A3008 RMK AO2
KBLM 230355Z AUTO 25005KT 10SM CLR 11/06 A3009 RMK AO1
KWRI 230355Z AUTO 26003KT 10SM CLR 12/06 A3008 RMK AO2 SLP187 T01160065
KNEL 230400Z AUTO 00000KT 10SM CLR 08/06 A3010 RMK AO2 SLP190 T00830061
KMMU 230415Z AUTO 00000KT 10SM CLR 07/07 A3008 RMK AO2
KWWD 230415Z AUTO 26004KT 10SM CLR 13/09 A3012 RMK AO1
KBLM 230415Z AUTO 26004KT 10SM CLR 11/06 A3009 RMK AO1
KMMU 230415Z AUTO 00000KT 10SM CLR 07/07 A3008 RMK AO2
KBLM 230435Z AUTO 25005KT 10SM CLR 11/06 A3009 RMK AO1
KMMU 230435Z AUTO 00000KT 10SM CLR 07/07 A3008 RMK AO2
KWWD 230435Z AUTO 25003KT 10SM CLR 13/09 A3012 RMK AO1
KEWR 230451Z 23003KT 10SM FEW250 13/06 A3007 RMK AO2 SLP183 T01330061 402170094
KTEB 230451Z 00000KT 10SM CLR 11/06 A3006 RMK AO2 SLP180 T01110056 402110083
KCDW 230453Z AUTO 00000KT 10SM CLR 11/06 A3008 RMK AO2 SLP192 T01060056 402060056 TSNO
KFWN 230453Z AUTO 00000KT 10SM CLR 07/06 A3009 RMK AO2 SLP189 T00670056 402000044
KTTN 230453Z AUTO 00000KT 10SM CLR 09/06 A3009 RMK AO2 SLP183 T00940056 402000078
KSMQ 230453Z AUTO 00000KT 10SM CLR 07/06 A3008 RMK AO2 SLP185 T00720061 402110033 TSNO
K12N 230454Z AUTO 00000KT 07/06 A3010 RMK AO2 SLP192 T00720061 402000044 PWINO TSNO
KACY 230454Z 26003KT 10SM CLR 11/06 A3011 RMK AO2 SLP197 T01110061 402000067
KVAY 230454Z AUTO 24003KT 10SM CLR 11/07 A3010 RMK AO2 SLP191 T01110067 401940061 TSNO
KMIV 230454Z AUTO 00000KT 10SM CLR 07/06 A3011 RMK AO2 SLP196 T00670056 402000039
KWRI 230455Z AUTO 00000KT 10SM CLR 08/06 A3008 RMK AO2 SLP186 T00820062 402000078
KWRI 230455Z AUTO 00000KT 10SM CLR 08/06 A3008 RMK AO2 SLP186 T00820062 402000078
KBLM 230455Z AUTO 27003KT 10SM CLR 11/06 A3009 RMK AO1
KMMU 230455Z AUTO 00000KT 10SM -SN CLR 07/07 A3008 RMK AO2
KWWD 230455Z AUTO 00000KT 10SM CLR 13/09 A3012 RMK AO1
KNEL 230500Z AUTO 00000KT 10SM CLR 06/05 A3009 RMK AO2 SLP189 T00610050 400610061
KMMU 230515Z AUTO 00000KT 10SM CLR 07/06 A3008 RMK AO2
KBLM 230515Z AUTO 25004KT 10SM CLR 11/06 A3009 RMK AO1
KWWD 230515Z AUTO 00000KT 10SM CLR 12/09 A3012 RMK AO1
KWWD 230535Z AUTO 25003KT 10SM CLR 11/09 A3012 RMK AO1
KMMU 230535Z AUTO 00000KT 10SM -SN CLR 06/06 A3008 RMK AO2
KBLM 230535Z AUTO 00000KT 10SM CLR 10/06 A3009 RMK AO1
KEWR 230551Z 22005KT 10SM FEW250 12/06 A3007
KTEB 230551Z 00000KT 10SM CLR 10/06 A3006
KTEB 230551Z 00000KT 10SM CLR 10/06 A3006 RMK AO2 SLP180 T01000061 10167 20094 56001
KEWR 230551Z 22005KT 10SM FEW250 12/06 A3007 RMK AO2 SLP183 T01170061 10178 20117 56001
KSMQ 230553Z AUTO 00000KT 10SM CLR 07/06 A3007
KTTN 230553Z AUTO 32004KT 10SM CLR 10/06 A3009 RMK AO2 SLP183 T01000056 10161 20083 56003
KCDW 230553Z AUTO 00000KT 10SM CLR 09/06 A3008 RMK AO2 SLP191 T00940061 10139 20094 56001 TSNO
KFWN 230553Z AUTO 00000KT 10SM CLR 05/04 A3009 RMK AO2 SLP188 T00500044 10150 20050 50000
KSMQ 230553Z AUTO 00000KT 10SM CLR 07/06 A3007 RMK AO2 SLP182 T00670056 10117 20067 58003 TSNO
KMIV 230554Z AUTO 26005KT 10SM CLR 08/07 A3011 RMK AO2 SLP193 T00830067 10100 20061 56006
KACY 230554Z 21003KT 10SM CLR 09/06 A3011 RMK AO2 SLP196 T00890061 10144 20078 56004
KVAY 230554Z AUTO 00000KT 10SM CLR 12/07 A3009 RMK AO2 SLP189 T01170067 10139 20106 56004 TSNO
K12N 230554Z AUTO 00000KT 07/06 A3009 RMK AO2 SLP189 T00720061 10111 20072 58004 PWINO TSNO
K12N 230554Z AUTO 00000KT 07/06 A3009 RMK AO2 SLP189 T00720061 10111 20072 58004 PWINO TSNO
KACY 230554Z 21003KT 10SM CLR 09/06 A3011
KWWD 230555Z AUTO 00000KT 10SM CLR 11/08 A3012 RMK AO1 10150 20110 57003
KBLM 230555Z AUTO 26003KT 10SM CLR 10/06 A3008 RMK AO1 10160 20100 57003
KWRI 230555Z AUTO 00000KT 10SM CLR 09/06 A3007 RMK AO2 SLP184 T00910064 10128 20081 58003
KMMU 230555Z AUTO 00000KT 10SM -SN CLR 06/06 A3008 RMK AO2
KMMU 230555Z AUTO 00000KT 10SM -SN CLR 06/06 A3008 RMK AO2
KWRI 230555Z AUTO 00000KT 10SM CLR 09/06 A3007 RMK AO2 SLP184 T00910064 10128 20081 58003
KNEL 230600Z AUTO 29004KT 9SM CLR 06/05 A3009 RMK AO2 SLP187 T00610050 10128 20050 50002 $
KNEL 230600Z AUTO 29004KT 9SM CLR 06/05 A3009 RMK AO2 SLP187 T00610050 10128 20050 50002 $
KMMU 230615Z AUTO 00000KT 10SM -SN CLR 06/06 A3008 RMK AO2
KBLM 230615Z AUTO 00000KT 10SM CLR 09/06 A3008 RMK AO1
KWWD 230615Z AUTO 00000KT 10SM CLR 11/08 A3012 RMK AO1
KWWD 230635Z AUTO 00000KT 10SM CLR 11/08 A3012 RMK AO1
KBLM 230635Z AUTO 24004KT 10SM CLR 09/06 A3009 RMK AO1
KMMU 230635Z AUTO 00000KT 10SM -SN CLR 06/06 A3008 RMK AO2
KMMU 230635Z AUTO 00000KT 10SM -SN CLR 06/06 A3008
KEWR 230651Z 28005KT 10SM FEW250 13/07 A3007 RMK AO2 SLP183 T01280067
KTEB 230651Z 00000KT 10SM CLR 08/06 A3006 RMK AO2 SLP180 T00830056
KTTN 230653Z AUTO 31003KT 10SM CLR 11/06 A3008 RMK AO2 SLP182 T01060056
KSMQ 230653Z AUTO 00000KT 10SM CLR 06/06 A3007
KCDW 230653Z AUTO 00000KT 10SM CLR 09/06 A3008 RMK AO2 SLP192 T00890061 TSNO
KFWN 230653Z AUTO 00000KT 10SM CLR 06/04 A3009 RMK AO2 SLP191 T00560044
KSMQ 230653Z AUTO 00000KT 10SM CLR 06/06 A3007 RMK AO2 SLP183 T00610056 TSNO
KACY 230654Z 24004KT 10SM CLR 09/06 A3011
KMIV 230654Z AUTO 00000KT 10SM CLR 07/06 A3011 RMK AO2 SLP194 T00670056
KACY 230654Z 24004KT 10SM CLR 09/06 A3011 RMK AO2 SLP196 T00940061
KVAY 230654Z AUTO 00000KT 10SM CLR 09/07 A3009 RMK AO2 SLP190 T00940067 TSNO
K12N 230654Z AUTO 00000KT 07/06 A3009 RMK AO2 SLP190 T00720056 PWINO TSNO
KWWD 230655Z AUTO 00000KT 10SM CLR 10/08 A3012 RMK AO1
KMMU 230655Z AUTO 00000KT 10SM CLR 06/06 A3008 RMK AO2
KBLM 230655Z AUTO 24005KT 10SM CLR 11/06 A3008 RMK AO1
KWRI 230655Z AUTO 00000KT 10SM CLR 07/06 A3007 RMK AO2 SLP184 T00710059
KNEL 230700Z AUTO 00000KT 10SM CLR 08/06 A3008 RMK AO2 SLP186 T00780061 $
KWWD 230715Z AUTO 00000KT 10SM CLR 09/07 A3012 RMK AO1
KBLM 230715Z AUTO 25004KT 10SM CLR 11/06 A3008 RMK AO1
KMMU 230715Z AUTO 00000KT 10SM CLR 06/06 A3008 RMK AO2
KMMU 230735Z AUTO 00000KT 10SM CLR 06/06 A3008 RMK AO2
KBLM 230735Z AUTO 26003KT 10SM CLR 09/06 A3008 RMK AO1
KWWD 230735Z AUTO 00000KT 10SM CLR 09/08 A3012 RMK AO1
KEWR 230751Z 23003KT 10SM FEW200 SCT250 12/07 A3007 RMK AO2 SLP183 T01170067
KTEB 230751Z 20004KT 10SM CLR 09/06 A3006 RMK AO2 SLP180 T00890056
KCDW 230753Z AUTO 00000KT 10SM CLR 08/06 A3008 RMK AO2 SLP191 T00830061 TSNO
KFWN 230753Z AUTO 00000KT 10SM CLR 06/04 A3009 RMK AO2 SLP189 T00560044
KSMQ 230753Z AUTO 00000KT 8SM CLR 06/05 A3006 RMK AO2 SLP181 T00560050 TSNO
KTTN 230753Z AUTO 31003KT 10SM CLR 11/06 A3008 RMK AO2 SLP180 T01060061
KACY 230754Z 28003KT 10SM CLR 09/07 A3010 RMK AO2 SLP193 T00940067
KMIV 230754Z AUTO 00000KT 8SM CLR 07/06 A3011 RMK AO2 SLP193 T00670061
KVAY 230754Z AUTO 00000KT 10SM CLR 10/07 A3009 RMK AO2 SLP188 T01000072 TSNO
K12N 230754Z AUTO 00000KT 07/06 A3009 RMK AO2 SLP189 T00670056 PWINO TSNO
K12N 230754Z AUTO 00000KT 07/06 A3009 RMK AO2 SLP189 T00670056 PWINO TSNO
KACY 230754Z 28003KT 10SM CLR 09/07 A3010 RMK AO2 SLP193 T00940067
KBLM 230755Z AUTO 00000KT 10SM CLR 09/06 A3008 RMK AO1
KWRI 230755Z AUTO 00000KT 10SM CLR 07/06 A3007 RMK AO2 SLP184 T00730059
KWWD 230755Z AUTO 00000KT 8SM CLR 09/08 A3012 RMK AO1
KMMU 230755Z AUTO 00000KT 10SM CLR 06/06 A3008 RMK AO2
KNEL 230800Z AUTO 00000KT 9SM CLR 06/05 A3008 RMK AO2 SLP185 T00560050 $
KNEL 230800Z AUTO 00000KT 9SM CLR 06/05 A3008 RMK AO2 SLP185 T00560050 $
KBLM 230815Z AUTO 00000KT 10SM CLR 09/06 A3008 RMK AO1
KMMU 230815Z AUTO 00000KT 10SM CLR 06/06 A3008
KWWD 230815Z AUTO 00000KT 10SM CLR 09/08 A3011 RMK AO1
KMMU 230815Z AUTO 00000KT 10SM CLR 06/06 A3008 RMK AO2
KMMU 230815Z AUTO 00000KT 10SM CLR 06/06 A3008 RMK AO2
KWWD 230835Z AUTO 00000KT 10SM CLR 09/08 A3012 RMK AO1
KBLM 230835Z AUTO 00000KT 10SM CLR 09/06 A3008 RMK AO1
KMMU 230835Z AUTO 00000KT 10SM CLR 06/06 A3008 RMK AO2
KTEB 230851Z 00000KT 10SM CLR 09/06 A3007 RMK AO2 SLP182 T00940061 53002
KEWR 230851Z 25003KT 10SM FEW200 BKN250 12/07 A3008 RMK AO2 SLP186 T01170072 53003
KFWN 230853Z AUTO 00000KT 10SM CLR 06/04 A3009 RMK AO2 SLP190 T00610044 51002
KTTN 230853Z AUTO 24004KT 10SM CLR 09/06 A3007 RMK AO2 SLP177 T00890056 58005
KCDW 230853Z AUTO 00000KT 10SM CLR 08/06 A3008 RMK AO2 SLP192 T00830061 53001 TSNO
KSMQ 230853Z AUTO 00000KT 8SM CLR 06/05 A3006 RMK AO2 SLP181 T00560050 58001 TSNO
KMIV 230854Z AUTO 00000KT 7SM CLR 06/06 A3010 RMK AO2 SLP193 T00610056 58001
KACY 230854Z 26003KT 10SM CLR 09/07 A3011 RMK AO2 SLP194 T00940067 55002
KVAY 230854Z AUTO 00000KT 10SM CLR 10/07 A3008 RMK AO2 SLP185 T01000067 58004 TSNO
K12N 230854Z AUTO 00000KT 07/06 A3009 RMK AO2 SLP190 T00670056 51002 PWINO TSNO
KBLM 230855Z AUTO 00000KT 10SM CLR 09/06 A3008 RMK AO1 54000
KMMU 230855Z AUTO 00000KT 10SM -SN CLR 06/06 A3008 RMK AO2
KWRI 230855Z AUTO 00000KT 10SM CLR 07/05 A3006 RMK AO2 SLP182 T00660053 58002
KWWD 230855Z AUTO 00000KT 10SM CLR 10/08 A3012 RMK AO1 54000
KNEL 230900Z AUTO 00000KT 9SM CLR 05/04 A3008 RMK AO2 SLP184 T00500044 56004 $
KBLM 230915Z AUTO 00000KT 10SM CLR 09/06 A3008 RMK AO1
KMMU 230915Z AUTO 00000KT 10SM -SN CLR 06/06 A3009 RMK AO2
KWWD 230915Z AUTO 00000KT 10SM CLR 09/08 A3012 RMK AO1
KBLM 230935Z AUTO 00000KT 10SM CLR 09/06 A3008 RMK AO1
KWWD 230935Z AUTO 00000KT 10SM CLR 09/08 A3011 RMK AO1
KBLM 230935Z AUTO 00000KT 10SM CLR 09/06 A3008 RMK AO1
KMMU 230935Z AUTO 00000KT 7SM CLR 06/06 A3009 RMK AO2
KWWD 230935Z AUTO 00000KT 10SM CLR 09/08 A3011 RMK AO1
KTEB 230951Z 00000KT 10SM CLR 10/06 A3009 RMK AO2 SLP187 T01000061
KEWR 230951Z 24003KT 10SM SCT200 BKN250 12/07 A3009 RMK AO2 SLP190 T01170072
KCDW 230953Z AUTO 00000KT 10SM CLR 08/06 A3010 RMK AO2 SLP196 T00780056 TSNO
KTTN 230953Z AUTO 00000KT 10SM CLR 09/06 A3009 RMK AO2 SLP184 T00890061
KSMQ 230953Z AUTO 00000KT 10SM CLR 06/04 A3008 RMK AO2 SLP187 T00560044 TSNO
KFWN 230953Z AUTO 00000KT 10SM CLR 06/04 A3010 RMK AO2 SLP194 T00560044
KACY 230954Z 00000KT 10SM CLR 09/06 A3011 RMK AO2 SLP195 T00890061
K12N 230954Z AUTO 00000KT 07/06 A3011 RMK AO2 SLP196 T00670056 PWINO TSNO
KMIV 230954Z AUTO 27003KT 8SM CLR 06/06 A3011 RMK AO2 SLP194 T00610056
KVAY 230954Z AUTO 00000KT 10SM CLR 08/07 A3010 RMK AO2 SLP192 T00830067 TSNO
KACY 230954Z 00000KT 10SM CLR 09/06 A3011 RMK AO2 SLP195 T00890061
KWRI 230955Z AUTO 00000KT 10SM CLR 07/05 A3008 RMK AO2 SLP188 T00680055
KWRI 230955Z AUTO 00000KT 10SM CLR 07/05 A3008 RMK AO2 SLP188 T00680055
KMMU 230955Z AUTO 00000KT 10SM CLR 06/06 A3010 RMK AO2
KWWD 230955Z AUTO 00000KT 10SM CLR 09/07 A3012 RMK AO1
KBLM 230955Z AUTO 00000KT 10SM CLR 09/06 A3010 RMK AO1
KWRI 230955Z AUTO 00000KT 10SM CLR 07/05 A3008 RMK AO2 SLP188 T00680055
KNEL 231000Z AUTO 31003KT 8SM CLR 06/05 A3009 RMK AO2 SLP188 T00560050 $
KMMU 231015Z AUTO 00000KT 10SM CLR 06/06 A3010 RMK AO2
KMMU 231015Z AUTO 00000KT 10SM CLR 06/06 A3010 RMK AO2
KBLM 231015Z AUTO 00000KT 10SM CLR 09/06 A3010 RMK AO1
KWWD 231015Z AUTO 00000KT 10SM CLR 09/07 A3012 RMK AO1
KMMU 231035Z AUTO 00000KT 7SM CLR 05/05 A3010
KBLM 231035Z AUTO 26004KT 10SM CLR 08/06 A3011 RMK AO1
KWWD 231035Z AUTO 00000KT 10SM CLR 09/08 A3013 RMK AO1
KMMU 231035Z AUTO 00000KT 7SM CLR 05/05 A3010 RMK AO2
KMMU 231045Z 00000KT 15SM BKN180 06/05 A3011
KEWR 231051Z 00000KT 10SM SCT170 BKN250 10/07 A3010 RMK AO2 SLP191 T01000067
KTEB 231051Z 00000KT 10SM CLR 10/06 A3009 RMK AO2 SLP188 T01000061
KTTN 231053Z 00000KT 10SM CLR 08/06 A3010 RMK AO2 SLP186 T00830056
KSMQ 231053Z AUTO 00000KT 9SM CLR 06/05 A3009 RMK AO2 SLP190 T00560050 TSNO
KFWN 231053Z AUTO 00000KT 10SM CLR 05/04 A3011 RMK AO2 SLP197 T00500039
KCDW 231053Z AUTO 00000KT 10SM CLR 07/06 A3010 RMK AO2 SLP199 T00720056 TSNO
K12N 231054Z AUTO 00000KT 07/06 A3011 RMK AO2 SLP198 T00670056 PWINO TSNO
KACY 231054Z 00000KT 10SM CLR 10/07 A3012 RMK AO2 SLP200 T01000067
KMIV 231054Z AUTO 00000KT 9SM CLR 06/05 A3012 RMK AO2 SLP198 T00610050
KVAY 231054Z AUTO 00000KT 9SM CLR 08/07 A3011 RMK AO2 SLP194 T00780067 TSNO
KWRI 231055Z AUTO 00000KT 10SM CLR 08/06 A3009 RMK AO2 SLP190 T00760061
KBLM 231055Z AUTO 26003KT 10SM CLR 08/06 A3011 RMK AO1
KWWD 231055Z AUTO 00000KT 10SM CLR 09/07 A3013 RMK AO1
KNEL 231100Z AUTO 00000KT 8SM CLR 07/06 A3011 RMK AO2 SLP194 T00720061 $
KBLM 231115Z AUTO 00000KT 10SM CLR 08/06 A3011 RMK AO1
KWWD 231115Z AUTO 00000KT 10SM CLR 09/07 A3013 RMK AO1
KWRI 231119Z AUTO 00000KT 10SM -RA CLR 07/06 A3009 RMK AO2 RAB1119 SLP190
KWRI 231128Z AUTO 00000KT 10SM CLR 07/05 A3009 RMK AO2 RAB1119E1128 SLP191
KWWD 231135Z AUTO 00000KT 10SM CLR 10/08 A3014 RMK AO1
KBLM 231135Z AUTO 00000KT 10SM CLR 08/06 A3011 RMK AO1
KMMU 231145Z 00000KT 15SM SCT150 BKN250 06/06 A3012
KTEB 231151Z 00000KT 10SM CLR 12/07 A3012 RMK AO2 SLP198 T01170072 10117 20078 53016
KEWR 231151Z 25003KT 10SM SCT170 SCT210 BKN270 12/07 A3012 RMK AO2 SLP199 T01170072 10133 20094 53014
KCDW 231153Z AUTO 00000KT 10SM CLR 08/06 A3013 RMK AO2 SLP207 T00780061 10094 20072 53015 TSNO
KFWN 231153Z AUTO 00000KT 8SM CLR 06/04 A3013 RMK AO2 SLP203 T00560044 10061 20044 53012
KSMQ 231153Z AUTO VRB03KT 9SM OVC065 07/06 A3011 RMK AO2 SLP199 7//// T00670061 10067 20050 53017 TSNO
KTTN 231153Z 00000KT 10SM OVC060 10/07 A3012 RMK AO2 SLP195 T01000067 10117 20078 53017
KVAY 231154Z AUTO 00000KT 9SM CLR 08/07 A3012 RMK AO2 SLP199 T00830072 10117 20078 51014 TSNO
KACY 231154Z 00000KT 10SM CLR 09/07 A3013 RMK AO2 SLP204 T00940072 10100 20083 53010
KMIV 231154Z AUTO 00000KT 8SM CLR 07/07 A3013 RMK AO2 SLP201 T00720067 10089 20056 53008
K12N 231154Z AUTO 00000KT 07/06 A3013 RMK AO2 SLP207 T00670061 10072 20061 53013 PWINO TSNO
KWWD 231155Z AUTO 00000KT 10SM CLR 10/08 A3015 RMK AO1 10110 20090 52010
KWRI 231155Z AUTO 00000KT 10SM CLR 07/06 A3011 RMK AO2 RAB1119E1128 SLP197 P0000 60000 T00670057 10084 20062 53014
KBLM 231155Z AUTO 26003KT 10SM CLR 08/06 A3013 RMK AO1 10110 20080 52017
KNEL 231200Z AUTO 00000KT 6SM BR CLR 07/06 A3013 RMK AO2 SLP201 7//// T00670056 10083 20050 53009 $
KWWD 231215Z AUTO 00000KT 10SM CLR 11/09 A3015 RMK AO1
KBLM 231215Z AUTO 00000KT 10SM CLR 09/07 A3013 RMK AO1
KBLM 231235Z AUTO 00000KT 10SM CLR 10/07 A3013 RMK AO1
KWWD 231235Z AUTO 00000KT 10SM CLR 13/11 A3015 RMK AO1
KTEB 231251Z 00000KT 10SM CLR 13/08 A3012 RMK AO2 SLP197 T01280078
KEWR 231251Z 00000KT 10SM FEW170 SCT210 BKN270 15/07 A3012 RMK AO2 SLP200 T01500067
KCDW 231253Z AUTO 00000KT 10SM CLR 11/07 A3012 RMK AO2 SLP206 T01110072 TSNO
KFWN 231253Z AUTO 00000KT 10SM BKN060 09/07 A3013 RMK AO2 SLP205 T00890067
KTTN 231253Z 00000KT 10SM OVC060 11/08 A3012 RMK AO2 SLP192 T01060078
KSMQ 231253Z AUTO 00000KT 10SM BKN065 10/08 A3011 RMK AO2 SLP195 T01000078 TSNO
KMIV 231254Z AUTO 00000KT 9SM CLR 12/10 A3014 RMK AO2 SLP205 T01220100
KVAY 231254Z AUTO 00000KT 10SM OVC060 11/09 A3013 RMK AO2 SLP203 T01110089 TSNO
K12N 231254Z AUTO 00000KT 09/08 A3014 RMK AO2 SLP208 T00890078 PWINO TSNO
KACY 231254Z 00000KT 10SM CLR 12/08 A3014 RMK AO2 SLP207 T01220083
KWWD 231255Z AUTO 24004KT 10SM CLR 16/12 A3015 RMK AO1
KWRI 231255Z AUTO 00000KT 10SM FEW065 10/08 A3011 RMK AO2 SLP200 T01000085
KBLM 231255Z AUTO 00000KT 10SM CLR 12/08 A3013 RMK AO1
KBLM 231315Z AUTO 00000KT 10SM CLR 13/09 A3013 RMK AO1
KWWD 231315Z AUTO 24005KT 10SM CLR 17/12 A3015 RMK AO1
KBLM 231335Z AUTO 28004KT 10SM CLR 15/08 A3013 RMK AO1
KWWD 231335Z AUTO 24006KT 10SM CLR 17/11 A3016 RMK AO1
KMMU 231345Z 00000KT 15SM OVC065 12/09 A3014
KEWR 231351Z 30005KT 10SM BKN070 BKN250 17/07 A3013 RMK AO2 SLP204 T01670072
KTEB 231351Z 31005KT 10SM BKN065 15/07 A3012 RMK AO2 SLP201 T01500072
KTTN 231353Z 36004KT 10SM OVC060 13/08 A3013 RMK AO2 SLP198 T01280083
KCDW 231353Z 00000KT 10SM OVC060 13/07 A3013 RMK AO2 SLP209 T01280072
KSMQ 231353Z AUTO 00000KT 10SM BKN060 OVC075 12/08 A3012 RMK AO2 SLP201 T01170083 TSNO
KFWN 231353Z AUTO 00000KT 9SM -RA SCT050 OVC070 11/07 A3013 RMK AO2 RAB53 SLP205 P0000 T01060072
KMIV 231354Z AUTO 25005KT 10SM CLR 17/10 A3014 RMK AO2 SLP206 T01720100
KACY 231354Z 25004KT 10SM CLR 17/09 A3015 RMK AO2 SLP208 T01720089
KVAY 231354Z AUTO 34006KT 10SM BKN065 15/11 A3014 RMK AO2 PRESRR SLP205 T01500111 TSNO
K12N 231354Z AUTO 20003KT 11/08 A3013 RMK AO2 SLP206 T01060078 PWINO TSNO
KWRI 231355Z AUTO 00000KT 10SM BKN060 14/10 A3011 RMK AO2 SLP198 T01420095
KWWD 231355Z AUTO 25007KT 10SM CLR 17/10 A3016 RMK AO1
KBLM 231355Z AUTO 00000KT 10SM FEW065 16/08 A3013 RMK AO1
KWWD 231415Z AUTO 25006KT 10SM CLR 18/10 A3016 RMK AO1
KBLM 231415Z AUTO 00000KT 10SM BKN065 16/08 A3013 RMK AO1
KWWD 231435Z AUTO 24007KT 10SM CLR 19/09 A3016 RMK AO1
KBLM 231435Z AUTO 31005KT 10SM OVC065 17/08 A3013 RMK AO1
KMMU 231445Z 16006KT 15SM OVC060 14/08 A3013
KEWR 231451Z 25004KT 10SM BKN060 OVC250 17/08 A3013 RMK AO2 SLP202 T01670078 50002
KTEB 231451Z 00000KT 10SM OVC065 16/07 A3012 RMK AO2 SLP198 T01610067 50000
KSMQ 231453Z AUTO 00000KT 10SM OVC070 13/09 A3011 RMK AO2 SLP196 T01330089 58002 TSNO
KTTN 231453Z 00000KT 10SM OVC060 14/08 A3014 RMK AO2 SLP199 T01390083 53004
KCDW 231453Z 00000KT 10SM OVC065 15/07 A3014 RMK AO2 SLP211 T01500072 53004
KFWN 231453Z AUTO 00000KT 6SM -RA BR OVC100 11/09 A3013 RMK AO2 SLP203 P0003 60003 T01110089 58001
K12N 231454Z AUTO 00000KT 11/09 A3014 RMK AO2 SLP208 P0001 60001 T01110089 51001 PWINO TSNO
KMIV 231454Z AUTO VRB04KT 10SM CLR 19/09 A3013 RMK AO2 SLP201 T01890094 50000
KACY 231454Z 22003KT 10SM CLR 19/09 A3013 RMK AO2 SLP203 T01940089 58001
KWWD 231455Z AUTO 23007KT 10SM CLR 19/09 A3015 RMK AO1 54000
KWRI 231455Z AUTO 00000KT 10SM OVC065 16/10 A3011 RMK AO2 SLP199 T01560099 51003
KBLM 231455Z AUTO 31004KT 10SM SCT065 OVC070 17/08 A3013 RMK AO1 54000
KNEL 231500Z AUTO 00000KT 10SM OVC065 15/09 A3013 RMK AO2 SLP201 T01500094 50004 $
KWWD 231515Z AUTO 23007KT 10SM CLR 20/09 A3015 RMK AO1
KBLM 231515Z AUTO 33004KT 10SM OVC065 17/08 A3014 RMK AO1
KWWD 231535Z AUTO 25007KT 10SM CLR 20/09 A3015 RMK AO1
KBLM 231535Z AUTO 33004KT 10SM OVC065 17/08 A3014 RMK AO1
KMMU 231545Z 04003KT 10SM BKN050 OVC060 15/09 A3013
KEWR 231551Z VRB03KT 10SM -RA BKN065 BKN085 OVC100 18/08 A3012 RMK AO2 RAB32 SLP199 P0000 T01780078
KTEB 231551Z 00000KT 10SM -RA SCT050 BKN095 OVC110 17/07 A3011 RMK AO2 RAB13 SLP196 P0000 T01720067
KTEB 231551Z 00000KT 10SM -RA SCT050 BKN095 OVC110 17/07 A3011
KSMQ 231553Z AUTO 00000KT 10SM FEW049 BKN110 16/08 A3011 RMK AO2 RAB06E20B37E46 SLP195 P0000 T01560083 TSNO
KTTN 231553Z 00000KT 10SM BKN070 OVC110 16/10 A3012 RMK AO2 SLP195 T01560100
KFWN 231553Z AUTO 00000KT 10SM BKN055 BKN070 OVC090 12/09 A3013 RMK AO2 RAE21 SLP204 P0000 T01220094
KCDW 231553Z 00000KT FEW036 BKN110 16/08 A3013 RMK AO2 RAB1456E47 SLP207 P0000 T01560083 $
KACY 231554Z 31008KT 290V010 10SM BKN070 22/10 A3014 RMK AO2 SLP204 T02220100
K12N 231554Z AUTO 00000KT 13/09 A3013 RMK AO2 SLP204 T01330089 PWINO TSNO
KMIV 231554Z AUTO 31007KT 10SM SCT065 BKN100 20/10 A3014 RMK AO2 SLP205 T02000100
KVAY 231554Z AUTO 00000KT 10SM OVC060 16/09 A3014 RMK AO2 SLP204 T01610094 TSNO
KBLM 231555Z AUTO 00000KT 10SM OVC065 17/08 A3013 RMK AO1
KWWD 231555Z AUTO 23007KT 10SM CLR 21/10 A3015 RMK AO1
KWRI 231555Z AUTO 00000KT 10SM OVC060 16/09 A3012 RMK AO2 SLP199 T01590091
KWRI 231555Z AUTO 00000KT 10SM OVC060 16/09 A3012
KNEL 231600Z AUTO 00000KT 10SM OVC060 16/10 A3013 RMK AO2 SLP201 T01610100 $
KNEL 231600Z AUTO 00000KT 10SM OVC060 16/10 A3013 RMK AO2 SLP201 T01610100 $
KBLM 231615Z AUTO 00000KT 10SM OVC065 17/08 A3012 RMK AO1
KWWD 231615Z AUTO 23007KT 10SM CLR 21/10 A3014 RMK AO1
KWWD 231635Z AUTO 26005KT 10SM BKN065 21/10 A3014 RMK AO1
KBLM 231635Z AUTO 20003KT 10SM OVC065 17/09 A3011 RMK AO1
KWRI 231642Z AUTO 19004KT 10SM -RA FEW070 17/10 A3008 RMK AO2 RAB1642 CLDS LWR RWY06 SLP189
KEWR 231651Z 20003KT 10SM FEW040 SCT075 BKN110 OVC200 18/08 A3010 RMK AO2 RAE07 SLP192 P0000 T01780083
KTEB 231651Z VRB03KT 10SM SCT070 BKN100 18/07 A3009 RMK AO2 RAE37 SLP190 P0000 T01830067
KCDW 231653Z 30003KT BKN065 BKN080 OVC090 16/08 A3011 RMK AO2 SLP202 T01610078 $
KSMQ 231653Z AUTO 00000KT 10SM BKN095 OVC110 17/09 A3008
KSMQ 231653Z AUTO 00000KT 10SM BKN095 OVC110 17/09 A3008
KFWN 231653Z AUTO 00000KT 10SM FEW050 BKN080 OVC095 12/10 A3011 RMK AO2 RAB22E45 SLP196 P0001 T01220100
KSMQ 231653Z AUTO 00000KT 10SM BKN095 OVC110 17/09 A3008 RMK AO2 RAB00E33 SLP187 P0000 T01670089 TSNO
KTTN 231653Z 23003KT 10SM SCT110 17/09 A3010 RMK AO2 RAB19E36 SLP186 P0000 T01670094
K12N 231654Z AUTO 00000KT 13/11 A3010 RMK AO2 SLP197 P0001 T01280106 PWINO TSNO
KACY 231654Z 31006KT 10SM BKN065 23/10 A3012
KVAY 231654Z AUTO 00000KT 10SM SCT120 17/09 A3010 RMK AO2 SLP193 T01720094 TSNO
KMIV 231654Z AUTO 00000KT 10SM CLR 22/09 A3010 RMK AO2 SLP193 T02220094
KACY 231654Z 31006KT 10SM BKN065 23/10 A3012 RMK AO2 SLP197 T02330100
KACY 231654Z 31006KT 10SM BKN065 23/10 A3012
KWWD 231655Z AUTO 28005KT 10SM BKN065 21/10 A3013 RMK AO1
KWRI 231655Z AUTO 21003KT 10SM -RA FEW018 17/11 A3008 RMK AO2 RAB1642 SLP187 P0000 T01650109
KBLM 231655Z AUTO 00000KT 10SM BKN065 OVC110 17/09 A3010 RMK AO1
KWRI 231655Z AUTO 21003KT 10SM -RA FEW018 17/11 A3008
KNEL 231700Z AUTO 21003KT 10SM -RA FEW039 OVC100 17/11 A3009 RMK AO2 RAB00 SLP189 P0000 T01670106 $
KWRI 231704Z AUTO 19003KT 10SM CLR 17/11 A3007 RMK AO2 RAE1704 SLP185
KBLM 231715Z AUTO 21003KT 10SM FEW031 SCT042 BKN065 18/09 A3009 RMK AO1
KWWD 231715Z AUTO 28006KT 250V310 10SM FEW065 21/10 A3012 RMK AO1
KWRI 231729Z AUTO 23003KT 9SM -RA FEW095 17/11 A3006 RMK AO2 RAE1704B1729 SLP182
KBLM 231735Z AUTO 00000KT 10SM FEW033 FEW043 BKN110 18/09 A3009 RMK AO1
KWWD 231735Z AUTO 33004KT 10SM CLR 21/10 A3011 RMK AO1
KWRI 231743Z AUTO 25005KT 10SM FEW120 17/11 A3007 RMK AO2 RAE1704B1729E1743 SLP185
KMMU 231745Z 00000KT 5SM -RA BR SCT050 OVC075 14/12 A3010
KWRI 231751Z AUTO 29004KT 10SM -RA FEW140 18/11 A3007 RMK AO2 RAE1704B1729 SLP183
KEWR 231751Z 01003KT 9SM -RA FEW050 SCT080 BKN100 OVC130 18/08 A3008 RMK AO2 RAB32 SLP187 P0000 60000 T01780083 10183 20117 58015
KTEB 231751Z 36003KT 10SM -RA BKN070 OVC085 16/10 A3008 RMK AO2 RAB21 SLP185 P0000 60000 T01610100 10183 20117 58013
KTTN 231753Z 00000KT 10SM SCT075 OVC110 17/09 A3008 RMK AO2 SLP178 60000 T01720094 10172 20100 58021
KCDW 231753Z 00000KT BKN065 OVC080 16/09 A3010 RMK AO2 RAB1657E27 SLP197 P0000 60000 T01560089 10167 20078 58015 $
KFWN 231753Z AUTO 00000KT 10SM -RA BKN070 OVC095 13/11 A3010 RMK AO2 RAB36 SLP194 P0000 60004 T01280106 10128 20056 58009
KSMQ 231753Z AUTO 00000KT 10SM BKN065 OVC080 17/09 A3007 RMK AO2 SLP184 60000 T01720089 10172 20067 58012 TSNO
K12N 231754Z AUTO 00000KT 13/11 A3010 RMK AO2 SLP195 60002 T01280106 10133 20067 56012 PWINO TSNO
KACY 231754Z 20005KT 10SM SCT120 23/09 A3008 RMK AO2 SLP186 T02280089 10233 20094 58017
KMIV 231754Z AUTO 00000KT 10SM FEW110 22/09 A3009 RMK AO2 SLP187 T02220094 10222 20072 58015
KVAY 231754Z AUTO 00000KT 10SM FEW100 19/11 A3008 RMK AO2 SLP185 T01890106 10189 20083 58019 TSNO
K12N 231754Z AUTO 00000KT 13/11 A3010 RMK AO2 SLP195 60002 T01280106 10133 20067 56012 PWINO TSNO
KWWD 231755Z AUTO 27003KT 10SM CLR 21/10 A3010 RMK AO1 10210 20100 57017
KWRI 231755Z AUTO 27004KT 10SM -RA FEW150 17/11 A3006 RMK AO2 RAE1704B1729 SLP183 P0000 60000 T01750106 10175 20067 58017
KWRI 231755Z AUTO 27004KT 10SM -RA FEW150 17/11 A3006
KWRI 231755Z AUTO 27004KT 10SM -RA FEW150 17/11 A3006
KBLM 231755Z AUTO 00000KT 10SM FEW110 18/09 A3008 RMK AO1 10180 20080 57017
KNEL 231800Z AUTO 00000KT 10SM FEW060 BKN110 18/12 A3008 RMK AO2 RAE1724 SLP184 P0000 60000 T01780117 10178 20061 58009 $
KWRI 231801Z AUTO 25004KT 10SM FEW130 SCT150 18/11 A3006 RMK AO2 RAE1801 SLP182
KWWD 231815Z AUTO 00000KT 10SM CLR 21/10 A3009 RMK AO1
KBLM 231815Z AUTO 00000KT 10SM BKN110 19/09 A3008 RMK AO1
KFWN 231818Z AUTO 05003KT 9SM FEW007 SCT080 BKN110 13/11 A3009 RMK AO2 RAE1754
KBLM 231835Z AUTO 00000KT 10SM OVC110 19/10 A3008 RMK AO1
KWWD 231835Z AUTO 00000KT 10SM FEW120 22/11 A3009 RMK AO1
KMMU 231845Z 00000KT 6SM OVC060 14/10 A3009
KEWR 231851Z 02004KT 7SM -RA FEW045 BKN060 OVC130 17/10 A3008 RMK AO2 RAE07B49 SLP185 P0000 T01670100
KTEB 231851Z VRB03KT 10SM OVC060 16/09 A3007 RMK AO2 RAE50 SLP183 P0000 T01560094
KSMQ 231853Z AUTO 00000KT 10SM OVC060 17/09 A3005 RMK AO2 RAB03E12 SLP176 P0000 T01670094 TSNO
KTTN 231853Z 00000KT 10SM BKN060 18/09 A3007 RMK AO2 SLP176 T01780094
KFWN 231853Z AUTO 05004KT 10SM FEW037 SCT080 BKN110 14/10 A3009 RMK AO2 RAE1754 SLP189 T01390100
KCDW 231853Z 00000KT BKN060 BKN070 OVC095 16/08 A3009 RMK AO2 RAB1758E31 SLP193 P0000 T01560083 $
K12N 231854Z AUTO 36003KT 13/11 A3008 RMK AO2 SLP188 T01330106 PWINO TSNO
KVAY 231854Z AUTO 00000KT 10SM FEW070 20/11 A3007 RMK AO2 SLP182 T02000106 TSNO
KACY 231854Z 20003KT 10SM CLR 22/12 A3008 RMK AO2 SLP185 T02220122
KMIV 231854Z AUTO 00000KT 10SM BKN110 22/11 A3007 RMK AO2 SLP182 T02220106
KWRI 231855Z AUTO 00000KT 10SM SCT120 19/11 A3005 RMK AO2 RAE1801 SLP178 P0000 T01910113
KWRI 231855Z AUTO 00000KT 10SM SCT120 19/11 A3005 RMK AO2 RAE1801 SLP178 P0000 T01910113
KWWD 231855Z AUTO 00000KT 10SM BKN120 21/11 A3009 RMK AO1
KBLM 231855Z AUTO 00000KT 10SM OVC100 18/09 A3008 RMK AO1
KWRI 231855Z AUTO 00000KT 10SM SCT120 19/11 A3005 RMK AO2 RAE1801 SLP178 P0000 T01910113
KWWD 231915Z AUTO 34003KT 10SM FEW120 21/11 A3008 RMK AO1
KBLM 231915Z AUTO 00000KT 10SM OVC100 18/10 A3008 RMK AO1
KWRI 231931Z AUTO 00000KT 10SM -RA BKN130 20/11 A3004 RMK AO2 RAB1931 SLP174
KBLM 231935Z AUTO 11003KT 10SM BKN110 18/10 A3007 RMK AO1
KWWD 231935Z AUTO 14006KT 10SM CLR 22/11 A3008 RMK AO1
KWRI 231944Z AUTO 00000KT 10SM SCT130 BKN180 20/11 A3004 RMK AO2 RAB1931E1944DZB1932E1934 SLP174
KMMU 231945Z 00000KT 6SM BR OVC060 14/12 A3008
KTEB 231951Z 05003KT 10SM OVC050 15/09 A3007
KEWR 231951Z 04005KT 10SM FEW045 BKN060 BKN080 OVC130 16/11 A3007 RMK AO2 RAE13 SLP183 P0000 T01610111
KEWR 231951Z 04005KT 10SM FEW045 BKN060 BKN080 OVC130 16/11 A3007
KTEB 231951Z 05003KT 10SM OVC050 15/09 A3007 RMK AO2 SLP183 T01500094
KSMQ 231953Z AUTO VRB03KT 10SM SCT050 SCT060 18/10 A3005 RMK AO2 SLP177 T01780100 TSNO
KCDW 231953Z 00000KT OVC048 16/10 A3008 RMK AO2 SLP191 T01560100 $
KTTN 231953Z 00000KT 10SM BKN100 19/10 A3006 RMK AO2 SLP174 T01940100
KFWN 231953Z AUTO 00000KT 10SM BKN080 14/10 A3008 RMK AO2 SLP185 T01390100
KVAY 231954Z AUTO 00000KT 10SM CLR 21/11 A3006 RMK AO2 SLP177 T02060111 TSNO
KACY 231954Z 13006G20KT 9SM CLR 22/12 A3007 RMK AO2 SLP182 T02220122
KMIV 231954Z AUTO 16004KT 10SM CLR 22/12 A3007 RMK AO2 SLP179 T02220117
K12N 231954Z AUTO 00000KT 14/11 A3008 RMK AO2 SLP187 T01390111 PWINO TSNO
KBLM 231955Z AUTO 11003KT 10SM SCT120 18/11 A3007 RMK AO1
KWRI 231955Z AUTO 00000KT 10SM FEW110 SCT190 21/11 A3004 RMK AO2 RAB1931E1944DZB1932E1934 SLP174 P0000 T02070111
KWRI 231955Z AUTO 00000KT 10SM FEW110 SCT190 21/11 A3004 RMK AO2 RAB1931E1944DZB1932E1934 SLP174 P0000 T02070111
KWRI 231955Z AUTO 00000KT 10SM FEW110 SCT190 21/11 A3004
KWWD 231955Z AUTO 15005KT 10SM CLR 22/12 A3008 RMK AO1
KNEL 232000Z AUTO 00000KT 10SM SCT110 19/12 A3006 RMK AO2 SLP178 T01890117 $
KWRI 232010Z AUTO 00000KT 10SM -RA BKN190 21/11 A3004 RMK AO2 RAB2010 SLP175
KWRI 232010Z AUTO 00000KT 10SM -RA BKN190 21/11 A3004 RMK AO2 RAB2010 SLP175
KBLM 232015Z AUTO 10003KT 10SM FEW060 BKN110 18/11 A3008 RMK AO1
KWWD 232015Z AUTO 14005KT 10SM CLR 21/13 A3008 RMK AO1
KWRI 232022Z AUTO 00000KT 10SM BKN190 21/12 A3004 RMK AO2 RAB2010E2022 SLP175
KWRI 232022Z AUTO 00000KT 10SM BKN190 21/12 A3004 RMK AO2 RAB2010E2022 SLP175
KWRI 232022Z AUTO 00000KT 10SM BKN190 21/12 A3004 RMK AO2 RAB2010E2022 SLP175
KWRI 232022Z AUTO 00000KT 10SM BKN190 21/12 A3004 RMK AO2 RAB2010E2022 SLP175
KWRI 232025Z AUTO 00000KT 10SM -RA BKN190 21/12 A3004 RMK AO2 RAB2010 SLP176
KWRI 232025Z AUTO 00000KT 10SM -RA BKN190 21/12 A3004 RMK AO2 RAB2010 SLP176
KWRI 232029Z AUTO 00000KT 10SM FEW160 BKN190 21/11 A3004 RMK AO2 RAB2010E2029 SLP175
KWWD 232035Z AUTO 16005KT 10SM CLR 21/13 A3008 RMK AO1
KBLM 232035Z AUTO 13003KT 10SM BKN110 18/11 A3008 RMK AO1
KWRI 232040Z AUTO 00000KT 10SM -RA FEW160 BKN190 21/11 A3005 RMK AO2 RAB2010 SLP176
KMMU 232045Z 00000KT 10SM SCT070 BKN110 15/10 A3008
KEWR 232051Z 04004KT 10SM SCT050 BKN080 BKN110 BKN130 16/11 A3007 RMK AO2 SLP182 60000 T01610111 56005
KTEB 232051Z 00000KT 10SM SCT080 BKN110 16/09 A3007 RMK AO2 SLP180 60000 T01560094 57005
KWRI 232052Z AUTO 00000KT 10SM FEW160 20/11 A3005 RMK AO2 RAB2010E2052 SLP176
KWRI 232052Z AUTO 00000KT 10SM FEW160 20/11 A3005 RMK AO2 RAB2010E2052 SLP176
KWRI 232052Z AUTO 00000KT 10SM FEW160 20/11 A3005 RMK AO2 RAB2010E2052 SLP176
KWRI 232053Z AUTO 00000KT 10SM -RA FEW160 20/11 A3005 RMK AO2 RAB2010 SLP176
KWRI 232053Z AUTO 00000KT 10SM -RA FEW160 20/11 A3005 RMK AO2 RAB2010 SLP176
KWRI 232053Z AUTO 00000KT 10SM -RA FEW160 20/11 A3005 RMK AO2 RAB2010 SLP176
KTTN 232053Z 00000KT 10SM BKN070 18/11 A3006 RMK AO2 SLP174 T01830106 56005
KSMQ 232053Z AUTO 00000KT 10SM FEW085 SCT100 18/10 A3006 RMK AO2 SLP178 60000 T01780100 55006 TSNO
KFWN 232053Z AUTO 00000KT 10SM BKN075 OVC100 13/11 A3008 RMK AO2 SLP188 T01330106 55006
KWRI 232053Z AUTO 00000KT 10SM -RA FEW160 20/11 A3005 RMK AO2 RAB2010 SLP176
KCDW 232053Z 07003KT 10SM FEW080 BKN110 16/11 A3007 RMK AO2 SLP188 60000 T01560106 56008
KWRI 232053Z AUTO 00000KT 10SM -RA FEW160 20/11 A3005
K12N 232054Z AUTO 00000KT 14/12 A3008 RMK AO2 SLP188 T01440117 55007 PWINO TSNO
KMIV 232054Z AUTO 00000KT 10SM FEW120 21/12 A3006 RMK AO2 SLP179 T02110117 56008
KACY 232054Z 18005KT 10SM SCT110 21/12 A3007 RMK AO2 SLP182 T02110117 55004
KVAY 232054Z AUTO 00000KT 10SM CLR 21/11 A3006 RMK AO2 SLP178 T02110111 55007 TSNO
KWRI 232055Z AUTO 00000KT 10SM -RA FEW140 20/11 A3004 RMK AO2 RAB2010 SLP175 P0000 60000 T02030109 55007
KBLM 232055Z AUTO 08003KT 10SM FEW060 SCT120 18/11 A3008 RMK AO1 54000
KWWD 232055Z AUTO 14007KT 10SM CLR 21/14 A3007 RMK AO1 57010
KWRI 232055Z AUTO 00000KT 10SM -RA FEW140 20/11 A3004
KWRI 232058Z AUTO 00000KT 10SM FEW140 20/11 A3004
KWRI 232058Z AUTO 00000KT 10SM FEW140 20/11 A3004 RMK AO2 RAE2058 SLP176
KWRI 232113Z AUTO 00000KT 10SM -RA FEW140 19/12 A3005 RMK AO2 RAE2058B2113 SLP176
KWWD 232115Z AUTO 14007KT 10SM CLR 20/14 A3007 RMK AO1
KBLM 232115Z AUTO 10005KT 10SM FEW075 18/11 A3008 RMK AO1
KWRI 232123Z AUTO 09003KT 10SM FEW070 19/12 A3005
KWRI 232123Z AUTO 09003KT 10SM FEW070 19/12 A3005 RMK AO2 RAE2058B2113E2123 SLP176
KWRI 232125Z AUTO 09003KT 10SM -RA FEW140 19/12 A3005 RMK AO2 RAE2058B2113 SLP176
KWRI 232125Z AUTO 09003KT 10SM -RA FEW140 19/12 A3005 RMK AO2 RAE2058B2113 SLP176
KWWD 232135Z AUTO 14004KT 10SM CLR 19/14 A3008 RMK AO1
KBLM 232135Z AUTO 08003KT 10SM BKN075 17/11 A3008 RMK AO1
KBLM 232135Z AUTO 08003KT 10SM BKN075 17/11 A3008 RMK AO1
KWRI 232137Z AUTO 00000KT 10SM FEW095 19/13 A3005 RMK AO2 RAE2058B2113E2137 SLP177
KWRI 232137Z AUTO 00000KT 10SM FEW095 19/13 A3005 RMK AO2 RAE2058B2113E2137 SLP177
KWRI 232137Z AUTO 00000KT 10SM FEW095 19/13 A3005
KWRI 232137Z AUTO 00000KT 10SM FEW095 19/13 A3005 RMK AO2 RAE2058B2113E2137 SLP177
KWRI 232141Z AUTO 00000KT 10SM -RA FEW100 SCT150 18/13 A3005 RMK AO2 RAE2058B2113 SLP178
KWRI 232141Z AUTO 00000KT 10SM -RA FEW100 SCT150 18/13 A3005 RMK AO2 RAE2058B2113 SLP178
KWRI 232141Z AUTO 00000KT 10SM -RA FEW100 SCT150 18/13 A3005 RMK AO2 RAE2058B2113 SLP178
KMMU 232145Z 00000KT 10SM SCT070 OVC110 15/12 A3008
KTEB 232151Z 00000KT 10SM BKN080 OVC110 16/09 A3007 RMK AO2 SLP184 T01560094
KEWR 232151Z 03003KT 10SM FEW050 BKN090 BKN110 OVC130 16/11 A3008 RMK AO2 SLP185 T01610106
KFWN 232153Z AUTO 06004KT 10SM OVC100 13/11 A3008 RMK AO2 SLP188 T01330106
KSMQ 232153Z AUTO 00000KT 10SM BKN100 16/12 A3005 RMK AO2 RAB35E51 SLP176 P0000 T01560117 TSNO
KTTN 232153Z 21003KT 10SM BKN110 17/11 A3007 RMK AO2 SLP176 T01720106
KCDW 232153Z 00000KT 10SM -RA FEW075 OVC100 15/11 A3008 RMK AO2 RAB42 SLP191 P0000 T01500111
KACY 232154Z 17005KT 10SM CLR 19/12 A3008 RMK AO2 SLP185 T01940117
KACY 232154Z 17005KT 10SM CLR 19/12 A3008 RMK AO2 SLP185 T01940117
KMIV 232154Z AUTO 00000KT 10SM CLR 19/12 A3007 RMK AO2 SLP181 T01940122
KVAY 232154Z AUTO 00000KT 10SM SCT095 BKN120 19/12 A3007 RMK AO2 SLP181 T01940117 TSNO
K12N 232154Z AUTO 00000KT 13/12 A3008 RMK AO2 SLP189 P0001 T01330122 PWINO TSNO
KACY 232154Z 17005KT 10SM CLR 19/12 A3008 RMK AO2 SLP185 T01940117
KACY 232154Z 17005KT 10SM CLR 19/12 A3008 RMK AO2 SLP185 T01940117
K12N 232154Z AUTO 00000KT 13/12 A3008 RMK AO2 SLP189 P0001 T01330122 PWINO TSNO
K12N 232154Z AUTO 00000KT 13/12 A3008 RMK AO2 SLP189 P0001 T01330122 PWINO TSNO
KWWD 232155Z AUTO 16004KT 10SM CLR 19/14 A3008 RMK AO1
KBLM 232155Z AUTO 08004KT 10SM OVC075 16/11 A3008 RMK AO1
KWRI 232155Z AUTO 07003KT 10SM -RA SCT090 BKN120 18/13 A3005 RMK AO2 RAE2058B2113 SLP178 P0000 T01800128
KWRI 232155Z AUTO 07003KT 10SM -RA SCT090 BKN120 18/13 A3005 RMK AO2 RAE2058B2113 SLP178 P0000 T01800128
KWRI 232155Z AUTO 07003KT 10SM -RA SCT090 BKN120 18/13 A3005 RMK AO2 RAE2058B2113 SLP178 P0000 T01800128
KNEL 232200Z AUTO 00000KT 10SM BKN100 17/12 A3007 RMK AO2 SLP181 T01670122 $
KBLM 232215Z AUTO 09003KT 10SM SCT075 16/11 A3008 RMK AO1
KWWD 232215Z AUTO 00000KT 10SM CLR 19/14 A3008 RMK AO1
KWRI 232223Z AUTO 00000KT 10SM FEW095 OVC110 18/13 A3005 RMK AO2 RAE2223 SLP178
KWRI 232232Z AUTO 14003KT 10SM -RA OVC110 17/13 A3005 RMK AO2 SLP176
KWRI 232232Z AUTO 14003KT 10SM -RA OVC110 17/13 A3005 RMK AO2 SLP176
KBLM 232235Z AUTO 11004KT 10SM BKN110 16/11 A3008 RMK AO1
KWWD 232235Z AUTO 19005KT 10SM CLR 19/13 A3008 RMK AO1
KWRI 232240Z AUTO 12003KT 10SM OVC110 17/12 A3005 RMK AO2 RAE2240 SLP176
KWRI 232240Z AUTO 12003KT 10SM OVC110 17/12 A3005 RMK AO2 RAE2240 SLP176
KWRI 232240Z AUTO 12003KT 10SM OVC110 17/12 A3005 RMK AO2 RAE2240 SLP176
KWRI 232240Z AUTO 12003KT 10SM OVC110 17/12 A3005
KWRI 232241Z AUTO 12003KT 10SM -RA FEW090 OVC110 17/12 A3005 RMK AO2 SLP176
KMMU 232245Z 00000KT 10SM SCT080 BKN120 13/12 A3008
KMMU 232245Z 00000KT 10SM SCT080 BKN120 13/12 A3008
KEWR 232251Z 04004KT 10SM FEW080 BKN100 OVC150 16/11 A3007 RMK AO2 RAB05E21 SLP183 P0000 T01560106
KTEB 232251Z 04004KT 10SM FEW090 BKN110 15/11 A3007 RMK AO2 RAB2159E48 SLP181 P0000 T01500106
KTEB 232251Z 04004KT 10SM FEW090 BKN110 15/11 A3007 RMK AO2 RAB2159E48 SLP181 P0000 T01500106
KWRI 232252Z AUTO 00000KT 10SM BKN100 OVC160 17/12 A3005 RMK AO2 RAE2252 SLP177
KWRI 232252Z AUTO 00000KT 10SM BKN100 OVC160 17/12 A3005 RMK AO2 RAE2252 SLP177
KWRI 232252Z AUTO 00000KT 10SM BKN100 OVC160 17/12 A3005 RMK AO2 RAE2252 SLP177
KWRI 232252Z AUTO 00000KT 10SM BKN100 OVC160 17/12 A3005 RMK AO2 RAE2252 SLP177
KWRI 232252Z AUTO 00000KT 10SM BKN100 OVC160 17/12 A3005 RMK AO2 RAE2252 SLP177
KWRI 232252Z AUTO 00000KT 10SM BKN100 OVC160 17/12 A3005
KWRI 232252Z AUTO 00000KT 10SM BKN100 OVC160 17/12 A3005 RMK AO2 RAE2252 SLP177
KCDW 232253Z AUTO 00000KT 10SM FEW055 SCT120 14/11 A3008 RMK AO2 RAE2156 SLP192 P0000 T01390106 TSNO
KTTN 232253Z 00000KT 10SM SCT120 17/11 A3007 RMK AO2 RAB17E27 SLP176 P0000 T01670106
KSMQ 232253Z AUTO 00000KT 10SM FEW095 BKN120 14/12 A3006 RMK AO2 SLP179 T01390117 TSNO
KFWN 232253Z AUTO 00000KT 7SM -RA OVC090 12/11 A3008 RMK AO2 RAB21 SLP186 P0002 T01220106
K12N 232254Z AUTO 00000KT 13/12 A3008 RMK AO2 SLP188 T01280122 PWINO TSNO
KMIV 232254Z AUTO 14003KT 10SM CLR 17/12 A3007 RMK AO2 SLP181 T01670122
KVAY 232254Z AUTO 00000KT 10SM OVC090 18/12 A3006 RMK AO2 SLP180 T01780122 TSNO
KACY 232254Z 00000KT 10SM CLR 18/12 A3009 RMK AO2 SLP188 T01780117
KWRI 232255Z AUTO VRB03KT 10SM BKN110 OVC160 17/12 A3005 RMK AO2 RAE2252 SLP176 P0000 T01680124
KWRI 232255Z AUTO VRB03KT 10SM BKN110 OVC160 17/12 A3005 RMK AO2 RAE2252 SLP176 P0000 T01680124
KBLM 232255Z AUTO 13004KT 10SM BKN110 16/11 A3008 RMK AO1
KWWD 232255Z AUTO 20007KT 10SM CLR 19/13 A3008 RMK AO1
KWRI 232255Z AUTO VRB03KT 10SM BKN110 OVC160 17/12 A3005 RMK AO2 RAE2252 SLP176 P0000 T01680124
KNEL 232300Z AUTO 00000KT 10SM SCT110 16/12 A3007 RMK AO2 SLP181 T01560122 $
KWWD 232315Z AUTO 20006KT 10SM BKN120 18/13 A3009 RMK AO1
KBLM 232315Z AUTO 13003KT 10SM BKN110 16/11 A3008 RMK AO1
KBLM 232315Z AUTO 13003KT 10SM BKN110 16/11 A3008 RMK AO1
KBLM 232335Z AUTO 15003KT 10SM BKN120 16/12 A3008 RMK AO1
KWWD 232335Z AUTO 20006KT 10SM FEW120 18/12 A3009 RMK AO1
KMMU 232345Z 00000KT 7SM OVC090 13/11 A3009
KEWR 232351Z 02005KT 10SM FEW070 BKN110 BKN140 OVC180 14/11 A3008 RMK AO2 SLP186 60000 T01440106 10178 20144 51005
KTEB 232351Z 04003KT 10SM BKN095 OVC110 15/11 A3007 RMK AO2 SLP182 60000 T01500106 10161 20150 51001
KCDW 232353Z AUTO 03003KT 10SM BKN090 OVC110 14/11 A3009 RMK AO2 RAB41E52 SLP196 P0000 60000 T01390106 10161 20139 53007 TSNO
KSMQ 232353Z AUTO 00000KT 10SM BKN100 OVC120 13/12 A3006 RMK AO2 SLP180 60000 T01330117 10183 20133 53002 TSNO
KTTN 232353Z 00000KT 10SM FEW065 BKN100 16/11 A3006 RMK AO2 SLP173 60000 T01610111 10194 20161 58001
KFWN 232353Z AUTO 00000KT 4SM -RA BR BKN070 OVC095 12/11 A3009 RMK AO2 RAE07B33 SLP192 P0003 60005 T01170111 10144 20117 53004
KACY 232354Z 17005KT 10SM FEW110 18/13 A3008 RMK AO2 SLP185 T01780133 10244 20178 50003
K12N 232354Z AUTO 00000KT 13/12 A3009 RMK AO2 SLP193 60001 T01280117 10144 20128 53004 PWINO TSNO
KACY 232354Z 17005KT 10SM FEW110 18/13 A3008 RMK AO2 SLP185 T01780133 10244 20178 50003
KMIV 232354Z AUTO 00000KT 10SM CLR 17/12 A3007 RMK AO2 SLP182 T01670117 10233 20161 51003
KVAY 232354Z AUTO 00000KT 10SM CLR 16/13 A3006 RMK AO2 SLP180 T01610128 10217 20156 51002 TSNO
K12N 232354Z AUTO 00000KT 13/12 A3009 RMK AO2 SLP193 60001 T01280117 10144 20128 53004 PWINO TSNO
KBLM 232355Z AUTO 15003KT 10SM BKN120 16/12 A3008 RMK AO1 10190 20160 401900080 54000
KWRI 232355Z AUTO 00000KT 10SM BKN130 OVC160 16/13 A3005 RMK AO2 SLP177 60000 T01610129 10213 20160 51002
KWWD 232355Z AUTO 19007KT 10SM CLR 18/12 A3009 RMK AO1 10220 20180 402200090 52007
KBLM 240015Z AUTO 15003KT 10SM BKN120 16/12 A3008 RMK AO1
KWWD 240015Z AUTO 20007KT 10SM CLR 19/12 A3009 RMK AO1
KWWD 240035Z AUTO 19008KT 10SM CLR 18/12 A3009 RMK AO1
KBLM 240035Z AUTO 00000KT 10SM BKN110 15/12 A3008 RMK AO1
KMMU 240045Z 00000KT 10SM SCT070 OVC080 13/12 A3009
KFWN 240046Z AUTO 00000KT 2 1/2SM -RA BR SCT075 BKN090 OVC110 12/11 A3010 RMK AO2 P0002
KTEB 240051Z 02003KT 10SM OVC080 14/11 A3008 RMK AO2 RAB2352E03B33E48 SLP187 P0000 T01440111
KEWR 240051Z 02006KT 10SM -RA SCT075 OVC090 15/11 A3009 RMK AO2 RAB41 SLP189 P0000 T01500111
KCDW 240053Z AUTO 01003KT 10SM OVC080 13/11 A3010 RMK AO2 RAB21E31 SLP198 P0000 T01330111 TSNO
KSMQ 240053Z AUTO 00000KT 10SM -RA BKN085 OVC100 14/12 A3007 RMK AO2 RAB14E27B52 SLP184 P0000 T01440117 TSNO
KTTN 240053Z 00000KT 10SM OVC100 16/11 A3007 RMK AO2 SLP176 T01610111
KFWN 240053Z AUTO 00000KT 3SM -RA BR BKN070 BKN085 OVC110 12/11 A3010 RMK AO2 SLP193 P0002 T01170111
KVAY 240054Z AUTO 00000KT 10SM OVC100 15/13 A3007 RMK AO2 SLP183 T01500128 TSNO
KACY 240054Z 18004KT 10SM FEW120 18/14 A3008 RMK AO2 SLP186 T01780139
KMIV 240054Z AUTO 00000KT 10SM CLR 16/12 A3008 RMK AO2 SLP183 T01560122
K12N 240054Z AUTO 00000KT 12/12 A3010 RMK AO2 SLP195 P0001 T01220117 PWINO TSNO
KWWD 240055Z AUTO 20007KT 10SM CLR 18/12 A3009 RMK AO1
KBLM 240055Z AUTO 00000KT 10SM OVC110 16/12 A3008 RMK AO1
KWRI 240055Z AUTO 00000KT 10SM OVC100 16/13 A3005 RMK AO2 SLP179 T01560131
KNEL 240100Z AUTO 00000KT 9SM OVC110 15/13 A3007 RMK AO2 SLP182 T01500133 $
KWWD 240115Z AUTO 20006KT 10SM CLR 18/11 A3009 RMK AO1
KBLM 240115Z AUTO 04003KT 10SM FEW065 OVC100 15/12 A3008 RMK AO1
KBLM 240135Z AUTO 03004KT 10SM BKN090 OVC110 15/13 A3009 RMK AO1
KWWD 240135Z AUTO 21007KT 10SM CLR 18/11 A3010 RMK AO1
KMMU 240147Z 00000KT 10SM OVC090 13/12 A3010
KTEB 240151Z 00000KT 10SM OVC080 14/12 A3009 RMK AO2 RAB03E46 SLP188 P0001 T01390117
KTEB 240151Z 00000KT 10SM OVC080 14/12 A3009 RMK AO2 RAB03E46 SLP188 P0001 T01390117
KEWR 240151Z 03005KT 10SM -RA SCT075 OVC090 14/12 A3010 RMK AO2 RAE0052B10E24B43 SLP191 P0000 T01440117
KEWR 240151Z 03005KT 10SM -RA SCT075 OVC090 14/12 A3010 RMK AO2 RAE0052B10E24B43 SLP191 P0000 T01440117
KCDW 240153Z AUTO 00000KT 6SM -RA BR BKN075 OVC090 13/12 A3010 RMK AO2 RAB0057 SLP198 P0002 T01330117 TSNO
KFWN 240153Z AUTO 00000KT 4SM BR OVC060 12/11 A3011 RMK AO2 RAE0059 SLP195 P0001 T01170111
KSMQ 240153Z AUTO 00000KT 10SM OVC080 14/12 A3008 RMK AO2 RAE08 SLP185 P0000 T01390122 TSNO
KTTN 240153Z AUTO 05005KT 10SM BKN100 16/11 A3008 RMK AO2 SLP180 T01610111
KVAY 240154Z AUTO 00000KT 10SM BKN100 BKN120 16/13 A3007 RMK AO2 SLP183 T01560128 TSNO
K12N 240154Z AUTO 00000KT 12/12 A3010 RMK AO2 SLP195 P0002 T01220117 PWINO TSNO
KMIV 240154Z AUTO 00000KT 10SM CLR 17/10 A3008 RMK AO2 SLP185 T01720100
KACY 240154Z 00000KT 10SM BKN110 18/13 A3009 RMK AO2 SLP188 T01780128
KWRI 240155Z AUTO 00000KT 10SM BKN100 15/13 A3006 RMK AO2 SLP180 T01500134
KWWD 240155Z AUTO 20007KT 10SM CLR 18/10 A3009 RMK AO1
KWRI 240155Z AUTO 00000KT 10SM BKN100 15/13 A3006 RMK AO2 SLP180 T01500134
KBLM 240155Z AUTO 04007KT 9SM BKN090 OVC120 15/13 A3009 RMK AO1
KNEL 240200Z AUTO 00000KT 8SM BKN100 BKN120 15/13 A3008 RMK AO2 SLP183 T01500133 $
KWWD 240215Z AUTO 20007KT 10SM CLR 17/09 A3009 RMK AO1
KBLM 240215Z AUTO 00000KT 8SM OVC100 15/13 A3009 RMK AO1
KWWD 240235Z AUTO 20007KT 10SM CLR 17/09 A3010 RMK AO1
KBLM 240235Z AUTO 06004KT 6SM OVC100 14/13 A3009 RMK AO1
KFWN 240250Z AUTO 00000KT 2 1/2SM -RA BR OVC060 12/11 A3010 RMK AO2 RAB41 P0000
KTEB 240251Z 00000KT 10SM -RA OVC070 14/12 A3009 RMK AO2 RAB0158E19B46 SLP188 P0001 60002 T01390117 51007
KEWR 240251Z 02006KT 8SM -RA BKN085 OVC110 14/13 A3009 RMK AO2 SLP189 P0003 60003 T01390128 50003
KSMQ 240253Z AUTO 00000KT 10SM FEW120 14/12 A3007 RMK AO2 SLP184 60000 T01390117 50004 TSNO
KFWN 240253Z AUTO 00000KT 2 1/2SM BR OVC060 12/11 A3010 RMK AO2 RAB41E52 SLP192 P0000 60003 T01170111 50000
KSMQ 240253Z AUTO 00000KT 10SM FEW120 14/12 A3007
KCDW 240253Z AUTO 04003KT 6SM -RA BR OVC070 13/12 A3009 RMK AO2 RAE08B37 SLP196 P0000 60002 T01330117 50000 TSNO
KTTN 240253Z AUTO 04003KT 10SM FEW100 15/11 A3008 RMK AO2 SLP180 T01500106 51007
KMIV 240254Z AUTO 00000KT 10SM CLR 17/11 A3009 RMK AO2 SLP186 T01670106 53004
KACY 240254Z 00000KT 10SM CLR 17/12 A3009
KACY 240254Z 00000KT 10SM CLR 17/12 A3009 RMK AO2 SLP189 T01720122 53004
K12N 240254Z AUTO 00000KT 12/11 A3010 RMK AO2 SLP193 P0002 60005 T01220111 50001 PWINO TSNO
KMMU 240255Z AUTO 00000KT 5SM -RA SCT080 BKN120 12/12 A3009 RMK AO2
KBLM 240255Z AUTO 11003KT 5SM BKN100 OVC110 14/13 A3008 RMK AO1 54000
KWRI 240255Z AUTO 00000KT 10SM FEW100 BKN120 OVC160 15/13 A3006 RMK AO2 SLP181 T01480132 51004
KWWD 240255Z AUTO 20005KT 10SM CLR 17/09 A3009 RMK AO1 54000
KNEL 240300Z AUTO 00000KT 7SM BKN100 15/13 A3008 RMK AO2 SLP183 T01500133 53003 $
KFWN 240301Z AUTO 00000KT 3SM BR OVC060 12/11 A3010 RMK AO2
KWWD 240315Z AUTO 21005KT 10SM CLR 16/09 A3010 RMK AO1
KMMU 240315Z AUTO 00000KT 5SM BR SCT070 SCT080 BKN120 12/12 A3009 RMK AO2
KBLM 240315Z AUTO 00000KT 5SM SCT090 BKN110 14/13 A3009 RMK AO1
KMMU 240335Z AUTO 00000KT 3SM BR SCT070 OVC110 12/12 A3010 RMK AO2
KBLM 240335Z AUTO 05003KT 4SM FEW110 14/13 A3009 RMK AO1
KWWD 240335Z AUTO 21005KT 10SM CLR 16/09 A3010 RMK AO1
KBLM 240335Z AUTO 05003KT 4SM FEW110 14/13 A3009 RMK AO1
KFWN 240342Z AUTO 00000KT 2 1/2SM -RA BR FEW039 OVC060 12/11 A3010 RMK AO2 RAB34 P0001
KFWN 240350Z AUTO 00000KT 3SM -RA BR FEW039 OVC060 12/11 A3010 RMK AO2 RAB34 P0001
KTEB 240351Z 36004KT 10SM OVC070 14/12 A3009 RMK AO2 RAE00B18E28 SLP188 P0000 T01390117
KEWR 240351Z 01005KT 8SM BKN075 OVC110 14/13 A3009 RMK AO2 RAE13 SLP188 P0000 T01390128
KFWN 240353Z AUTO 00000KT 3SM -RA BR SCT039 SCT049 OVC060 12/11 A3010 RMK AO2 RAB34 SLP193 P0001 T01170111
KSMQ 240353Z AUTO 00000KT 8SM CLR 12/12 A3007 RMK AO2 SLP183 T01220117 TSNO
KTTN 240353Z AUTO 05003KT 10SM CLR 14/11 A3007 RMK AO2 SLP178 T01440106
KCDW 240353Z AUTO 00000KT 6SM BR BKN070 OVC100 13/12 A3010 RMK AO2 RAE29 SLP197 P0000 T01280117 TSNO
KVAY 240354Z AUTO 00000KT 10SM CLR 14/13 A3007 RMK AO2 SLP182 T01440128 TSNO
KMIV 240354Z AUTO 00000KT 10SM FEW110 16/11 A3008 RMK AO2 SLP184 T01610111
K12N 240354Z AUTO 00000KT 12/11 A3010 RMK AO2 SLP193 T01220111 PWINO TSNO
KACY 240354Z 00000KT 10SM BKN100 17/12 A3009 RMK AO2 SLP190 T01670122
KWWD 240355Z AUTO 20005KT 10SM CLR 16/09 A3010 RMK AO1
KBLM 240355Z AUTO 06004KT 5SM FEW110 14/13 A3008 RMK AO1
KWRI 240355Z AUTO VRB03KT 10SM SCT120 OVC160 14/13 A3006 RMK AO2 SLP179 T01430130
KMMU 240355Z AUTO 00000KT 4SM BR BKN070 OVC110 12/12 A3009 RMK AO2
KWWD 240415Z AUTO 21005KT 10SM CLR 16/09 A3010 RMK AO1
KMMU 240415Z AUTO 00000KT 5SM BR OVC070 12/12 A3009 RMK AO2
KMMU 240415Z AUTO 00000KT 5SM BR OVC070 12/12 A3009 RMK AO2
KBLM 240415Z AUTO 07004KT 7SM SCT080 14/13 A3009 RMK AO1
KFWN 240418Z AUTO 00000KT 4SM BR SCT005 SCT039 OVC070 12/11 A3010 RMK AO2 RAE04 P0001
KFWN 240432Z AUTO 00000KT 3SM BR BKN005 OVC070 12/11 A3010 RMK AO2 RAE04 P0001
KMMU 240435Z AUTO 00000KT 4SM BR OVC070 12/12 A3009 RMK AO2
KBLM 240435Z AUTO 07005KT 5SM FEW080 14/13 A3009 RMK AO1
KWWD 240435Z AUTO 20006KT 10SM CLR 16/10 A3010 RMK AO1
KEWR 240451Z 02003KT 8SM BKN075 OVC100 14/13 A3009 RMK AO2 SLP190 T01390128 401830094
KTEB 240451Z 03003KT 9SM OVC070 14/12 A3009 RMK AO2 RAB0353E26 SLP188 P0000 T01390122 401830078
KSMQ 240453Z AUTO 00000KT 9SM OVC080 12/11 A3008 RMK AO2 SLP185 T01170111 401830050 TSNO
KFWN 240453Z AUTO 00000KT 4SM BR OVC005 12/11 A3011 RMK AO2 RAE04 SLP195 P0001 T01220111 401440044
KCDW 240453Z AUTO 00000KT 7SM OVC075 13/11 A3010 RMK AO2 RAB00E24 SLP196 P0001 T01280111 401670072 TSNO
KTTN 240453Z AUTO 00000KT 10SM CLR 13/11 A3008 RMK AO2 SLP181 T01330106 401940078
KSMQ 240453Z AUTO 00000KT 9SM OVC080 12/11 A3008 RMK AO2 SLP185 T01170111 401830050 TSNO
KACY 240454Z 21004KT 10SM SCT110 17/11 A3009 RMK AO2 RAB0357E18 SLP188 P0001 T01670111 402440078
KMIV 240454Z AUTO 00000KT 10SM CLR 16/11 A3008 RMK AO2 SLP185 T01610106 402330056
K12N 240454Z AUTO 00000KT 12/11 A3010 RMK AO2 SLP192 T01220111 401440061 PWINO TSNO
KMIV 240454Z AUTO 00000KT 10SM CLR 16/11 A3008 RMK AO2 SLP185 T01610106 402330056
KACY 240454Z 21004KT 10SM SCT110 17/11 A3009 RMK AO2 RAB0357E18 SLP188 P0001 T01670111 402440078
KBLM 240455Z AUTO 07003KT 4SM CLR 14/13 A3009 RMK AO1
KMMU 240455Z AUTO 00000KT 7SM OVC070 12/12 A3010 RMK AO2
KWWD 240455Z AUTO 21005KT 10SM CLR 16/10 A3010 RMK AO1
KWRI 240455Z AUTO 00000KT 10SM SCT130 BKN170 14/13 A3006 RMK AO2 SLP179 T01370127 402130062
KWRI 240455Z AUTO 00000KT 10SM SCT130 BKN170 14/13 A3006 RMK AO2 SLP179 T01370127 402130062
KNEL 240500Z AUTO 08004KT 4SM BR CLR 14/13 A3008 RMK AO2 SLP183 T01440133 401440144 $
KBLM 240515Z AUTO 06003KT 3SM BKN080 14/13 A3009 RMK AO1
KMMU 240515Z AUTO 00000KT 7SM OVC070 12/12 A3010 RMK AO2
KWWD 240515Z AUTO 20005KT 10SM CLR 16/11 A3009 RMK AO1
KFWN 240524Z AUTO 04003KT 5SM BR SCT005 OVC070 12/11 A3011 RMK AO2
KWWD 240535Z AUTO 21007KT 10SM CLR 16/11 A3009 RMK AO1
KMMU 240535Z AUTO 00000KT 7SM OVC070 12/12 A3010 RMK AO2
KBLM 240535Z AUTO 07005KT 3SM OVC080 14/14 A3008 RMK AO1
KVAY 240546Z AUTO 00000KT 4SM BR CLR 12/12 A3007 RMK AO2 TSNO
KWRI 240549Z AUTO 00000KT 4SM R24/4000V5500FT BR SCT080 BKN130 12/12 A3006 RMK AO2 SLP180
KWRI 240549Z AUTO 00000KT 4SM R24/4000V5500FT BR SCT080 BKN130 12/12 A3006 RMK AO2 SLP180
KWRI 240549Z AUTO 00000KT 4SM R24/4000V5500FT BR SCT080 BKN130 12/12 A3006 RMK AO2 SLP180
KWRI 240550Z AUTO 00000KT 4SM R24/4000V5000FT BR SCT080 BKN130 12/12 A3006 RMK AO2 SLP179
KTEB 240551Z 01004KT 9SM OVC075 14/12 A3009 RMK AO2 SLP189 60002 T01390122 10150 20139 53001
KEWR 240551Z 02005KT 7SM OVC080 14/13 A3009 RMK AO2 SLP190 60003 T01390128 10150 20133 53001
KCDW 240553Z AUTO 00000KT 8SM OVC075 13/11 A3010 RMK AO2 SLP199 60003 T01280111 10139 20128 53003 TSNO
KTTN 240553Z AUTO 04003KT 9SM CLR 13/11 A3008 RMK AO2 SLP179 T01280106 10167 20128 56001
KFWN 240553Z AUTO 03004KT 5SM BR BKN008 OVC070 12/11 A3011 RMK AO2 SLP195 60005 T01220106 10122 20117 53001
KSMQ 240553Z AUTO 00000KT 10SM OVC080 13/12 A3008 RMK AO2 SLP186 60000 T01280117 10144 20117 53002 TSNO
KWRI 240554Z AUTO 00000KT 4SM R24/4000V5500FT BR SCT080 BKN130 12/12 A3006 RMK AO2 SLP179
KACY 240554Z AUTO 20003KT 10SM OVC100 17/11 A3008 RMK AO2 SLP186 60001 T01670106 10178 20161 58003 TSNO
KWRI 240554Z AUTO 00000KT 4SM R24/4000V5500FT BR SCT080 BKN130 12/12 A3006 RMK AO2 SLP179
KVAY 240554Z AUTO 00000KT 1 1/2SM BR CLR 12/12 A3008 RMK AO2 SLP184 T01220117 10161 20122 55001 TSNO
KWRI 240554Z AUTO 00000KT 4SM R24/4000V5500FT BR SCT080 BKN130 12/12 A3006 RMK AO2 SLP179
KMIV 240554Z AUTO 00000KT 10SM CLR 14/11 A3007 RMK AO2 SLP182 T01440111 10172 20144 58004
KWRI 240554Z AUTO 00000KT 4SM R24/4000V5500FT BR SCT080 BKN130 12/12 A3006 RMK AO2 SLP179
KWRI 240554Z AUTO 00000KT 4SM R24/4000V5500FT BR SCT080 BKN130 12/12 A3006
K12N 240554Z AUTO 00000KT 12/11 A3010 RMK AO2 SLP194 60005 T01220111 10128 20117 51002 PWINO TSNO
KMMU 240555Z AUTO 00000KT 5SM BR OVC070 12/12 A3010 RMK AO2
KWRI 240555Z AUTO 00000KT 4SM R24/4000V5500FT BR SCT080 BKN130 12/12 A3006
KWWD 240555Z AUTO 21006KT 10SM CLR 17/11 A3009 RMK AO1 10190 20160 54000
KBLM 240555Z AUTO 06003KT 3SM OVC080 14/14 A3009 RMK AO1 10160 20140 52003
KWRI 240555Z AUTO 00000KT 4SM R24/4000V5500FT BR SCT080 BKN130 12/12 A3006 RMK AO2 SLP179 T01230117 10159 20123 56002
KWRI 240559Z AUTO 00000KT 6SM R24/4000VP6000FT BR SCT080 BKN130 12/12 A3006 RMK AO2 VIS 1 3/4 RWY06 SLP179
KNEL 240600Z AUTO 00000KT 3SM BR BKN080 13/12 A3007 RMK AO2 SLP182 T01280122 10161 20122 57000 $
KVAY 240610Z AUTO 00000KT 7SM CLR 12/11 A3008 RMK AO2 TSNO
KWRI 240611Z AUTO 00000KT 7SM R24/5000V5500FT FEW080 BKN130 13/12 A3006 RMK AO2 SLP179
KWRI 240611Z AUTO 00000KT 7SM R24/5000V5500FT FEW080 BKN130 13/12 A3006 RMK AO2 SLP179
KWRI 240611Z AUTO 00000KT 7SM R24/5000V5500FT FEW080 BKN130 13/12 A3006 RMK AO2 SLP179
KWRI 240614Z AUTO 00000KT 7SM R24/5000VP6000FT SCT130 SCT170 13/12 A3006 RMK AO2 CLDS LWR RWY06 SLP180
KMMU 240615Z AUTO 00000KT 5SM BR OVC070 12/12 A3010 RMK AO2
KBLM 240615Z AUTO 07005KT 3SM OVC080 15/14 A3008 RMK AO1
KWWD 240615Z AUTO 21008KT 10SM CLR 17/11 A3009 RMK AO1
KWRI 240624Z AUTO 00000KT 7SM R24/5000V5500FT FEW080 SCT130 BKN170 12/12 A3006 RMK AO2 SLP180
KWRI 240633Z AUTO 00000KT 5SM R24/4500V5000FT BR FEW080 BKN160 12/12 A3006 RMK AO2 SLP181
KBLM 240635Z AUTO 08004KT 3SM OVC080 15/14 A3008 RMK AO1
KMMU 240635Z AUTO 00000KT 4SM BR OVC070 12/12 A3010 RMK AO2
KWWD 240635Z AUTO 22009KT 10SM CLR 17/11 A3009 RMK AO1
KWRI 240640Z AUTO 00000KT 5SM R24/4000V5500FT BR FEW080 BKN160 12/11 A3006 RMK AO2 SLP181
KTEB 240651Z 01003KT 7SM OVC080 14/12 A3010 RMK AO2 SLP191 T01390117
KEWR 240651Z 02004KT 7SM OVC080 14/13 A3010 RMK AO2 SLP191 T01390128
KSMQ 240653Z AUTO 00000KT 10SM OVC080 12/11 A3008 RMK AO2 SLP187 T01220111 TSNO
KCDW 240653Z AUTO 00000KT 5SM BR OVC075 13/12 A3011 RMK AO2 SLP201 T01280117 TSNO
KFWN 240653Z AUTO 03005KT 5SM BR SCT005 OVC010 12/11 A3011 RMK AO2 SLP198 T01170106
KTTN 240653Z AUTO 06005KT 9SM CLR 13/11 A3008 RMK AO2 SLP180 T01330106
KMIV 240654Z AUTO 00000KT 10SM CLR 13/11 A3008 RMK AO2 SLP184 T01330111
K12N 240654Z AUTO 00000KT 12/11 A3011 RMK AO2 SLP196 T01220111 PWINO TSNO
KACY 240654Z 00000KT 10SM OVC100 16/11 A3009 RMK AO2 SLP188 T01610106
KVAY 240654Z AUTO 00000KT 6SM BR CLR 13/12 A3007 RMK AO2 SLP183 T01280117 TSNO
KMMU 240655Z AUTO 00000KT 4SM BR OVC070 12/12 A3010 RMK AO2
KBLM 240655Z AUTO 06004KT 3SM OVC080 15/14 A3009 RMK AO1
KWRI 240655Z AUTO 00000KT 8SM R24/5000V5500FT BKN160 12/12 A3006
KWRI 240655Z AUTO 00000KT 8SM R24/5000V5500FT BKN160 12/12 A3006 RMK AO2 SLP180 T01200116
KWWD 240655Z AUTO 22010KT 10SM CLR 17/11 A3009 RMK AO1
KNEL 240700Z AUTO 00000KT 3SM BR OVC080 12/11 A3008 RMK AO2 SLP183 T01170111 $
KWRI 240701Z AUTO 00000KT 8SM R24/5000VP6000FT BKN160 12/11 A3006 RMK AO2 SLP180
KFWN 240705Z AUTO 03007KT 5SM BR BKN005 OVC010 12/11 A3011 RMK AO2
KWRI 240713Z AUTO 00000KT 8SM R24/5500FT FEW085 SCT130 BKN160 12/11 A3006 RMK AO2 SLP180
KWRI 240713Z AUTO 00000KT 8SM R24/5500FT FEW085 SCT130 BKN160 12/11 A3006 RMK AO2 SLP180
KWRI 240713Z AUTO 00000KT 8SM R24/5500FT FEW085 SCT130 BKN160 12/11 A3006 RMK AO2 SLP180
KMMU 240715Z AUTO 00000KT 4SM BR OVC070 12/12 A3010 RMK AO2
KWRI 240715Z AUTO 00000KT 8SM R24/5500VP6000FT SCT085 SCT130 BKN160 12/11 A3006 RMK AO2 SLP181
KWRI 240715Z AUTO 00000KT 8SM R24/5500VP6000FT SCT085 SCT130 BKN160 12/11 A3006 RMK AO2 SLP181
KBLM 240715Z AUTO 03005KT 3SM OVC080 15/14 A3009 RMK AO1
KWWD 240715Z AUTO 22009KT 10SM CLR 17/11 A3009 RMK AO1
KWRI 240715Z AUTO 00000KT 8SM R24/5500VP6000FT SCT085 SCT130 BKN160 12/11 A3006
KBLM 240735Z AUTO 05005KT 3SM OVC080 15/14 A3009 RMK AO1
KMMU 240735Z AUTO 00000KT 5SM BR OVC070 12/12 A3010 RMK AO2
KWWD 240735Z AUTO 22007KT 10SM CLR 17/12 A3008 RMK AO1
KCDW 240736Z AUTO 00000KT 4SM BR SCT007 OVC075 13/12 A3011 RMK AO2 TSNO
KCDW 240748Z AUTO 00000KT 4SM BR BKN007 OVC075 13/12 A3010 RMK AO2 TSNO
KTEB 240751Z 01003KT 7SM SCT011 OVC075 14/12 A3009 RMK AO2 SLP190 T01390117
KEWR 240751Z 02006KT 6SM BR OVC080 14/13 A3010 RMK AO2 SLP191 T01390128
KWRI 240752Z AUTO 05003KT 9SM R24/5500FT OVC080 12/11 A3006 RMK AO2 SLP181
KWRI 240752Z AUTO 05003KT 9SM R24/5500FT OVC080 12/11 A3006 RMK AO2 SLP181
KWRI 240752Z AUTO 05003KT 9SM R24/5500FT OVC080 12/11 A3006 RMK AO2 SLP181
KWRI 240752Z AUTO 05003KT 9SM R24/5500FT OVC080 12/11 A3006
KSMQ 240753Z AUTO 00000KT 10SM OVC080 13/12 A3008 RMK AO2 SLP186 T01280117 TSNO
KTTN 240753Z AUTO 03004KT 9SM SCT080 OVC100 13/11 A3009 RMK AO2 SLP181 T01330111
KFWN 240753Z AUTO 04004KT 5SM BR OVC005 12/11 A3011 RMK AO2 SLP197 T01170106
KCDW 240753Z AUTO 00000KT 4SM BR BKN007 OVC075 13/12 A3010 RMK AO2 SLP199 T01280117 TSNO
K12N 240754Z AUTO 04003KT 12/11 A3011 RMK AO2 SLP195 T01220111 PWINO TSNO
KACY 240754Z 00000KT 10SM OVC095 16/11 A3008 RMK AO2 SLP186 T01560111
KMIV 240754Z AUTO 00000KT 10SM CLR 12/11 A3008 RMK AO2 SLP183 T01220111
KWRI 240755Z AUTO 05003KT 9SM R24/5500FT OVC080 12/12 A3006 RMK AO2 SLP181 T01200116
KMMU 240755Z AUTO 00000KT 4SM BR OVC080 12/12 A3010 RMK AO2
KWWD 240755Z AUTO 22007KT 10SM CLR 17/12 A3008 RMK AO1
KBLM 240755Z AUTO 04004KT 3SM OVC080 15/14 A3009 RMK AO1
KNEL 240756Z AUTO 00000KT 2 1/2SM BR OVC080 14/13 A3008 RMK AO2 $
KNEL 240756Z AUTO 00000KT 2 1/2SM BR OVC080 14/13 A3008 RMK AO2 $
KNEL 240756Z AUTO 00000KT 2 1/2SM BR OVC080 14/13 A3008 RMK AO2 $
KNEL 240756Z AUTO 00000KT 2 1/2SM BR OVC080 14/13 A3008 RMK AO2 $
KNEL 240800Z AUTO 00000KT 2SM BR OVC080 14/13 A3008 RMK AO2 SLP183 T01390128 $
KTEB 240804Z 01003KT 7SM BKN011 OVC080 14/12 A3010 RMK AO2
KCDW 240808Z AUTO 00000KT 5SM BR SCT007 BKN011 OVC080 13/12 A3011 RMK AO2 TSNO
KBLM 240815Z AUTO 04003KT 3SM BKN080 15/14 A3009 RMK AO1
KWWD 240815Z AUTO 22008KT 10SM CLR 17/12 A3008 RMK AO1
KMMU 240815Z AUTO 00000KT 4SM BR BKN080 OVC090 12/12 A3011 RMK AO2
KWRI 240825Z AUTO 06004KT 6SM R24/5000FT BR OVC080 13/12 A3006 RMK AO2 SLP182
KCDW 240828Z AUTO 00000KT 5SM BR BKN007 BKN011 OVC080 13/12 A3012 RMK AO2 TSNO
KMMU 240835Z AUTO 00000KT 4SM BR SCT080 OVC090 12/12 A3011 RMK AO2
KBLM 240835Z AUTO 04005KT 3SM OVC080 15/14 A3009 RMK AO1
KWWD 240835Z AUTO 23005KT 10SM BKN085 17/12 A3009 RMK AO1
KEWR 240851Z 02006KT 6SM BR OVC080 14/13 A3011 RMK AO2 SLP194 T01390128 53004
KTEB 240851Z 00000KT 7SM OVC011 14/12 A3011 RMK AO2 SLP194 T01390117 53005
KFWN 240853Z AUTO 05007KT 7SM OVC005 12/11 A3012 RMK AO2 SLP200 T01170106 51005
KCDW 240853Z AUTO 00000KT 4SM BR BKN007 OVC085 13/12 A3011 RMK AO2 SLP203 T01280117 53002 TSNO
KSMQ 240853Z AUTO 00000KT 10SM OVC080 13/12 A3009 RMK AO2 SLP190 T01330117 53004 TSNO
KTTN 240853Z AUTO 06005KT 9SM BKN080 13/11 A3009 RMK AO2 SLP182 T01330111 51003
KACY 240854Z 00000KT 10SM BKN090 14/11 A3009 RMK AO2 SLP189 T01440111 53003
KMIV 240854Z AUTO 00000KT 9SM CLR 12/11 A3008 RMK AO2 SLP184 T01170111 51002
KVAY 240854Z AUTO 00000KT 5SM BR BKN100 13/12 A3008 RMK AO2 SLP187 T01280117 53003 TSNO
K12N 240854Z AUTO 04004KT 12/11 A3011 RMK AO2 SLP197 T01170111 51004 PWINO TSNO
KWRI 240855Z AUTO 00000KT 6SM R24/5000FT BR OVC085 13/12 A3007 RMK AO2 SLP183 T01290124 53004
KWWD 240855Z AUTO 23005KT 10SM SCT085 17/12 A3009 RMK AO1 54000
KBLM 240855Z AUTO 04005KT 4SM OVC080 15/14 A3009 RMK AO1 54000
KMMU 240855Z AUTO 00000KT 4SM BR OVC090 12/12 A3011 RMK AO2
KNEL 240900Z AUTO 00000KT 2SM BR OVC080 14/13 A3009 RMK AO2 SLP185 T01390133 51001 $
KCDW 240902Z AUTO 00000KT 4SM BR SCT007 BKN012 OVC095 13/12 A3012 RMK AO2 TSNO
KWRI 240907Z AUTO 00000KT 7SM R24/5000V5500FT BKN080 OVC140 13/12 A3007 RMK AO2 SLP184
KTTN 240914Z AUTO 04003KT 9SM FEW007 OVC090 13/11 A3010 RMK AO2
KWWD 240915Z AUTO 26003KT 10SM BKN095 17/12 A3009 RMK AO1
KBLM 240915Z AUTO 04005KT 5SM OVC080 15/14 A3010 RMK AO1
KMMU 240915Z AUTO 00000KT 5SM BR BKN012 OVC090 12/12 A3012 RMK AO2
KWRI 240917Z AUTO 00000KT 6SM R24/5000FT BR SCT080 BKN110 OVC140 13/12 A3007 RMK AO2 SLP185
KMMU 240935Z AUTO 00000KT 4SM BR SCT012 BKN100 12/12 A3012 RMK AO2
KWWD 240935Z AUTO 27003KT 10SM BKN095 16/12 A3010 RMK AO1
KBLM 240935Z AUTO 05005KT 6SM OVC080 15/14 A3010 RMK AO1
KFWN 240937Z AUTO 03005KT 10SM OVC007 12/10 A3013 RMK AO2
KWRI 240940Z AUTO 00000KT 4SM R24/4000V4500FT BR SCT140 13/12 A3008 RMK AO2 SLP187
KWRI 240949Z AUTO 00000KT 2 1/2SM R24/3000V4500FT BR SCT150 12/12 A3008 RMK AO2 VIS 1 3/4 RWY06 SLP187
KWRI 240949Z AUTO 00000KT 2 1/2SM R24/3000V4500FT BR SCT150 12/12 A3008
KWRI 240949Z AUTO 00000KT 2 1/2SM R24/3000V4500FT BR SCT150 12/12 A3008 RMK AO2 VIS 1 3/4 RWY06 SLP187
KWRI 240949Z AUTO 00000KT 2 1/2SM R24/3000V4500FT BR SCT150 12/12 A3008 RMK AO2 VIS 1 3/4 RWY06 SLP187
KWRI 240950Z AUTO 00000KT 2 1/2SM R24/3000V4000FT BR SCT150 12/12 A3008 RMK AO2 VIS 1 3/4 RWY06 SLP187
KEWR 240951Z 02007KT 6SM BR OVC095 13/12 A3012 RMK AO2 SLP198 T01330122
KTEB 240951Z 02003KT 6SM BR OVC013 14/12 A3012 RMK AO2 SLP198 T01390122
KTTN 240953Z 06006KT 8SM BKN007 OVC090 13/12 A3010 RMK AO2 SLP187 T01330117
KFWN 240953Z AUTO 02006KT 10SM OVC007 11/10 A3014 RMK AO2 SLP205 T01110100
KCDW 240953Z AUTO 00000KT 4SM BR OVC012 13/12 A3013 RMK AO2 SLP208 T01280117 TSNO
KSMQ 240953Z AUTO 00000KT 8SM OVC100 13/12 A3010 RMK AO2 SLP194 T01330117 TSNO
KVAY 240954Z AUTO 00000KT 4SM BR BKN090 12/11 A3010 RMK AO2 SLP192 T01220111 TSNO
K12N 240954Z AUTO 03003KT 12/11 A3013 RMK AO2 SLP202 T01170111 PWINO TSNO
KMIV 240954Z AUTO 00000KT 10SM OVC100 13/12 A3010 RMK AO2 SLP192 T01280117
KACY 240954Z 00000KT 10SM OVC085 14/12 A3010 RMK AO2 SLP193 T01390117
KMMU 240955Z AUTO 00000KT 4SM BR BKN012 BKN090 12/12 A3013 RMK AO2
KWRI 240955Z AUTO 00000KT 2 1/2SM R24/3000V4000FT BR SCT150 12/12 A3008
KWRI 240955Z AUTO 00000KT 2 1/2SM R24/3000V4000FT BR SCT150 12/12 A3008 RMK AO2 SLP188 T01230119
KWWD 240955Z AUTO 00000KT 10SM BKN085 16/12 A3010 RMK AO1
KBLM 240955Z AUTO 04007KT 7SM SCT008 OVC080 15/14 A3010 RMK AO1
KWRI 240957Z AUTO 00000KT 2 1/2SM R24/3000V5000FT BR SCT150 SCT210 12/12 A3008 RMK AO2 SLP188
KWRI 240957Z AUTO 00000KT 2 1/2SM R24/3000V5000FT BR SCT150 SCT210 12/12 A3008
KWRI 240957Z AUTO 00000KT 2 1/2SM R24/3000V5000FT BR SCT150 SCT210 12/12 A3008 RMK AO2 SLP188
KWRI 240957Z AUTO 00000KT 2 1/2SM R24/3000V5000FT BR SCT150 SCT210 12/12 A3008 RMK AO2 SLP188
KWRI 240957Z AUTO 00000KT 2 1/2SM R24/3000V5000FT BR SCT150 SCT210 12/12 A3008 RMK AO2 SLP188
KWRI 240958Z AUTO 00000KT 3SM R24/3000V5000FT BR SCT150 SCT210 12/12 A3008 RMK AO2 VIS 2 RWY06 SLP188
KVAY 240958Z AUTO 00000KT 1 3/4SM BR BKN090 12/11 A3010 RMK AO2 TSNO
KNEL 241000Z AUTO 00000KT 2SM BR FEW100 12/12 A3010 RMK AO2 SLP190 T01220117 $
KVAY 241010Z AUTO 35003KT 1SM BR SCT090 12/11 A3010 RMK AO2 TSNO
KMMU 241015Z AUTO 00000KT 4SM BR OVC010 12/12 A3013 RMK AO2
KWWD 241015Z AUTO 00000KT 10SM BKN095 16/12 A3011 RMK AO1
KBLM 241015Z AUTO 02006KT 10SM BKN010 OVC080 15/14 A3011 RMK AO1
KFWN 241018Z AUTO 03004KT 7SM -RA OVC005 11/10 A3014 RMK AO2 RAB17 P0000
KVAY 241018Z AUTO 00000KT 2SM BR FEW090 12/11 A3011 RMK AO2 TSNO
KNEL 241029Z AUTO 00000KT 2SM BR SCT005 BKN070 12/12 A3011 RMK AO2 $
KWRI 241030Z AUTO 00000KT 5SM R24/4500V5000FT BR FEW004 SCT070 BKN090 BKN220 12/12 A3009 RMK AO2 SLP190
KCDW 241031Z AUTO 06003KT 4SM BR OVC008 13/11 A3013 RMK AO2 CIG 007V011 TSNO
KWWD 241035Z AUTO 00000KT 10SM OVC095 15/12 A3011 RMK AO1
KVAY 241035Z AUTO 00000KT 3SM BR CLR 12/12 A3011 RMK AO2 TSNO
KTTN 241035Z 06004KT 8SM SCT009 BKN095 13/12 A3011 RMK AO2
KMMU 241035Z AUTO 00000KT 3SM BR OVC010 12/12 A3013 RMK AO2
KBLM 241035Z AUTO 03005KT 7SM BKN005 OVC010 15/14 A3012 RMK AO1
KNEL 241038Z AUTO 00000KT 2 1/2SM BR BKN005 BKN070 13/12 A3011 RMK AO2 $
KWRI 241040Z AUTO 00000KT 5SM R24/4000V5000FT BR BKN004 BKN070 OVC220 12/12 A3009 RMK AO2 BKN004 V SCT SLP191
KMMU 241045Z 00000KT 4SM BR OVC010 12/12 A3013
KWRI 241045Z AUTO 00000KT 2 1/2SM R24/2800V5000FT BR BKN005 BKN070 BKN220 12/12 A3009 RMK AO2 SLP191
KWRI 241045Z AUTO 00000KT 2 1/2SM R24/2800V5000FT BR BKN005 BKN070 BKN220 12/12 A3009 RMK AO2 SLP191
KWRI 241048Z AUTO 00000KT 1 3/4SM R24/2800V4500FT -RA BR SCT005 BKN070 BKN220 12/12 A3009
KWRI 241048Z AUTO 00000KT 1 3/4SM R24/2800V4500FT -RA BR SCT005 BKN070 BKN220 12/12 A3009 RMK AO2 RAB1048 CIG 004 RWY06 SLP191
KWRI 241048Z AUTO 00000KT 1 3/4SM R24/2800V4500FT -RA BR SCT005 BKN070 BKN220 12/12 A3009 RMK AO2 RAB1048 CIG 004 RWY06 SLP191
KWRI 241048Z AUTO 00000KT 1 3/4SM R24/2800V4500FT -RA BR SCT005 BKN070 BKN220 12/12 A3009 RMK AO2 RAB1048 CIG 004 RWY06 SLP191
KWRI 241048Z AUTO 00000KT 1 3/4SM R24/2800V4500FT -RA BR SCT005 BKN070 BKN220 12/12 A3009 RMK AO2 RAB1048 CIG 004 RWY06 SLP191
KWRI 241049Z AUTO 00000KT 1 3/4SM R24/2400V4000FT -RA BR SCT005 BKN220 12/12 A3009 RMK AO2 RAB1048 CIG 004 RWY06 SLP192
KWRI 241049Z AUTO 00000KT 1 3/4SM R24/2400V4000FT -RA BR SCT005 BKN220 12/12 A3009 RMK AO2 RAB1048 CIG 004 RWY06 SLP192
KWRI 241049Z AUTO 00000KT 1 3/4SM R24/2400V4000FT -RA BR SCT005 BKN220 12/12 A3009 RMK AO2 RAB1048 CIG 004 RWY06 SLP192
KWRI 241049Z AUTO 00000KT 1 3/4SM R24/2400V4000FT -RA BR SCT005 BKN220 12/12 A3009
KWRI 241050Z AUTO 00000KT 1 1/2SM R24/2200V3500FT -RA BR SCT005 BKN220 12/12 A3009 RMK AO2 RAB1048 CIG 004 RWY06 SLP192
KWRI 241050Z AUTO 00000KT 1 1/2SM R24/2200V3500FT -RA BR SCT005 BKN220 12/12 A3009 RMK AO2 RAB1048 CIG 004 RWY06 SLP192
KTEB 241051Z 02003KT 7SM BKN010 OVC015 14/12 A3013 RMK AO2 CIG 008V012 SLP201 T01390117
KWRI 241051Z AUTO 00000KT 1 1/4SM R24/1600V3000FT -RA BR SCT004 BKN220 12/12 A3009 RMK AO2 RAB1048 CIG 004 RWY06 SLP192
KWRI 241051Z AUTO 00000KT 1 1/4SM R24/1600V3000FT -RA BR SCT004 BKN220 12/12 A3009 RMK AO2 RAB1048 CIG 004 RWY06 SLP192
KEWR 241051Z 02007KT 6SM BR BKN010 BKN090 OVC150 13/12 A3012 RMK AO2 SLP199 T01330122
KWRI 241051Z AUTO 00000KT 1 1/4SM R24/1600V3000FT -RA BR SCT004 BKN220 12/12 A3009 RMK AO2 RAB1048 CIG 004 RWY06 SLP192
KVAY 241052Z AUTO 00000KT 2 1/2SM BR CLR 12/12 A3011 RMK AO2 TSNO
KFWN 241053Z AUTO 00000KT 7SM OVC005 11/10 A3014 RMK AO2 RAB17E47 SLP207 P0000 T01110100
KSMQ 241053Z AUTO 00000KT 7SM FEW010 13/12 A3011 RMK AO2 SLP196 T01330117 TSNO
KNEL 241053Z AUTO 01003KT 2SM BR SCT005 SCT070 OVC090 14/13 A3011 RMK AO2 $
KTTN 241053Z 06004KT 8SM FEW095 13/12 A3011 RMK AO2 SLP191 T01330117
KWRI 241053Z AUTO 00000KT 1SM R24/1400V2800FT -RA BR SCT004 BKN220 12/12 A3009 RMK AO2 RAB1048 CIG 004 RWY06 SLP192
KCDW 241053Z AUTO 00000KT 4SM BR OVC008 13/11 A3013 RMK AO2 CIG 006V010 SLP209 T01280111 TSNO
KWRI 241053Z AUTO 00000KT 1SM R24/1400V2800FT -RA BR SCT004 BKN220 12/12 A3009 RMK AO2 RAB1048 CIG 004 RWY06 SLP192
KACY 241054Z 00000KT 10SM BKN110 13/11 A3011 RMK AO2 SLP195 T01280111
K12N 241054Z AUTO 04004KT 12/11 A3013 RMK AO2 SLP204 T01170111 PWINO TSNO
KMIV 241054Z AUTO 00000KT 8SM BKN090 12/11 A3011 RMK AO2 SLP193 T01220111
KVAY 241054Z AUTO 00000KT 2SM BR CLR 12/11 A3011 RMK AO2 SLP196 T01220111 TSNO
KWRI 241055Z AUTO 00000KT 1SM R24/1400V2800FT -RA BR SCT004 BKN220 12/12 A3009
KWRI 241055Z AUTO 00000KT 1SM R24/1400V2800FT -RA BR SCT004 BKN220 12/12 A3009 RMK AO2 RAB1048 CIG 004 RWY06 SLP192 P0000 T01240121
KWRI 241055Z AUTO 00000KT 1SM R24/1400V2800FT -RA BR SCT004 BKN220 12/12 A3009 RMK AO2 RAB1048 CIG 004 RWY06 SLP192 P0000 T01240121
KBLM 241055Z AUTO 04006KT 5SM OVC005 15/13 A3012 RMK AO1
KWWD 241055Z AUTO 00000KT 10SM BKN085 16/12 A3012 RMK AO1
KWRI 241055Z AUTO 00000KT 1SM R24/1400V2800FT -RA BR SCT004 BKN220 12/12 A3009 RMK AO2 RAB1048 CIG 004 RWY06 SLP192 P0000 T01240121
KWRI 241056Z AUTO 00000KT 3/4SM R24/1200V2800FT -RA BR SCT004 BKN220 12/12 A3009 RMK AO2 CIG 004 RWY06 SLP192
KWRI 241056Z AUTO 00000KT 3/4SM R24/1200V2800FT -RA BR SCT004 BKN220 12/12 A3009 RMK AO2 CIG 004 RWY06 SLP192
KWRI 241057Z AUTO 00000KT 3/4SM R24/1200V2800FT BR SCT004 BKN230 12/12 A3009 RMK AO2 RAE1057 CIG 004 RWY06 SLP192
KWRI 241057Z AUTO 00000KT 3/4SM R24/1200V2800FT BR SCT004 BKN230 12/12 A3009 RMK AO2 RAE1057 CIG 004 RWY06 SLP192
KWRI 241059Z AUTO 00000KT 3/4SM R24/1200V2200FT BR SCT004 BKN230 12/12 A3009 RMK AO2 RAE1057 CIG 004 RWY06 SLP192
KWRI 241059Z AUTO 00000KT 3/4SM R24/1200V2200FT BR SCT004 BKN230 12/12 A3009 RMK AO2 RAE1057 CIG 004 RWY06 SLP192
KNEL 241100Z AUTO 02003KT 2SM BR FEW005 SCT070 BKN090 14/13 A3011 RMK AO2 SLP193 T01390133 $
KWRI 241100Z AUTO 00000KT 3/4SM R24/1200V2400FT BR SCT004 BKN230 12/12 A3009 RMK AO2 VIS 2 1/2 RWY06 RAE1057 CIG 004 RWY06 SLP192
KWRI 241100Z AUTO 00000KT 3/4SM R24/1200V2400FT BR SCT004 BKN230 12/12 A3009 RMK AO2 VIS 2 1/2 RWY06 RAE1057 CIG 004 RWY06 SLP192
KWRI 241100Z AUTO 00000KT 3/4SM R24/1200V2400FT BR SCT004 BKN230 12/12 A3009 RMK AO2 VIS 2 1/2 RWY06 RAE1057 CIG 004 RWY06 SLP192
KWRI 241100Z AUTO 00000KT 3/4SM R24/1200V2400FT BR SCT004 BKN230 12/12 A3009
KWRI 241100Z AUTO 00000KT 3/4SM R24/1200V2400FT BR SCT004 BKN230 12/12 A3009 RMK AO2 VIS 2 1/2 RWY06 RAE1057 CIG 004 RWY06 SLP192
KVAY 241102Z AUTO 00000KT 1 1/4SM BR CLR 12/11 A3011 RMK AO2 TSNO
KTTN 241103Z 06004KT 8SM SCT008 13/12 A3011 RMK AO2
KWRI 241103Z AUTO 00000KT 1SM R24/1200V4000FT BR SCT004 BKN230 12/12 A3009 RMK AO2 RAE1057 SLP192
KWRI 241105Z AUTO 00000KT 1SM R24/1200V4500FT BR SCT005 BKN230 12/12 A3009 RMK AO2 RAE1057 CIG 005 RWY06 SLP192
KWRI 241105Z AUTO 00000KT 1SM R24/1200V4500FT BR SCT005 BKN230 12/12 A3009 RMK AO2 RAE1057 CIG 005 RWY06 SLP192
KWRI 241105Z AUTO 00000KT 1SM R24/1200V4500FT BR SCT005 BKN230 12/12 A3009 RMK AO2 RAE1057 CIG 005 RWY06 SLP192
KWRI 241106Z AUTO 00000KT 1 1/4SM R24/1400V4500FT BR SCT005 BKN230 12/12 A3009
KWRI 241106Z AUTO 00000KT 1 1/4SM R24/1400V4500FT BR SCT005 BKN230 12/12 A3009 RMK AO2 RAE1057 CIG 005 RWY06 SLP192
KWRI 241106Z AUTO 00000KT 1 1/4SM R24/1400V4500FT BR SCT005 BKN230 12/12 A3009 RMK AO2 RAE1057 CIG 005 RWY06 SLP192
KWRI 241106Z AUTO 00000KT 1 1/4SM R24/1400V4500FT BR SCT005 BKN230 12/12 A3009 RMK AO2 RAE1057 CIG 005 RWY06 SLP192
KWRI 241107Z AUTO 00000KT 1 3/4SM R24/1400V4500FT BR SCT005 BKN230 12/12 A3009
KWRI 241107Z AUTO 00000KT 1 3/4SM R24/1400V4500FT BR SCT005 BKN230 12/12 A3009 RMK AO2 VIS 3/4 RWY06 RAE1057 SCT V BKN CIG 005 RWY06 SLP192
KWRI 241107Z AUTO 00000KT 1 3/4SM R24/1400V4500FT BR SCT005 BKN230 12/12 A3009 RMK AO2 VIS 3/4 RWY06 RAE1057 SCT V BKN CIG 005 RWY06 SLP192
KWRI 241107Z AUTO 00000KT 1 3/4SM R24/1400V4500FT BR SCT005 BKN230 12/12 A3009 RMK AO2 VIS 3/4 RWY06 RAE1057 SCT V BKN CIG 005 RWY06 SLP192
KWRI 241107Z AUTO 00000KT 1 3/4SM R24/1400V4500FT BR SCT005 BKN230 12/12 A3009 RMK AO2 VIS 3/4 RWY06 RAE1057 SCT V BKN CIG 005 RWY06 SLP192
KWRI 241108Z AUTO 00000KT 2SM R24/1800V4500FT BR BKN005 BKN230 12/12 A3009 RMK AO2 VIS 3/4 RWY06 RAE1057 SLP192
KWRI 241108Z AUTO 00000KT 2SM R24/1800V4500FT BR BKN005 BKN230 12/12 A3009
KWRI 241108Z AUTO 00000KT 2SM R24/1800V4500FT BR BKN005 BKN230 12/12 A3009 RMK AO2 VIS 3/4 RWY06 RAE1057 SLP192
KWRI 241108Z AUTO 00000KT 2SM R24/1800V4500FT BR BKN005 BKN230 12/12 A3009 RMK AO2 VIS 3/4 RWY06 RAE1057 SLP192
KWRI 241108Z AUTO 00000KT 2SM R24/1800V4500FT BR BKN005 BKN230 12/12 A3009 RMK AO2 VIS 3/4 RWY06 RAE1057 SLP192
KWRI 241109Z AUTO 00000KT 2 1/2SM R24/2400VP6000FT BR BKN005 BKN230 12/12 A3009 RMK AO2 VIS 1/2 RWY06 RAE1057 SLP192
KMMU 241109Z 04003KT 2 1/4SM BR OVC008 12/12 A3014
KWRI 241109Z AUTO 00000KT 2 1/2SM R24/2400VP6000FT BR BKN005 BKN230 12/12 A3009 RMK AO2 VIS 1/2 RWY06 RAE1057 SLP192
KWRI 241110Z AUTO 00000KT 1 3/4SM R24/2000VP6000FT BR BKN005 BKN230 12/12 A3009 RMK AO2 VIS 1/2 RWY06 RAE1057 SLP192
KWRI 241110Z AUTO 00000KT 1 3/4SM R24/2000VP6000FT BR BKN005 BKN230 12/12 A3009 RMK AO2 VIS 1/2 RWY06 RAE1057 SLP192
KFWN 241110Z AUTO 03004KT 7SM OVC007 11/10 A3014 RMK AO2
KWRI 241110Z AUTO 00000KT 1 3/4SM R24/2000VP6000FT BR BKN005 BKN230 12/12 A3009 RMK AO2 VIS 1/2 RWY06 RAE1057 SLP192
KWRI 241111Z AUTO 00000KT 1 1/2SM R24/2000VP6000FT BR BKN005 BKN230 12/12 A3009 RMK AO2 VIS 1/2 RWY06 RAE1057 SLP192
KWRI 241111Z AUTO 00000KT 1 1/2SM R24/2000VP6000FT BR BKN005 BKN230 12/12 A3009 RMK AO2 VIS 1/2 RWY06 RAE1057 SLP192
KWRI 241111Z AUTO 00000KT 1 1/2SM R24/2000VP6000FT BR BKN005 BKN230 12/12 A3009 RMK AO2 VIS 1/2 RWY06 RAE1057 SLP192
KWRI 241111Z AUTO 00000KT 1 1/2SM R24/2000VP6000FT BR BKN005 BKN230 12/12 A3009
KWRI 241111Z AUTO 00000KT 1 1/2SM R24/2000VP6000FT BR BKN005 BKN230 12/12 A3009 RMK AO2 VIS 1/2 RWY06 RAE1057 SLP192
KTTN 241112Z 06005KT 8SM BKN008 13/12 A3011 RMK AO2
KWRI 241112Z AUTO 00000KT 1 1/4SM R24/2000VP6000FT BR BKN005 BKN230 12/12 A3009 RMK AO2 VIS 1/4 RWY06 RAE1057 BKN005 V SCT SLP191
KWRI 241112Z AUTO 00000KT 1 1/4SM R24/2000VP6000FT BR BKN005 BKN230 12/12 A3009 RMK AO2 VIS 1/4 RWY06 RAE1057 BKN005 V SCT SLP191
KVAY 241113Z AUTO 00000KT 3/4SM BR CLR 12/11 A3011 RMK AO2 TSNO
KWRI 241113Z AUTO 00000KT 1 1/4SM R24/2000VP6000FT BR SCT005 BKN230 12/12 A3009 RMK AO2 VIS 1/4 RWY06 RAE1057 CIG 005 RWY06 SLP191
KWWD 241115Z AUTO 00000KT 10SM SCT085 BKN100 16/12 A3011 RMK AO1
KBLM 241115Z AUTO 05007KT 7SM OVC005 14/13 A3012 RMK AO1
KWRI 241117Z AUTO 00000KT 1SM R24/2000VP6000FT BR SCT005 BKN230 12/12 A3009 RMK AO2 VIS 1/4 RWY06 RAE1057 CIG 005 RWY06 SLP190
KWRI 241117Z AUTO 00000KT 1SM R24/2000VP6000FT BR SCT005 BKN230 12/12 A3009 RMK AO2 VIS 1/4 RWY06 RAE1057 CIG 005 RWY06 SLP190
KWRI 241119Z AUTO 00000KT 3/4SM R24/2000VP6000FT BR SCT005 BKN230 12/12 A3009 RMK AO2 RAE1057 CIG 005 RWY06 SLP191
KWRI 241119Z AUTO 00000KT 3/4SM R24/2000VP6000FT BR SCT005 BKN230 12/12 A3009 RMK AO2 RAE1057 CIG 005 RWY06 SLP191
KWRI 241119Z AUTO 00000KT 3/4SM R24/2000VP6000FT BR SCT005 BKN230 12/12 A3009 RMK AO2 RAE1057 CIG 005 RWY06 SLP191
KWRI 241119Z AUTO 00000KT 3/4SM R24/2000VP6000FT BR SCT005 BKN230 12/12 A3009 RMK AO2 RAE1057 CIG 005 RWY06 SLP191
KWRI 241119Z AUTO 00000KT 3/4SM R24/2000VP6000FT BR SCT005 BKN230 12/12 A3009
KWRI 241121Z AUTO 00000KT 1/2SM R24/1200VP6000FT FG FEW005 SCT230 12/12 A3009 RMK AO2 RAE1057 SLP190
KVAY 241121Z AUTO 00000KT 1/2SM FG VV006 12/11 A3011 RMK AO2 TSNO
KWRI 241124Z AUTO 00000KT 1/4SM R24/1200VP6000FT FG FEW005 SCT230 12/12 A3009
KWRI 241124Z AUTO 00000KT 1/4SM R24/1200VP6000FT FG FEW005 SCT230 12/12 A3009 RMK AO2 RAE1057 SLP190
KWRI 241124Z AUTO 00000KT 1/4SM R24/1200VP6000FT FG FEW005 SCT230 12/12 A3009 RMK AO2 RAE1057 SLP190
KWRI 241124Z AUTO 00000KT 1/4SM R24/1200VP6000FT FG FEW005 SCT230 12/12 A3009 RMK AO2 RAE1057 SLP190
KWRI 241126Z AUTO 00000KT 1/4SM R24/1200V4500FT FG FEW006 SCT230 12/12 A3009 RMK AO2 RAE1057 SLP190
KWRI 241126Z AUTO 00000KT 1/4SM R24/1200V4500FT FG FEW006 SCT230 12/12 A3009 RMK AO2 RAE1057 SLP190
KWRI 241126Z AUTO 00000KT 1/4SM R24/1200V4500FT FG FEW006 SCT230 12/12 A3009 RMK AO2 RAE1057 SLP190
KWRI 241127Z AUTO 00000KT 1/4SM R24/1200V2600FT FG FEW006 SCT230 12/12 A3009 RMK AO2 RAE1057 SLP190
KWRI 241127Z AUTO 00000KT 1/4SM R24/1200V2600FT FG FEW006 SCT230 12/12 A3009 RMK AO2 RAE1057 SLP190
KWRI 241127Z AUTO 00000KT 1/4SM R24/1200V2600FT FG FEW006 SCT230 12/12 A3009 RMK AO2 RAE1057 SLP190
KWRI 241128Z AUTO 00000KT 1/4SM R24/1200V2200FT FG FEW006 SCT230 12/12 A3009
KWRI 241128Z AUTO 00000KT 1/4SM R24/1200V2200FT FG FEW006 SCT230 12/12 A3009 RMK AO2 RAE1057 SLP190
KWRI 241128Z AUTO 00000KT 1/4SM R24/1200V2200FT FG FEW006 SCT230 12/12 A3009 RMK AO2 RAE1057 SLP190
KWRI 241128Z AUTO 00000KT 1/4SM R24/1200V2200FT FG FEW006 SCT230 12/12 A3009 RMK AO2 RAE1057 SLP190
KWRI 241128Z AUTO 00000KT 1/4SM R24/1200V2200FT FG FEW006 SCT230 12/12 A3009 RMK AO2 RAE1057 SLP190
KWRI 241129Z AUTO 00000KT 1/4SM R24/1200V1800FT FG FEW006 SCT230 12/12 A3009 RMK AO2 RAE1057 SLP190
KWRI 241129Z AUTO 00000KT 1/4SM R24/1200V1800FT FG FEW006 SCT230 12/12 A3009 RMK AO2 RAE1057 SLP190
KVAY 241130Z AUTO 00000KT 3/4SM BR VV005 12/11 A3011 RMK AO2 TSNO
KVAY 241132Z AUTO 00000KT 1SM BR VV004 12/11 A3011 RMK AO2 TSNO
KWRI 241133Z AUTO 00000KT 1/4SM R24/1200V2200FT FG FEW006 SCT230 12/12 A3009 RMK AO2 RAE1057 SLP190
KWRI 241133Z AUTO 00000KT 1/4SM R24/1200V2200FT FG FEW006 SCT230 12/12 A3009 RMK AO2 RAE1057 SLP190
KWRI 241133Z AUTO 00000KT 1/4SM R24/1200V2200FT FG FEW006 SCT230 12/12 A3009 RMK AO2 RAE1057 SLP190
KWRI 241134Z AUTO 00000KT 1/4SM R24/1200V2400FT FG FEW006 12/12 A3009 RMK AO2 RAE1057 SLP190
KSMQ 241134Z AUTO 00000KT 5SM BR BKN010 BKN017 BKN100 13/12 A3012 RMK AO2 TSNO
KWWD 241135Z AUTO 00000KT 10SM SCT110 15/12 A3012 RMK AO1
KBLM 241135Z AUTO 05007KT 5SM OVC005 14/13 A3012 RMK AO1
KWRI 241138Z AUTO 05003KT 1/2SM R24/1200V5000FT FG FEW230 12/12 A3009 RMK AO2 RAE1057 CLDS LWR RWY06 SLP191
KWRI 241138Z AUTO 05003KT 1/2SM R24/1200V5000FT FG FEW230 12/12 A3009 RMK AO2 RAE1057 CLDS LWR RWY06 SLP191
KWRI 241138Z AUTO 05003KT 1/2SM R24/1200V5000FT FG FEW230 12/12 A3009
KWRI 241138Z AUTO 05003KT 1/2SM R24/1200V5000FT FG FEW230 12/12 A3009 RMK AO2 RAE1057 CLDS LWR RWY06 SLP191
KWRI 241139Z AUTO 05003KT 1/2SM R24/1600VP6000FT FG FEW230 12/12 A3009 RMK AO2 RAE1057 CLDS LWR RWY06 SLP191
KWRI 241139Z AUTO 05003KT 1/2SM R24/1600VP6000FT FG FEW230 12/12 A3009 RMK AO2 RAE1057 CLDS LWR RWY06 SLP191
KWRI 241139Z AUTO 05003KT 1/2SM R24/1600VP6000FT FG FEW230 12/12 A3009
KWRI 241139Z AUTO 05003KT 1/2SM R24/1600VP6000FT FG FEW230 12/12 A3009 RMK AO2 RAE1057 CLDS LWR RWY06 SLP191
KWRI 241141Z AUTO 05003KT 3/4SM R24/1800VP6000FT BR FEW230 12/12 A3009 RMK AO2 VIS 1/4 RWY06 RAE1057 CLDS LWR RWY06 SLP191
KWRI 241144Z AUTO 05003KT 1SM R24/2200VP6000FT BR CLR 12/12 A3009 RMK AO2 VIS M1/4 RWY06 RAE1057 SLP191
KWRI 241144Z AUTO 05003KT 1SM R24/2200VP6000FT BR CLR 12/12 A3009 RMK AO2 VIS M1/4 RWY06 RAE1057 SLP191
KWRI 241144Z AUTO 05003KT 1SM R24/2200VP6000FT BR CLR 12/12 A3009
KWRI 241144Z AUTO 05003KT 1SM R24/2200VP6000FT BR CLR 12/12 A3009 RMK AO2 VIS M1/4 RWY06 RAE1057 SLP191
KMMU 241145Z 04003KT 02SM BR OVC008 12/12 A3015
KWRI 241146Z AUTO 06003KT 1 1/4SM R24/2600VP6000FT BR FEW230 12/12 A3009 RMK AO2 VIS M1/4 RWY06 RAE1057 CLDS LWR RWY06 SLP191
KWRI 241146Z AUTO 06003KT 1 1/4SM R24/2600VP6000FT BR FEW230 12/12 A3009
KWRI 241146Z AUTO 06003KT 1 1/4SM R24/2600VP6000FT BR FEW230 12/12 A3009 RMK AO2 VIS M1/4 RWY06 RAE1057 CLDS LWR RWY06 SLP191
KWRI 241146Z AUTO 06003KT 1 1/4SM R24/2600VP6000FT BR FEW230 12/12 A3009 RMK AO2 VIS M1/4 RWY06 RAE1057 CLDS LWR RWY06 SLP191
KWRI 241146Z AUTO 06003KT 1 1/4SM R24/2600VP6000FT BR FEW230 12/12 A3009 RMK AO2 VIS M1/4 RWY06 RAE1057 CLDS LWR RWY06 SLP191
KWRI 241147Z AUTO 05003KT 1 1/2SM R24/5000VP6000FT BR FEW230 12/12 A3009 RMK AO2 VIS M1/4 RWY06 RAE1057 CLDS LWR RWY06 SLP191
KWRI 241147Z AUTO 05003KT 1 1/2SM R24/5000VP6000FT BR FEW230 12/12 A3009 RMK AO2 VIS M1/4 RWY06 RAE1057 CLDS LWR RWY06 SLP191
KWRI 241147Z AUTO 05003KT 1 1/2SM R24/5000VP6000FT BR FEW230 12/12 A3009
KWRI 241147Z AUTO 05003KT 1 1/2SM R24/5000VP6000FT BR FEW230 12/12 A3009 RMK AO2 VIS M1/4 RWY06 RAE1057 CLDS LWR RWY06 SLP191
KWRI 241148Z AUTO 05003KT 1 3/4SM BR FEW230 12/12 A3009 RMK AO2 VIS M1/4 RWY06 RAE1057 CLDS LWR RWY06 SLP191
KWRI 241148Z AUTO 05003KT 1 3/4SM BR FEW230 12/12 A3009 RMK AO2 VIS M1/4 RWY06 RAE1057 CLDS LWR RWY06 SLP191
KWRI 241148Z AUTO 05003KT 1 3/4SM BR FEW230 12/12 A3009
KWRI 241148Z AUTO 05003KT 1 3/4SM BR FEW230 12/12 A3009 RMK AO2 VIS M1/4 RWY06 RAE1057 CLDS LWR RWY06 SLP191
KWRI 241149Z AUTO 05003KT 1 3/4SM BR FEW005 12/12 A3009 RMK AO2 VIS M1/4 RWY06 RAE1057 SLP192
KTEB 241151Z 03003KT 5SM -DZ BR OVC010 13/11 A3014 RMK AO2 DZB26 SLP204 P0000 60000 70002 T01330111 10139 20133 51010
KEWR 241151Z 02007KT 3SM -RA BR BKN011 OVC030 14/13 A3014 RMK AO2 SFC VIS 4 RAB46 SLP205 P0000 60000 70003 T01390128 10139 20133 53011
KVAY 241151Z AUTO 00000KT 1 1/2SM BR OVC004 12/12 A3011 RMK AO2 TSNO
KSMQ 241153Z AUTO 00000KT 4SM BR SCT010 OVC017 13/12 A3013 RMK AO2 SLP202 T01330122 10133 20122 53012 TSNO
KFWN 241153Z AUTO 02004KT 7SM BKN005 OVC009 11/10 A3015 RMK AO2 SLP210 60000 70014 T01110100 10122 20111 51010
KCDW 241153Z AUTO 00000KT 3SM BR OVC008 13/11 A3014 RMK AO2 CIG 007V012 SLP212 70003 T01280111 10133 20128 51009 TSNO
KTTN 241153Z 04005KT 6SM BR OVC006 14/12 A3012 RMK AO2 SLP195 T01390117 10139 20128 51013
KMIV 241154Z AUTO 00000KT 8SM FEW075 12/11 A3012 RMK AO2 SLP197 T01220111 10144 20117 51012
KACY 241154Z 00000KT 10SM BKN095 13/11 A3012 RMK AO2 SLP200 70001 T01330111 10167 20122 53012
K12N 241154Z AUTO 00000KT 11/11 A3015 RMK AO2 SLP210 70008 T01110106 10122 20111 53013 PWINO TSNO
KVAY 241154Z AUTO 00000KT 1 1/2SM BR OVC004 12/12 A3012 RMK AO2 SLP197 T01220117 10128 20117 53001 TSNO
KWRI 241155Z AUTO 05005KT 2SM BR SCT004 SCT230 12/12 A3010
KWWD 241155Z AUTO 00000KT 10SM FEW110 14/12 A3012 RMK AO1 10170 20140 52010
KBLM 241155Z AUTO 04008KT 4SM OVC005 14/13 A3013 RMK AO1 10160 20140 52014
KWRI 241155Z AUTO 05005KT 2SM BR SCT004 SCT230 12/12 A3010 RMK AO2 VIS 1/2 RWY06 RAE1057 SLP193 P0000 60000 T01200117 10129 20116 51010
KNEL 241157Z AUTO 04004KT 2 1/2SM BR BKN006 14/14 A3011 RMK AO2 $
KNEL 241157Z AUTO 04004KT 2 1/2SM BR BKN006 14/14 A3011 RMK AO2 $
KNEL 241157Z AUTO 04004KT 2 1/2SM BR BKN006 14/14 A3011 RMK AO2 $
KNEL 241157Z AUTO 04004KT 2 1/2SM BR BKN006 14/14 A3011 RMK AO2 $
KNEL 241157Z AUTO 04004KT 2 1/2SM BR BKN006 14/14 A3011 RMK AO2 $
KWRI 241159Z AUTO 05005KT 2 1/2SM BR BKN004 BKN230 12/12 A3010 RMK AO2 VIS 1 1/2 RWY06 BKN004 V SCT SLP194
KWRI 241159Z AUTO 05005KT 2 1/2SM BR BKN004 BKN230 12/12 A3010 RMK AO2 VIS 1 1/2 RWY06 BKN004 V SCT SLP194
KNEL 241200Z AUTO 05004KT 3SM BR BKN006 14/14 A3011 RMK AO2 $
KNEL 241200Z AUTO 05004KT 3SM BR BKN006 14/14 A3011 RMK AO2 $
KWRI 241201Z AUTO 05005KT 3SM BR BKN004 BKN230 12/12 A3010 RMK AO2 SLP194
KEWR 241204Z 02005KT 3SM -RA BR FEW007 BKN009 OVC015 14/13 A3014 RMK AO2 BKN V SCT P0000
KNEL 241206Z AUTO 04004KT 3SM BR OVC006 15/14 A3012 RMK AO2 SLP196 T01500139 10150 20117 51009 $
KWRI 241211Z AUTO 07004KT 2 1/2SM BR BKN003 OVC230 14/13 A3010 RMK AO2 SLP195
KWWD 241215Z AUTO 00000KT 10SM CLR 15/13 A3013 RMK AO1
KBLM 241215Z AUTO 04008KT 3SM OVC006 14/13 A3013 RMK AO1
KVAY 241224Z AUTO 00000KT 2SM BR OVC006 13/12 A3013 RMK AO2 TSNO
KEWR 241227Z 02005KT 3SM -DZ BR OVC011 14/13 A3015 RMK AO2 SFC VIS 4 RAE26DZB26 CIG 009V013 P0000
KWWD 241235Z AUTO 00000KT 10SM CLR 17/13 A3013 RMK AO1
KBLM 241235Z AUTO 04007KT 3SM OVC006 14/13 A3014 RMK AO1
KWRI 241241Z AUTO 08006KT 3SM BR OVC003 14/14 A3011 RMK AO2 SLP197
KMMU 241245Z 00000KT 2 1/4SM -RA BR OVC008 13/12 A3016
KEWR 241248Z 01006KT 3SM -RA BR FEW009 OVC012 14/13 A3015 RMK AO2 SFC VIS 4 RAE26B48DZB26E48 CIG 010V014 P0000
KEWR 241251Z 01006KT 3SM -RA BR FEW009 OVC012 14/13 A3015 RMK AO2 SFC VIS 3 RAE26B48DZB26E48 SLP210 CIG 010V014 P0000 T01390128
KTEB 241251Z 04003KT 5SM -DZ BR BKN010 OVC110 14/12 A3015 RMK AO2 SLP209 P0000 T01390117
KTTN 241253Z 06005KT 4SM BR OVC006 14/12 A3014 RMK AO2 SLP200 T01390122
KFWN 241253Z AUTO 03004KT 4SM -RA BR OVC005 11/10 A3017 RMK AO2 RAB47 SLP215 P0001 T01110100
KSMQ 241253Z AUTO 05004KT 4SM BR FEW012 SCT017 OVC100 14/12 A3013 RMK AO2 SLP205 T01390122 TSNO
KCDW 241253Z AUTO 07003KT 3SM -RA BR OVC008 13/12 A3016 RMK AO2 RAB06E19B41 SLP219 P0000 T01280117 TSNO
K12N 241254Z AUTO 00000KT 11/11 A3017 RMK AO2 SLP216 T01110106 PWINO TSNO
KACY 241254Z 00000KT 10SM BKN090 17/12 A3013 RMK AO2 SLP201 T01670122
KMIV 241254Z AUTO 00000KT 10SM BKN075 BKN090 BKN110 16/13 A3012 RMK AO2 SLP199 T01560128
KVAY 241254Z AUTO 03004KT 2 1/2SM BR OVC006 14/13 A3013 RMK AO2 SLP204 T01390128 TSNO
KWWD 241255Z AUTO 28004KT 10SM BKN080 18/13 A3014 RMK AO1
KBLM 241255Z AUTO 05008KT 4SM OVC006 14/13 A3014 RMK AO1
KWRI 241255Z AUTO 08006KT 3SM BR OVC003 14/14 A3011 RMK AO2 SLP199 T01450142
KVAY 241305Z AUTO 05004KT 2SM BR OVC004 14/13 A3014 RMK AO2 TSNO
KSMQ 241306Z AUTO 05003KT 5SM BR SCT012 BKN017 OVC100 14/12 A3014 RMK AO2 TSNO
KVAY 241312Z AUTO 05003KT 1 1/2SM BR OVC004 14/13 A3014 RMK AO2 TSNO
KWWD 241315Z AUTO 28005KT 10SM SCT080 18/13 A3014 RMK AO1
KBLM 241315Z AUTO 03006KT 5SM OVC006 14/13 A3014 RMK AO1
KSMQ 241316Z AUTO 02003KT 5SM BR BKN012 BKN017 OVC100 14/12 A3014 RMK AO2 TSNO
KWWD 241335Z AUTO 27004KT 10SM FEW070 18/13 A3013 RMK AO1
KBLM 241335Z AUTO 03006KT 5SM OVC006 14/13 A3015 RMK AO1
KEWR 241344Z 02007KT 3SM -RA BR FEW009 SCT013 OVC080 14/13 A3014 RMK AO2 SFC VIS 5 SCT V BKN P0006
KMMU 241345Z 02004KT 2SM -RA BR OVC006 13/13 A3016
KEWR 241351Z 02007KT 3SM -RA BR FEW009 SCT013 OVC080 14/13 A3015
KTEB 241351Z 36005KT 5SM BR OVC010 14/12 A3015 RMK AO2 DZE14RAB14E50 SLP208 P0000 T01390117
KEWR 241351Z 02007KT 3SM -RA BR FEW009 SCT013 OVC080 14/13 A3015 RMK AO2 SFC VIS 5 SLP208 SCT V BKN P0006 T01390133
KSMQ 241353Z AUTO 00000KT 5SM BR BKN012 OVC100 14/12 A3013 RMK AO2 RAB29E43 SLP203 P0000 T01440122 TSNO
KTTN 241353Z 00000KT 4SM BR OVC006 14/13 A3014 RMK AO2 SLP200 T01440128
KCDW 241353Z AUTO 00000KT 3SM -RA BR OVC010 13/12 A3016 RMK AO2 RAE11B50 CIG 007V011 SLP217 P0001 T01330117 TSNO
KFWN 241353Z AUTO 04004KT 6SM BR OVC005 12/11 A3016 RMK AO2 RAE1259 SLP213 P0000 T01170106
KACY 241354Z 01003KT 10SM BKN090 18/12 A3013 RMK AO2 SLP203 T01830122
K12N 241354Z AUTO 00000KT 12/11 A3016 RMK AO2 SLP213 P0004 T01170111 PWINO TSNO
KVAY 241354Z AUTO 05004KT 2SM BR OVC004 14/13 A3014 RMK AO2 SLP205 T01440133 TSNO
KMIV 241354Z AUTO 01005KT 10SM SCT085 18/12 A3013 RMK AO2 SLP202 T01780122
KWWD 241355Z AUTO 30005KT 10SM FEW070 19/13 A3014 RMK AO1
KBLM 241355Z AUTO 04006KT 5SM OVC008 15/13 A3014 RMK AO1
KWRI 241355Z AUTO 03007KT 7SM OVC004 15/14 A3012 RMK AO2 SLP201 T01470144
KEWR 241358Z 01006KT 3SM -RA BR FEW009 BKN015 OVC095 14/13 A3015 RMK AO2 SFC VIS 5 CIG 013V017 P0000
KWWD 241415Z AUTO 28005KT 10SM CLR 19/13 A3013 RMK AO1
KBLM 241415Z AUTO 03005KT 5SM OVC008 15/13 A3014 RMK AO1
KWRI 241417Z AUTO 04006KT 9SM OVC005 15/14 A3012 RMK AO2 SLP200
KCDW 241421Z AUTO 00000KT 4SM -RA BR OVC009 13/12 A3015 RMK AO2 CIG 006V011 P0000 TSNO
KTEB 241433Z 01005KT 3SM -RA BR OVC007 14/12 A3014 RMK AO2 RAB07 P0002
KBLM 241435Z AUTO 04006KT 6SM OVC008 15/13 A3014 RMK AO1
KWWD 241435Z AUTO 29005KT 10SM CLR 19/13 A3013 RMK AO1
KEWR 241441Z 02006KT 3SM BR SCT007 OVC013 14/13 A3014 RMK AO2 SFC VIS 5 RAE21 P0000
KWRI 241444Z AUTO 00000KT 10SM OVC006 15/14 A3011 RMK AO2 SLP198
KMMU 241445Z 03004KT 2 1/2SM BR OVC006 14/12 A3015
KEWR 241451Z 01006KT 3SM BR SCT007 BKN011 OVC017 14/13 A3014 RMK AO2 SFC VIS 5 RAE21 SLP207 P0000 60006 T01440133 58004
KTEB 241451Z 35004KT 3SM BR OVC007 14/12 A3014 RMK AO2 RAB07E44 SLP205 P0002 60002 T01390122 50001
KCDW 241453Z AUTO 00000KT 4SM BR OVC007 14/12 A3015 RMK AO2 RAE26 CIG 005V010 SLP215 P0000 60001 T01390122 50003 TSNO
KFWN 241453Z AUTO 02003KT 7SM OVC005 12/11 A3015 RMK AO2 CIG 005V010 SLP211 60001 T01220106 50001
KTTN 241453Z 00000KT 4SM BR OVC008 15/13 A3013 RMK AO2 SLP198 T01500128 50002
KSMQ 241453Z AUTO VRB04KT 6SM HZ OVC012 16/12 A3012 RMK AO2 SLP201 60000 T01560122 58004 TSNO $
KMIV 241454Z AUTO 00000KT 10SM CLR 19/12 A3012 RMK AO2 SLP199 T01940122 50002
K12N 241454Z AUTO 00000KT 12/11 A3015 RMK AO2 SLP210 60004 T01220111 58001 PWINO TSNO
KACY 241454Z 00000KT 10SM SCT090 19/12 A3013 RMK AO2 SLP202 T01890122 50002
KVAY 241454Z AUTO 08003KT 2 1/2SM BR OVC004 15/14 A3013 RMK AO2 SLP202 T01500139 50005 TSNO
KBLM 241455Z AUTO 04004KT 6SM OVC008 15/13 A3014 RMK AO1 52003
KWRI 241455Z AUTO 02004KT 10SM OVC006 15/14 A3011 RMK AO2 SLP198 T01540144 50005
KWWD 241455Z AUTO 31004KT 10SM CLR 19/13 A3013 RMK AO1 52003
KVAY 241508Z AUTO 02003KT 3SM BR OVC004 16/14 A3013 RMK AO2 TSNO
KEWR 241512Z 36006KT 3SM BR SCT006 BKN009 OVC017 15/13 A3014
KWWD 241515Z AUTO 32004KT 10SM CLR 19/13 A3013 RMK AO1
KBLM 241515Z AUTO 04006KT 5SM OVC008 15/13 A3014 RMK AO1
KWRI 241527Z AUTO 02004KT 10SM OVC007 16/14 A3011 RMK AO2 SLP197
KWWD 241535Z AUTO 26004KT 10SM CLR 20/13 A3013 RMK AO1
KBLM 241535Z AUTO 06005KT 7SM OVC008 16/13 A3014 RMK AO1
KFWN 241537Z AUTO 03003KT 9SM OVC007 13/11 A3015 RMK AO2
KNEL 241537Z AUTO 04004KT 7SM OVC010 17/14 A3012 RMK AO2 $
KTTN 241539Z 00000KT 4SM HZ OVC010 16/13 A3012 RMK AO2
KEWR 241544Z 04004KT 3SM BR FEW007 BKN010 OVC015 16/13 A3013 RMK AO2 SFC VIS 5 CIG 009V011
KMMU 241545Z 07004KT 2 3/4SM BR OVC007 14/13 A3014
KWRI 241550Z AUTO 06004KT 10SM OVC008 16/14 A3011 RMK AO2 SLP197
KEWR 241551Z 03004KT 3SM BR FEW007 BKN010 OVC015 16/13 A3014 RMK AO2 SFC VIS 5 SLP204 CIG 009V011 T01560133
KTEB 241551Z 01004KT 3SM BR OVC008 14/12 A3013 RMK AO2 RAB03E48 SLP202 P0000 T01440122
KTTN 241553Z 00000KT 5SM HZ OVC010 17/13 A3013 RMK AO2 SLP195 T01670128
KSMQ 241553Z AUTO 14003KT 7SM OVC014 17/13 A3012 RMK AO2 SLP199 T01670128 TSNO $
KCDW 241553Z AUTO VRB03KT 6SM BR OVC007 14/12 A3014 RMK AO2 SLP211 T01440122 TSNO
KFWN 241553Z AUTO 05004KT 8SM -RA OVC007 13/11 A3015 RMK AO2 RAB45 SLP209 P0000 T01280111
KVAY 241554Z AUTO 03003KT 4SM BR OVC006 16/14 A3012 RMK AO2 SLP200 T01610139 TSNO
KMIV 241554Z AUTO 00000KT 10SM CLR 21/13 A3011 RMK AO2 SLP193 T02110128
KACY 241554Z 12003KT 10SM CLR 21/14 A3012 RMK AO2 SLP198 T02110139
K12N 241554Z AUTO 00000KT 13/11 A3014 RMK AO2 SLP208 T01280111 PWINO TSNO
KWWD 241555Z AUTO 34003KT 10SM CLR 21/13 A3012 RMK AO1
KWRI 241555Z AUTO 02004KT 10SM OVC008 16/14 A3011 RMK AO2 SLP196 T01630140
KBLM 241555Z AUTO 04005KT 7SM OVC008 16/13 A3014 RMK AO1
KNEL 241600Z AUTO 00000KT 8SM OVC012 18/14 A3012 RMK AO2 SLP197 T01780139 $
KBLM 241615Z AUTO 02004KT 8SM OVC008 16/13 A3013 RMK AO1
KWWD 241615Z AUTO 35004KT 10SM CLR 20/13 A3011 RMK AO1
KWRI 241632Z AUTO VRB03KT 10SM OVC010 17/14 A3010 RMK AO2 CIG 009V011 SLP193
KTEB 241634Z 03004KT 4SM BR OVC010 16/13 A3012 RMK AO2
KBLM 241635Z AUTO 05006KT 7SM OVC010 16/13 A3012 RMK AO1
KSMQ 241635Z AUTO 00000KT 7SM OVC016 17/13 A3011 RMK AO2 TSNO $
KWWD 241635Z AUTO 00000KT 10SM CLR 21/13 A3011 RMK AO1
KNEL 241636Z AUTO VRB04KT 9SM SCT014 19/14 A3010 RMK AO2 $
KTTN 241636Z VRB03KT 6SM HZ SCT012 18/13 A3011 RMK AO2
KMMU 241645Z 07004KT 2 3/4SM BR OVC008 15/13 A3013
KTEB 241651Z VRB03KT 4SM BR OVC010 16/13 A3012 RMK AO2 SLP199 T01560128
KEWR 241651Z 01004KT 3SM HZ FEW007 BKN011 OVC016 16/13 A3013 RMK AO2 SFC VIS 6 SLP201 T01610133
KCDW 241653Z AUTO 05004KT 7SM -RA OVC011 15/12 A3013 RMK AO2 RAB52 SLP209 P0000 T01500122 TSNO
KFWN 241653Z AUTO 04004KT 9SM OVC007 13/11 A3014 RMK AO2 RAE13 SLP205 P0000 T01330111
KSMQ 241653Z AUTO 00000KT 7SM OVC016 17/13 A3010 RMK AO2 SLP195 T01670128 TSNO $
KTTN 241653Z 00000KT 6SM HZ CLR 19/13 A3011 RMK AO2 SLP189 T01890133
KMIV 241654Z AUTO 32003KT 10SM CLR 23/13 A3010 RMK AO2 SLP191 T02280128
KACY 241654Z 15005KT 10SM CLR 21/16 A3010 RMK AO2 SLP193 T02110156
K12N 241654Z AUTO 00000KT 13/12 A3013 RMK AO2 SLP204 T01330117 PWINO TSNO
KVAY 241654Z AUTO 03003KT 5SM HZ OVC010 18/14 A3011 RMK AO2 SLP194 T01780144 TSNO
KBLM 241655Z AUTO 04005KT 7SM OVC010 16/13 A3012 RMK AO1
KWWD 241655Z AUTO 00000KT 10SM FEW120 21/14 A3010 RMK AO1
KWRI 241655Z AUTO 34004KT 10SM SCT010 18/14 A3009 RMK AO2 SLP190 T01790142
KNEL 241700Z AUTO VRB05KT 10SM BKN018 20/14 A3010 RMK AO2 $
KNEL 241710Z AUTO 00000KT 10SM SCT018 20/14 A3010 RMK AO2 $
KBLM 241715Z AUTO 03003KT 7SM OVC010 16/13 A3012 RMK AO1
KWWD 241715Z AUTO 30005KT FEW120 21/14 A3010 RMK AO1
KTEB 241715Z 36003KT 4SM BR SCT010 BKN016 OVC020 16/13 A3011 RMK AO2
KVAY 241719Z AUTO 00000KT 6SM HZ SCT010 18/14 A3010 RMK AO2 TSNO
KWRI 241720Z AUTO 01003KT 10SM -RA CLR 19/14 A3008 RMK AO2 RAB1720 SLP189
KTEB 241726Z 03004KT 5SM BR BKN012 OVC020 16/13 A3011 RMK AO2
KWRI 241729Z AUTO 00000KT 10SM CLR 19/14 A3008 RMK AO2 RAB1720E1729 SLP189
KFWN 241730Z AUTO 08003KT 7SM OVC013 14/11 A3012 RMK AO2
KEWR 241734Z 02005KT 3SM HZ FEW011 BKN015 OVC020 16/13 A3012 RMK AO2 SFC VIS 6 CIG 013V017
KBLM 241735Z AUTO 03005KT 7SM OVC010 16/13 A3012 RMK AO1
KWWD 241735Z AUTO 28007KT 10SM CLR 21/14 A3010 RMK AO1
KFWN 241740Z AUTO 09003KT 8SM SCT009 OVC013 14/12 A3012 RMK AO2
KMMU 241745Z 05004KT 2 1/2SM BR OVC008 15/13 A3012
KTEB 241751Z 06003KT 5SM BR OVC010 16/12 A3011 RMK AO2 SLP196 60002 T01560122 10156 20133 58010
KEWR 241751Z 02005KT 3SM HZ FEW010 BKN014 OVC020 16/13 A3012 RMK AO2 SFC VIS 5 SLP198 CIG 012V016 60006 T01610133 10167 20139 58009
KFWN 241753Z AUTO 02004KT 7SM BKN009 OVC013 14/11 A3012 RMK AO2 SLP199 60001 T01390111 10139 20111 58012
KSMQ 241753Z AUTO 01004KT 8SM BKN018 18/13 A3009 RMK AO2 SLP189 60000 T01830128 10183 20133 58011 TSNO $
KTTN 241753Z 00000KT 7SM CLR 19/14 A3008 RMK AO2 SLP182 T01940139 10194 20133 58016
KCDW 241753Z AUTO 09004KT 6SM HZ OVC013 15/12 A3012 RMK AO2 RAE02 SLP205 P0000 60001 T01500122 10150 20128 57011 TSNO
KVAY 241754Z AUTO 00000KT 7SM CLR 19/14 A3009 RMK AO2 SLP189 T01940144 10194 20139 58013 TSNO
KMIV 241754Z AUTO 05003KT 10SM CLR 23/13 A3008 RMK AO2 SLP186 T02330128 10239 20122 56014
K12N 241754Z AUTO 36003KT 14/12 A3012 RMK AO2 SLP198 60004 T01440122 10144 20111 58011 PWINO TSNO
KACY 241754Z 15004KT 10SM CLR 21/16 A3010 RMK AO2 SLP191 T02110156 10217 20133 56011
KBLM 241755Z AUTO 09006KT 7SM OVC010 16/13 A3011 RMK AO1 10160 20140 57010
KWRI 241755Z AUTO VRB03KT 10SM CLR 20/15 A3008 RMK AO2 RAB1720E1729 SLP186 P0000 60000 T02000145 10200 20124 58012
KWWD 241755Z AUTO 36004KT 10SM CLR 21/14 A3010 RMK AO1 10220 20140 57010
KNEL 241800Z AUTO VRB06KT 10SM CLR 21/14 A3009 RMK AO2 SLP187 T02060139 10206 20150 56010 $
KWWD 241815Z AUTO 08003KT 10SM CLR 22/14 A3010 RMK AO1
KBLM 241815Z AUTO 08006KT 7SM OVC010 16/13 A3011 RMK AO1
KBLM 241835Z AUTO 06004KT 7SM OVC010 16/13 A3011 RMK AO1
KWWD 241835Z AUTO 10005KT CLR 22/15 A3009 RMK AO1
KMMU 241845Z 03003KT 2 3/4SM BR OVC009 16/13 A3011
KTEB 241851Z 08006KT 6SM HZ OVC010 14/11 A3010 RMK AO2 SLP193 T01440111
KEWR 241851Z 09006KT 6SM HZ FEW010 BKN014 OVC023 16/13 A3011 RMK AO2 SLP195 CIG 012V016 T01560128
KTTN 241853Z 00000KT 8SM CLR 22/14 A3007 RMK AO2 SLP177 T02170139
KCDW 241853Z AUTO 00000KT 5SM HZ OVC011 16/12 A3011 RMK AO2 SLP202 T01560122 TSNO
KFWN 241853Z AUTO 04004KT 9SM OVC011 14/12 A3011 RMK AO2 SLP196 T01440117
KSMQ 241853Z AUTO 04005KT 9SM BKN022 19/13 A3008 RMK AO2 SLP187 T01890128 TSNO $
KMIV 241854Z AUTO 00000KT 10SM CLR 24/13 A3007 RMK AO2 SLP180 T02440128
KACY 241854Z 10007KT 10SM CLR 21/16 A3009 RMK AO2 SLP188 T02110156
K12N 241854Z AUTO 36003KT 16/13 A3010 RMK AO2 SLP192 T01610128 PWINO TSNO
KVAY 241854Z AUTO 00000KT 9SM CLR 21/14 A3008 RMK AO2 SLP185 T02060144 TSNO
KWWD 241855Z AUTO 12010KT 10SM CLR 22/14 A3009 RMK AO1
KBLM 241855Z AUTO 07006KT 7SM OVC010 16/13 A3011 RMK AO1
KWRI 241855Z AUTO 02003KT 10SM CLR 21/15 A3006 RMK AO2 SLP181 T02140148
KNEL 241900Z AUTO 11006KT 10SM CLR 20/14 A3009 RMK AO2 SLP187 T02000139 $
KBLM 241915Z AUTO 07005KT 7SM OVC010 16/13 A3012 RMK AO1
KWWD 241915Z AUTO 11009KT 10SM CLR 21/15 A3009 RMK AO1
KSMQ 241918Z AUTO 04003KT 9SM SCT022 19/13 A3008 RMK AO2 TSNO $
KMMU 241923Z 08005KT 4SM BR OVC012 16/13 A3012
KWWD 241935Z AUTO 11007KT 10SM CLR 20/15 A3009 RMK AO1
KBLM 241935Z AUTO 05006KT 7SM OVC010 16/13 A3012 RMK AO1
KMMU 241945Z 11003KT 4SM BR OVC012 16/13 A3012
KTEB 241951Z 09005KT 6SM HZ OVC014 15/11 A3011 RMK AO2 SLP196 T01500111
KEWR 241951Z 05005KT 8SM BKN014 OVC024 16/12 A3011 RMK AO2 SLP197 T01610122
KFWN 241953Z AUTO 04005KT 7SM OVC011 14/12 A3012 RMK AO2 SLP199 T01390117
KSMQ 241953Z AUTO VRB03KT 8SM CLR 19/13 A3008 RMK AO2 SLP186 T01890133 TSNO $
KTTN 241953Z 12005KT 10SM CLR 22/14 A3008 RMK AO2 SLP177 T02170139
KCDW 241953Z AUTO 08003KT 5SM HZ OVC013 16/12 A3012 RMK AO2 SLP204 T01560122 TSNO
K12N 241954Z AUTO VRB03KT 16/13 A3011 RMK AO2 SLP195 T01610128 PWINO TSNO
KACY 241954Z 07010KT 9SM CLR 19/14 A3010 RMK AO2 SLP191 T01890144
KMIV 241954Z AUTO 22003KT 10SM CLR 24/14 A3007 RMK AO2 SLP179 T02440144
KVAY 241954Z AUTO 00000KT 10SM CLR 21/14 A3008 RMK AO2 SLP185 T02110144 TSNO
KWRI 241955Z AUTO 00000KT 10SM CLR 22/15 A3006 RMK AO2 SLP181 T02220150
KWWD 241955Z AUTO 09006KT 10SM CLR 19/15 A3009 RMK AO1
KBLM 241955Z AUTO 06005KT 9SM OVC010 16/13 A3012 RMK AO1
KNEL 242000Z AUTO 09009KT 7SM FEW017 18/14 A3010 RMK AO2 SLP191 T01830139 $
KFWN 242005Z AUTO 03004KT 6SM BR OVC009 14/12 A3012 RMK AO2
KBLM 242015Z AUTO 10005KT 10SM OVC010 16/13 A3012 RMK AO1
KWWD 242015Z AUTO 07008KT 10SM CLR 19/15 A3009 RMK AO1
KNEL 242021Z AUTO 11008KT 7SM BKN015 18/13 A3010 RMK AO2 $
KNEL 242028Z AUTO 08008KT 7SM BKN013 17/14 A3010 RMK AO2 $
KWWD 242035Z AUTO 09010KT 10SM CLR 19/15 A3009 RMK AO1
KBLM 242035Z AUTO 07006KT 10SM OVC010 16/13 A3012 RMK AO1
KMMU 242045Z 08003KT 4SM BR OVC012 16/13 A3012
KTEB 242051Z 09005KT 10SM OVC014 15/11 A3012 RMK AO2 SLP199 T01500106 53003
KEWR 242051Z 03005KT 9SM BKN014 OVC026 16/12 A3012 RMK AO2 SLP200 T01610122 53002
KSMQ 242053Z AUTO VRB03KT 7SM FEW021 18/13 A3009
KTTN 242053Z 13005KT 9SM CLR 21/14 A3008 RMK AO2 SLP179 T02060139 55001
KCDW 242053Z AUTO 09007KT 4SM HZ OVC011 14/12 A3013 RMK AO2 SLP208 T01440117 53003 TSNO
KFWN 242053Z AUTO 03003KT 5SM BR OVC007 14/12 A3012 RMK AO2 SLP201 T01390117 53002
KSMQ 242053Z AUTO VRB03KT 7SM FEW021 18/13 A3009 RMK AO2 SLP189 T01780133 55000 TSNO $
KACY 242054Z 08008KT 10SM SCT011 17/14 A3011 RMK AO2 SLP194 T01720139 53003
KMIV 242054Z AUTO VRB03KT 10SM CLR 23/14 A3008 RMK AO2 SLP184 T02280144 55001
K12N 242054Z AUTO VRB04KT 16/13 A3011 RMK AO2 SLP196 T01610128 55002 PWINO TSNO
KVAY 242054Z AUTO 09003KT 10SM CLR 22/14 A3008 RMK AO2 SLP185 T02170144 55004 TSNO
KWWD 242055Z AUTO 09009KT 10SM CLR 18/15 A3010 RMK AO1 54000
KBLM 242055Z AUTO 08005KT 10SM OVC010 15/13 A3012 RMK AO1 52003
KWRI 242055Z AUTO 09008KT 10SM CLR 19/14 A3007 RMK AO2 SLP185 T01900144 55001
KNEL 242100Z AUTO 08008KT 7SM OVC011 16/13 A3011 RMK AO2 SLP194 T01610133 53001 $
KSMQ 242103Z AUTO 03012G110KT 340V090 7SM SQ FEW021 18/13 A3009 RMK AO2 PK WND 150110/2056 TSNO $
KCDW 242104Z AUTO 12005KT 4SM BR OVC009 14/12 A3013 RMK AO2 TSNO
KACY 242106Z 08009KT 10SM BKN011 17/14 A3011 RMK AO2
KBLM 242115Z AUTO 06006KT 10SM OVC010 16/13 A3013 RMK AO1
KWWD 242115Z AUTO 08007KT 10SM FEW009 18/14 A3010 RMK AO1
KCDW 242127Z AUTO 10007KT 5SM BR OVC011 14/12 A3014 RMK AO2 TSNO
KSMQ 242128Z AUTO 06004KT 7SM BKN021 17/13 A3010 RMK AO2 TSNO $
KWWD 242135Z AUTO 07007KT 10SM BKN009 17/14 A3011 RMK AO1
KBLM 242135Z AUTO 06005KT 10SM OVC010 16/13 A3013 RMK AO1
KACY 242139Z 08007KT 10SM OVC009 16/14 A3012 RMK AO2
KMMU 242145Z 10004KT 3SM BR OVC012 15/12 A3014
KWRI 242150Z AUTO 08009KT 10SM -RA CLR 16/14 A3009 RMK AO2 RAB2150 SLP191
KWRI 242150Z AUTO 08009KT 10SM -RA CLR 16/14 A3009 RMK AO2 RAB2150 SLP191
KTEB 242151Z 08005KT 9SM OVC014 15/10 A3013 RMK AO2 SLP204 T01500100
KEWR 242151Z 04005KT 10SM FEW010 BKN014 OVC019 16/12 A3014 RMK AO2 SLP204 T01560117
KSMQ 242153Z AUTO VRB04KT 6SM HZ OVC021 17/13 A3011 RMK AO2 SLP195 T01670133 TSNO $
KCDW 242153Z AUTO 09004KT 5SM HZ OVC011 14/11 A3014 RMK AO2 SLP212 T01390111 TSNO
KFWN 242153Z AUTO 03003KT 4SM BR OVC007 13/12 A3014 RMK AO2 SLP205 T01330117
KTTN 242153Z 10007KT 8SM CLR 18/13 A3010 RMK AO2 SLP186 T01780133
KMIV 242154Z AUTO 00000KT 10SM CLR 21/15 A3009 RMK AO2 SLP188 T02060150
KVAY 242154Z AUTO 10006KT 10SM CLR 19/14 A3010 RMK AO2 SLP191 T01940144 TSNO
KACY 242154Z 08008KT 10SM OVC009 16/14 A3012 RMK AO2 SLP198 T01610139
K12N 242154Z AUTO VRB03KT 14/12 A3013 RMK AO2 SLP203 T01440122 PWINO TSNO
KWWD 242155Z AUTO 06010KT 10SM OVC009 17/14 A3012 RMK AO1
KBLM 242155Z AUTO 07006KT 10SM OVC010 16/13 A3013 RMK AO1
KWRI 242155Z AUTO 08009KT 10SM -DZ CLR 16/13 A3009 RMK AO2 RAB2150E2152DZB2152 SLP191 P0000 T01590134
KNEL 242200Z AUTO 08008KT 9SM OVC011 16/13 A3012 RMK AO2 SLP199 T01560133 $
KWRI 242205Z AUTO 07006KT 10SM SCT011 16/13 A3009 RMK AO2 RAB2158E2205DZE2202 SLP193
KWRI 242205Z AUTO 07006KT 10SM SCT011 16/13 A3009 RMK AO2 RAB2158E2205DZE2202 SLP193
KWRI 242205Z AUTO 07006KT 10SM SCT011 16/13 A3009 RMK AO2 RAB2158E2205DZE2202 SLP193
KWRI 242208Z AUTO 07006KT 10SM BKN011 15/13 A3010 RMK AO2 RAB2158E2205DZE2202 BKN V SCT SLP193
KWRI 242208Z AUTO 07006KT 10SM BKN011 15/13 A3010 RMK AO2 RAB2158E2205DZE2202 BKN V SCT SLP193
KWRI 242208Z AUTO 07006KT 10SM BKN011 15/13 A3010 RMK AO2 RAB2158E2205DZE2202 BKN V SCT SLP193
KWRI 242208Z AUTO 07006KT 10SM BKN011 15/13 A3010
KWRI 242209Z AUTO 07007KT 10SM BKN010 15/13 A3010 RMK AO2 RAB2158E2205DZE2202 SLP193
KWRI 242209Z AUTO 07007KT 10SM BKN010 15/13 A3010 RMK AO2 RAB2158E2205DZE2202 SLP193
KFWN 242213Z AUTO 04004KT 4SM BR OVC005 13/12 A3014 RMK AO2
KBLM 242215Z AUTO 08005KT 10SM OVC010 15/13 A3014 RMK AO1
KWWD 242215Z AUTO 08009G14KT 10SM OVC009 17/14 A3012 RMK AO1
KEWR 242225Z 04005KT 10SM FEW010 BKN015 OVC020 16/12 A3014 RMK AO2
KWRI 242234Z AUTO 09008KT 10SM OVC009 16/13 A3011 RMK AO2 RAB2158E2205DZE2202 SLP197
KWWD 242235Z AUTO 06009KT 10SM OVC009 17/14 A3012 RMK AO1
KBLM 242235Z AUTO 08004KT 10SM OVC010 15/13 A3015 RMK AO1
KMMU 242245Z 06005KT 3SM OVC012 14/12 A3016
KTEB 242251Z 00000KT 10SM -RA OVC014 14/11 A3015 RMK AO2 RAB32 SLP210 P0000 T01440106
KEWR 242251Z 04005KT 10SM BKN016 OVC021 16/12 A3016 RMK AO2 SLP212 T01560117
KTTN 242253Z 11008KT 8SM CLR 16/13 A3013 RMK AO2 SLP197 T01610128
KSMQ 242253Z AUTO 09004KT 6SM HZ OVC017 16/13 A3013 RMK AO2 SLP204 T01610133 TSNO $
KCDW 242253Z AUTO 09005KT 7SM OVC011 14/11 A3016 RMK AO2 SLP218 T01390111 TSNO
KFWN 242253Z AUTO 04004KT 4SM BR OVC005 13/12 A3016 RMK AO2 SLP212 T01280117
K12N 242254Z AUTO 00000KT 14/12 A3015 RMK AO2 SLP209 T01440122 PWINO TSNO
KMIV 242254Z AUTO 13007KT 10SM CLR 17/14 A3012 RMK AO2 SLP198 T01720144
KVAY 242254Z AUTO 11005KT 9SM CLR 16/13 A3013 RMK AO2 SLP203 T01610133 TSNO
KACY 242254Z 09007KT 6SM BR OVC009 16/14 A3014 RMK AO2 SLP205 T01610139
KWRI 242255Z AUTO 09006KT 10SM OVC009 16/13 A3012 RMK AO2 RAB2158E2205DZE2202 SLP201 P0000 T01550133
KBLM 242255Z AUTO 09005KT 10SM OVC012 15/13 A3015 RMK AO1
KWWD 242255Z AUTO 07007KT 10SM OVC007 17/14 A3013 RMK AO1
KNEL 242300Z AUTO 08006KT 9SM OVC011 16/13 A3014 RMK AO2 SLP205 T01560133 $
KBLM 242315Z AUTO 08007KT 10SM OVC012 15/13 A3016 RMK AO1
KWWD 242315Z AUTO 07005KT 10SM OVC007 17/14 A3014 RMK AO1
KVAY 242316Z AUTO 10004KT 8SM BKN009 16/13 A3014 RMK AO2 TSNO
KTTN 242325Z 12010KT 8SM BKN014 16/13 A3014 RMK AO2
KFWN 242335Z AUTO 03005KT 3SM BR OVC003 13/12 A3017 RMK AO2
KBLM 242335Z AUTO 07005KT 10SM OVC012 15/13 A3017 RMK AO1
KWWD 242335Z AUTO 09009G14KT 10SM OVC007 17/14 A3014 RMK AO1
KWRI 242343Z AUTO 07007KT 10SM OVC010 15/13 A3013 RMK AO2 CIG 008V010 SLP206
KWRI 242343Z AUTO 07007KT 10SM OVC010 15/13 A3013 RMK AO2 CIG 008V010 SLP206
KWRI 242344Z AUTO 08006KT 10SM OVC009 15/13 A3013 RMK AO2 CIG 008V010 SLP206
KMMU 242345Z 00000KT 3SM BR OVC012 14/12 A3016
KFWN 242346Z AUTO 03005KT 2 1/2SM BR OVC003 12/12 A3017 RMK AO2
KEWR 242351Z 09004KT 10SM BKN015 OVC020 16/12 A3017 RMK AO2 SLP215 T01560117 10167 20150 51016
KTEB 242351Z VRB03KT 10SM OVC016 14/11 A3016 RMK AO2 RAE20 SLP214 P0000 60000 T01440106 10156 20144 51015
KCDW 242353Z AUTO 08005KT 8SM OVC013 14/11 A3017 RMK AO2 SLP222 T01390111 10156 20139 51015 TSNO
KFWN 242353Z AUTO 03004KT 2SM BR OVC003 12/12 A3017 RMK AO2 SLP217 T01220117 10150 20122 53016
KSMQ 242353Z AUTO 00000KT 6SM HZ OVC017 16/13 A3014 RMK AO2 SLP206 T01560128 10194 20156 51016 TSNO $
KTTN 242353Z 12008KT 8SM OVC012 16/13 A3015 RMK AO2 SLP203 T01560128 10222 20156 53023
K12N 242354Z AUTO 00000KT 14/12 A3016 RMK AO2 SLP215 T01440122 10172 20144 51018 PWINO TSNO
KMIV 242354Z AUTO 11007KT 7SM FEW008 15/14 A3014 RMK AO2 SLP204 T01500139 10256 20150 53019
KVAY 242354Z AUTO 10006KT 9SM OVC009 16/13 A3015 RMK AO2 SLP210 T01560133 10217 20156 53025 TSNO
KACY 242354Z 07007KT 10SM BR OVC009 16/14 A3015 RMK AO2 SLP209 T01610139 10217 20161 53015
KBLM 242355Z AUTO 07006KT 10SM OVC012 15/13 A3017 RMK AO1 10160 20150 401600140 52017
KWRI 242355Z AUTO 10006KT 10SM OVC009 15/13 A3013 RMK AO2 CIG 008V010 SLP206 60000 T01540133 10222 20154 51020
KWWD 242355Z AUTO 08008KT 10SM OVC007 17/14 A3015 RMK AO1 10220 20170 402200140 52017
KNEL 250000Z AUTO 08007KT 10SM OVC011 16/13 A3016 RMK AO2 SLP210 T01560133 10206 20156 53014 $
KMIV 250008Z AUTO 08009KT 7SM BKN008 16/14 A3014 RMK AO2
KWWD 250015Z AUTO 09006KT 10SM OVC007 17/14 A3015 RMK AO1
KBLM 250015Z AUTO 08006KT 10SM OVC012 15/13 A3017 RMK AO1
KWWD 250035Z AUTO 07007KT 10SM OVC007 16/14 A3015 RMK AO1
KBLM 250035Z AUTO 09008KT 10SM OVC012 15/12 A3017 RMK AO1
KWRI 250044Z AUTO 11005KT 10SM OVC010 15/13 A3014 RMK AO2 SLP208
KMMU 250045Z 00000KT 3SM BR OVC012 14/12 A3018
KEWR 250051Z 07004KT 10SM SCT013 BKN016 OVC021 16/12 A3018 RMK AO2 SLP218 T01560117
KTEB 250051Z 06004KT 10SM OVC016 14/11 A3017 RMK AO2 SLP216 T01440106
KFWN 250053Z AUTO 00000KT 2SM BR OVC003 12/12 A3017 RMK AO2 SLP218 T01220117
KSMQ 250053Z AUTO 08004KT 8SM OVC015 16/12 A3015 RMK AO2 SLP211 T01560122 TSNO $
KTTN 250053Z 15005KT 8SM OVC010 15/13 A3015 RMK AO2 SLP205 T01500128
KCDW 250053Z AUTO 09005KT 10SM OVC013 14/11 A3018 RMK AO2 SLP225 T01390106 TSNO
KMIV 250054Z AUTO 09008KT 7SM OVC006 16/14 A3015 RMK AO2 SLP209 T01560144
KACY 250054Z 07006KT 10SM OVC009 16/13 A3017 RMK AO2 SLP216 T01610133
KVAY 250054Z AUTO 12004KT 9SM OVC009 16/13 A3016 RMK AO2 SLP212 T01560133 TSNO
K12N 250054Z AUTO 00000KT 14/12 A3018 RMK AO2 SLP219 T01390117 PWINO TSNO
KBLM 250055Z AUTO 10008KT 10SM OVC012 15/12 A3017 RMK AO1
KWRI 250055Z AUTO 09008KT 10SM OVC010 15/13 A3014 RMK AO2 SLP208 T01530132
KWWD 250055Z AUTO 08010KT 10SM OVC007 16/14 A3016 RMK AO1
KNEL 250100Z AUTO 10007KT 10SM OVC011 16/13 A3016 RMK AO2 SLP211 T01560133 $
KWWD 250115Z AUTO 08009G15KT 10SM OVC007 17/14 A3016 RMK AO1
KBLM 250115Z AUTO 09007KT 10SM OVC012 15/12 A3017 RMK AO1
KWWD 250135Z AUTO 07009KT 10SM OVC007 17/14 A3017 RMK AO1
KBLM 250135Z AUTO 06006KT 10SM OVC012 15/12 A3018 RMK AO1
KSMQ 250140Z AUTO 00000KT 9SM OVC013 15/12 A3017 RMK AO2 TSNO $
KMMU 250145Z 00000KT 7SM OVC014 13/12 A3019
KFWN 250145Z AUTO 00000KT 1 1/2SM BR OVC003 12/12 A3018 RMK AO2
KACY 250149Z 08006KT 10SM OVC011 16/13 A3017 RMK AO2
KACY 250149Z 08006KT 10SM OVC011 16/13 A3017 RMK AO2
KEWR 250151Z 11004KT 10SM SCT012 BKN015 OVC020 15/12 A3019 RMK AO2 SLP221 T01500122
KTEB 250151Z 08003KT 10SM OVC018 14/11 A3018 RMK AO2 SLP219 T01440106
KFWN 250153Z AUTO 00000KT 1 1/4SM BR OVC003 12/12 A3019 RMK AO2 SLP222 T01220117
KTTN 250153Z AUTO 15007KT 8SM OVC010 15/13 A3017 RMK AO2 SLP210 T01500128
KSMQ 250153Z AUTO VRB03KT 5SM BR OVC010 15/13 A3017 RMK AO2 SLP216 T01500133 TSNO $
KCDW 250153Z AUTO 00000KT 10SM OVC013 13/11 A3019 RMK AO2 SLP229 T01330106 TSNO
KVAY 250154Z AUTO 11005KT 9SM OVC009 16/13 A3017 RMK AO2 SLP214 T01560133 TSNO
K12N 250154Z AUTO VRB03KT 13/12 A3018 RMK AO2 SLP221 T01330122 PWINO TSNO
KMIV 250154Z AUTO 10008KT 8SM OVC006 16/14 A3016 RMK AO2 SLP212 T01560139
KACY 250154Z 08006KT 10SM OVC011 16/13 A3017 RMK AO2 SLP217 T01560133
KWRI 250155Z AUTO 10004KT 10SM OVC010 15/13 A3015 RMK AO2 SLP211 T01520131
KWWD 250155Z AUTO 08009KT 10SM OVC009 17/14 A3017 RMK AO1
KBLM 250155Z AUTO 07007KT 10SM OVC012 15/12 A3018 RMK AO1
KNEL 250200Z AUTO 09005KT 10SM OVC011 16/13 A3017 RMK AO2 SLP215 T01560128 $
KBLM 250215Z AUTO 08005KT 10SM OVC012 15/12 A3018 RMK AO1
KWWD 250215Z AUTO 07007KT 10SM OVC009 17/14 A3017 RMK AO1
KEWR 250223Z 10005KT 10SM BKN014 OVC018 15/12 A3019 RMK AO2
KBLM 250235Z AUTO 09005KT 10SM OVC012 15/12 A3018 RMK AO1
KWWD 250235Z AUTO 09006KT 050V110 10SM OVC009 17/14 A3017 RMK AO1
KFWN 250236Z AUTO 00000KT 1 1/2SM BR OVC003 12/12 A3020 RMK AO2
KCDW 250246Z AUTO 00000KT 10SM OVC015 14/11 A3020 RMK AO2 TSNO
KTEB 250251Z 02003KT 10SM OVC018 14/11 A3019 RMK AO2 SLP221 T01440106 53007
KEWR 250251Z 10004KT 10SM BKN013 OVC017 15/12 A3019 RMK AO2 SLP222 T01500122 51007
KCDW 250253Z AUTO 00000KT 10SM OVC015 13/11 A3020 RMK AO2 SLP231 T01330106 53009 TSNO
KTTN 250253Z AUTO 12005KT 8SM OVC010 15/13 A3018 RMK AO2 SLP214 T01500128 53010
KSMQ 250253Z AUTO 00000KT 6SM BR OVC010 14/13 A3017 RMK AO2 SLP217 T01440128 51012 TSNO $
KFWN 250253Z AUTO 00000KT 1 3/4SM BR OVC003 12/12 A3020 RMK AO2 SLP226 T01220117 53008
KACY 250254Z 09007KT 10SM OVC011 16/13 A3018 RMK AO2 SLP218 T01560133 53002
K12N 250254Z AUTO 00000KT 13/12 A3020 RMK AO2 SLP226 T01280117 53010 PWINO TSNO
KMIV 250254Z AUTO 12006KT 8SM OVC006 16/14 A3017 RMK AO2 SLP213 T01560139 51009
KVAY 250254Z AUTO 11004KT 10SM OVC009 16/13 A3018 RMK AO2 SLP218 T01560133 53007 TSNO
KMMU 250255Z AUTO 02003KT 10SM OVC016 13/12 A3020 RMK AO2
KWRI 250255Z AUTO 07005KT 10SM OVC010 15/13 A3016 RMK AO2 SLP214 T01520130 52009
KWWD 250255Z AUTO 09007KT 10SM OVC009 17/14 A3017 RMK AO1 52007
KBLM 250255Z AUTO 09006KT 10SM OVC012 15/12 A3019 RMK AO1 52007
KTTN 250304Z AUTO 12004KT 8SM OVC008 15/13 A3018 RMK AO2
KMMU 250315Z AUTO 00000KT 10SM OVC014 13/12 A3019 RMK AO2
KWWD 250315Z AUTO 10007KT 10SM OVC009 17/14 A3016 RMK AO1
KBLM 250315Z AUTO 07005KT 10SM OVC012 15/12 A3019 RMK AO1
KWWD 250335Z AUTO 08008KT 10SM OVC009 A3016 RMK AO1
KMMU 250335Z AUTO 00000KT 10SM OVC014 13/12 A3020 RMK AO2
KBLM 250335Z AUTO 07004KT 10SM OVC012 15/12 A3019 RMK AO1
KTEB 250351Z 03004KT 10SM OVC016 14/11 A3020 RMK AO2 SLP225 T01440106
KEWR 250351Z 10004KT 10SM OVC013 15/12 A3020
KEWR 250351Z 10004KT 10SM OVC013 15/12 A3020 RMK AO2 SLP226 T01500117
KFWN 250353Z AUTO 00000KT 1 1/2SM -RA BR OVC003 12/12 A3020 RMK AO2 RAB44 SLP227 P0000 T01220117
KTTN 250353Z AUTO 13005KT 9SM OVC008 15/13 A3018 RMK AO2 SLP215 T01500128
KSMQ 250353Z AUTO 00000KT 7SM OVC012 14/13 A3018 RMK AO2 SLP220 T01440128 TSNO $
KCDW 250353Z AUTO 00000KT 10SM OVC015 13/10 A3021 RMK AO2 SLP235 T01330100 TSNO
KVAY 250354Z AUTO 09004KT 10SM OVC009 16/13 A3019 RMK AO2 SLP221 T01560133 TSNO
KMIV 250354Z AUTO 09006KT 8SM OVC008 16/14 A3017 RMK AO2 SLP215 T01560139
K12N 250354Z AUTO 00000KT 13/12 A3020 RMK AO2 SLP227 T01330117 PWINO TSNO
KACY 250354Z 08006KT 10SM OVC011 16/13 A3018 RMK AO2 SLP218 T01560133
KWRI 250355Z AUTO 06003KT 10SM OVC010 15/13 A3016 RMK AO2 SLP216 T01500129
KBLM 250355Z AUTO 06004KT 10SM OVC012 15/12 A3019 RMK AO1
KWWD 250355Z AUTO 10006KT 10SM OVC009 17/14 A3017 RMK AO1
KMMU 250355Z AUTO 03003KT 10SM OVC014 13/12 A3021 RMK AO2
KEWR 250358Z 10005KT 10SM OVC015 15/12 A3020 RMK AO2
KMMU 250415Z AUTO 04004KT 10SM OVC014 13/12 A3021
KMMU 250415Z AUTO 04004KT 10SM OVC014 13/12 A3021 RMK AO2
KBLM 250415Z AUTO 05004KT 10SM OVC012 15/13 A3020 RMK AO1
KWWD 250415Z AUTO 08008KT 10SM OVC009 17/14 A3017 RMK AO1
KFWN 250420Z AUTO 00000KT 2SM BR BKN003 OVC009 13/12 A3021 RMK AO2 RAE03 P0000
KBLM 250435Z AUTO 06003KT 10SM OVC012 15/13 A3020 RMK AO1
KWWD 250435Z AUTO 07006KT 10SM OVC009 17/14 A3017 RMK AO1
KMMU 250435Z AUTO 04004KT 10SM OVC014 13/12 A3020 RMK AO2
KCDW 250435Z AUTO 06003KT 10SM OVC013 13/10 A3021 RMK AO2 TSNO
KMMU 250435Z AUTO 04004KT 10SM OVC014 13/12 A3020
KFWN 250445Z AUTO 00000KT 2SM BR FEW003 OVC011 12/12 A3021 RMK AO2 RAE03 P0000
KTTN 250450Z AUTO 12005KT 10SM OVC010 14/12 A3019 RMK AO2 402220128
KTEB 250451Z 05003KT 10SM OVC014 14/11 A3020 RMK AO2 SLP226 T01390106 401560133
KEWR 250451Z 11003KT 10SM OVC017 15/12 A3020 RMK AO2 SLP227 T01500117 401670133
KFWN 250453Z AUTO 00000KT 2SM BR FEW003 OVC011 12/12 A3021 RMK AO2 RAE03 SLP230 P0000 T01220117 401500111
KCDW 250453Z AUTO 00000KT 10SM OVC013 13/10 A3021 RMK AO2 SLP234 T01330100 401560128 TSNO
KSMQ 250453Z AUTO 00000KT 8SM OVC014 14/13 A3019 RMK AO2 SLP223 T01440128 401940122 TSNO $
KTTN 250453Z AUTO 12004KT 10SM OVC010 14/12 A3019 RMK AO2 SLP217 T01440122 402220128
KMIV 250454Z AUTO 06005KT 9SM OVC010 16/14 A3019 RMK AO2 SLP221 T01560139 402560117
K12N 250454Z AUTO 00000KT 13/12 A3021 RMK AO2 SLP228 T01330117 401720111 PWINO TSNO
KACY 250454Z 06003KT 10SM OVC009 16/13 A3019 RMK AO2 SLP223 T01610133 402170122
KVAY 250454Z AUTO 00000KT 10SM OVC009 16/13 A3019 RMK AO2 SLP223 T01560133 402170117 TSNO
KWWD 250455Z AUTO 06006KT 10SM OVC009 16/14 A3018 RMK AO1
KWRI 250455Z AUTO 04003KT 10SM OVC010 15/13 A3018 RMK AO2 SLP220 T01490131 402220116
KMMU 250455Z AUTO 00000KT 10SM OVC014 13/12 A3021 RMK AO2
KWRI 250455Z AUTO 04003KT 10SM OVC010 15/13 A3018 RMK AO2 SLP220 T01490131 402220116
KWRI 250455Z AUTO 04003KT 10SM OVC010 15/13 A3018 RMK AO2 SLP220 T01490131 402220116
KBLM 250455Z AUTO 07005KT 10SM OVC012 15/13 A3020 RMK AO1
KBLM 250455Z AUTO 07005KT 10SM OVC012 15/13 A3020 RMK AO1
KNEL 250500Z AUTO 05003KT 10SM OVC011 16/13 A3019 RMK AO2 SLP222 T01560133 401560156 $
KWWD 250515Z AUTO 06005KT 10SM OVC009 16/14 A3019 RMK AO1
KMMU 250515Z AUTO 00000KT 10SM OVC014 13/12 A3021 RMK AO2
KFWN 250529Z AUTO 00000KT 2SM BR OVC009 12/12 A3021 RMK AO2
KWWD 250535Z AUTO 05006KT 10SM OVC009 16/14 A3019 RMK AO1
KMMU 250535Z AUTO 00000KT 10SM OVC014 13/11 A3022 RMK AO2
KBLM 250535Z AUTO 06006KT 10SM OVC014 15/13 A3020 RMK AO1
KTEB 250551Z 00000KT 10SM OVC014 14/11 A3021
KEWR 250551Z 09003KT 10SM OVC017 15/12 A3021 RMK AO2 SLP230 T01500117 10156 20150 53008
KTEB 250551Z 00000KT 10SM OVC014 14/11 A3021 RMK AO2 SLP229 T01390106 10150 20139 53008
KSMQ 250553Z AUTO 00000KT 10SM OVC014 14/12 A3019 RMK AO2 SLP222 T01440122 10156 20144 51006 TSNO $
KTTN 250553Z AUTO 11004KT 9SM OVC010 14/12 A3019 RMK AO2 SLP218 T01440122 10156 20144 51004
KFWN 250553Z AUTO 00000KT 2SM BR OVC009 12/12 A3021 RMK AO2 SLP230 60000 T01220117 10128 20122 51005
KCDW 250553Z AUTO 08003KT 10SM OVC013 13/10 A3022 RMK AO2 SLP238 T01330100 10139 20133 52006 TSNO
KMIV 250554Z AUTO 08005KT 9SM OVC010 16/14 A3019 RMK AO2 SLP221 T01560139 10156 20150 51008
KACY 250554Z 07004KT 10SM OVC009 16/13 A3020 RMK AO2 SLP225 T01560133 10161 20156 53007
K12N 250554Z AUTO 00000KT 13/11 A3021 RMK AO2 SLP230 T01280111 10144 20128 51005 PWINO TSNO
KMMU 250555Z AUTO 00000KT 10SM OVC014 13/12 A3021 RMK AO2
KBLM 250555Z AUTO 07005KT 10SM OVC014 15/13 A3020 RMK AO1 10150 20150 52003
KWRI 250555Z AUTO 05003KT 10SM OVC010 15/13 A3018 RMK AO2 SLP220 T01480130 10155 20148 51006
KWWD 250555Z AUTO 06004KT 10SM OVC009 17/14 A3020 RMK AO1 10170 20160 52010
KTEB 250559Z 00000KT 10SM OVC016 14/11 A3021 RMK AO2
KNEL 250600Z AUTO 00000KT 10SM OVC013 16/13 A3020 RMK AO2 SLP223 T01560133 10156 20156 53006 $
KWWD 250615Z AUTO 05005KT 10SM OVC009 16/14 A3020 RMK AO1
KMMU 250615Z AUTO 00000KT 10SM OVC014 12/12 A3021 RMK AO2
KSMQ 250615Z AUTO 00000KT 10SM OVC016 14/12 A3019 RMK AO2 TSNO $
KBLM 250615Z AUTO 05005KT 10SM BKN010 OVC014 14/12 A3021 RMK AO1
KWWD 250635Z AUTO 07005KT 10SM OVC009 16/14 A3019 RMK AO1
KMMU 250635Z AUTO 00000KT 10SM OVC014 12/12 A3021 RMK AO2
KBLM 250635Z AUTO 05005KT 10SM OVC010 14/12 A3021 RMK AO1
KWRI 250640Z AUTO 00000KT 10SM OVC011 15/13 A3018 RMK AO2 SLP221
KFWN 250640Z AUTO 00000KT 3SM BR FEW003 OVC009 13/12 A3021 RMK AO2
KTEB 250651Z 00000KT 10SM OVC018 14/11 A3021 RMK AO2 SLP228 T01390106
KEWR 250651Z 09004KT 10SM OVC019 15/11 A3021 RMK AO2 SLP229 T01500111
KFWN 250653Z AUTO 00000KT 3SM BR BKN011 OVC018 12/12 A3021 RMK AO2 SLP231 T01220117
KTTN 250653Z AUTO 08005KT 9SM OVC010 14/12 A3020 RMK AO2 SLP220 T01440122
KCDW 250653Z AUTO 09003KT 10SM OVC013 13/10 A3022 RMK AO2 SLP237 T01280100 TSNO
KSMQ 250653Z AUTO 00000KT 10SM OVC016 14/12 A3020 RMK AO2 SLP226 T01440117 TSNO $
K12N 250654Z AUTO 00000KT 13/11 A3021 RMK AO2 SLP231 T01280111 PWINO TSNO
KACY 250654Z AUTO 09005KT 10SM OVC009 16/13 A3020 RMK AO2 SLP224 T01560133 TSNO
KMIV 250654Z AUTO 08004KT 8SM OVC010 16/14 A3018 RMK AO2 SLP219 T01560139
KVAY 250654Z AUTO 00000KT 9SM OVC009 15/13 A3019 RMK AO2 SLP223 T01500133 TSNO
KBLM 250655Z AUTO 05004KT 10SM OVC012 14/13 A3021 RMK AO1
KWWD 250655Z AUTO 11005KT 10SM OVC009 16/14 A3019 RMK AO1
KMMU 250655Z AUTO 00000KT 10SM OVC014 13/11 A3021 RMK AO2
KWRI 250655Z AUTO 05003KT 10SM OVC011 15/13 A3018 RMK AO2 SLP220 T01480130
KNEL 250700Z AUTO 05003KT 10SM OVC015 15/13 A3019 RMK AO2 $
KNEL 250700Z AUTO 05003KT 10SM OVC015 15/13 A3019 RMK AO2 $
KNEL 250706Z AUTO 00000KT 10SM BKN015 OVC085 15/13 A3019 RMK AO2 SLP220 T01500133 $
KSMQ 250715Z AUTO 00000KT 10SM OVC014 14/12 A3019 RMK AO2 TSNO $
KMMU 250715Z AUTO 00000KT 10SM OVC014 13/12 A3021 RMK AO2
KWWD 250715Z AUTO 09005KT 10SM OVC009 17/14 A3019 RMK AO1
KBLM 250715Z AUTO 07005KT 10SM OVC012 14/13 A3020 RMK AO1
KFWN 250723Z AUTO 00000KT 3SM BR SCT011 OVC019 12/12 A3021 RMK AO2
KBLM 250735Z AUTO 06005KT 10SM OVC012 15/13 A3019 RMK AO1
KWWD 250735Z AUTO 07005KT 10SM OVC009 16/14 A3018 RMK AO1
KMMU 250735Z AUTO 00000KT 10SM OVC014 13/12 A3021 RMK AO2
KFWN 250749Z AUTO 00000KT 3SM BR BKN013 OVC019 12/12 A3021 RMK AO2
KTEB 250751Z 00000KT 10SM OVC018 14/11 A3020 RMK AO2 SLP225 T01390106
KEWR 250751Z 11003KT 10SM BKN021 OVC060 14/11 A3020 RMK AO2 SLP226 T01440111
KFWN 250753Z AUTO 00000KT 3SM BR BKN013 OVC019 12/12 A3021 RMK AO2 SLP229 T01220117
KTTN 250753Z AUTO 10004KT 10SM OVC010 14/12 A3018 RMK AO2 SLP214 T01440122
KSMQ 250753Z AUTO 04003KT 10SM -RA BKN014 BKN019 OVC026 14/12 A3018 RMK AO2 RAB45 SLP220 P0000 T01390122 TSNO $
KCDW 250753Z AUTO 00000KT 10SM OVC013 13/10 A3021 RMK AO2 SLP235 T01280100 TSNO
KVAY 250754Z AUTO 00000KT 10SM OVC009 15/13 A3019 RMK AO2 SLP221 T01500133 TSNO
K12N 250754Z AUTO 00000KT 12/11 A3021 RMK AO2 SLP228 T01220111 PWINO TSNO
KMIV 250754Z AUTO 11006KT 8SM OVC010 16/14 A3017 RMK AO2 SLP216 T01560139
KACY 250754Z 10004KT 10SM OVC009 16/14 A3019 RMK AO2 SLP221 T01560139
KBLM 250755Z AUTO 06005KT 10SM OVC012 15/13 A3019 RMK AO1
KWRI 250755Z AUTO 01004KT 10SM OVC012 15/13 A3017 RMK AO2 SLP217 T01480132
KMMU 250755Z AUTO 00000KT 10SM OVC014 12/12 A3021 RMK AO2
KWWD 250755Z AUTO 09006KT 10SM OVC009 17/14 A3018 RMK AO1
KNEL 250800Z AUTO 00000KT 10SM OVC013 15/13 A3018 RMK AO2 SLP219 T01500133 $
KFWN 250814Z AUTO 00000KT 2 1/2SM BR OVC011 12/12 A3021 RMK AO2
KBLM 250815Z AUTO 05004KT 10SM OVC012 15/12 A3020 RMK AO1
KMMU 250815Z AUTO 00000KT 10SM OVC014 12/12 A3021 RMK AO2
KWWD 250815Z AUTO 08005KT 10SM OVC009 16/14 A3018 RMK AO1
KVAY 250820Z AUTO 00000KT 10SM OVC011 15/13 A3019 RMK AO2 TSNO
KSMQ 250820Z AUTO 00000KT 10SM BKN016 OVC025 14/12 A3018 RMK AO2 RAE13 P0000 TSNO $
KFWN 250832Z AUTO 00000KT 2SM BR OVC009 12/12 A3020 RMK AO2
KBLM 250835Z AUTO 04003KT 10SM OVC012 14/13 A3019 RMK AO1
KWWD 250835Z AUTO 09006KT 10SM OVC009 16/13 A3018 RMK AO1
KMMU 250835Z AUTO 03003KT 10SM OVC014 12/12 A3021 RMK AO2
KTTN 250844Z AUTO 09005KT 9SM OVC008 14/12 A3019 RMK AO2
KTEB 250851Z 03004KT 10SM OVC018 13/11 A3020 RMK AO2 SLP227 T01330106 55002
KEWR 250851Z 06004KT 10SM OVC021 14/11 A3020 RMK AO2 SLP227 T01440111 55003
KTTN 250853Z AUTO 10004KT 9SM OVC008 14/12 A3019 RMK AO2 SLP216 T01440122 58001
KCDW 250853Z AUTO 06003KT 10SM OVC013 13/10 A3021 RMK AO2 SLP236 T01280100 55002 TSNO
KFWN 250853Z AUTO 00000KT 2 1/2SM BR OVC009 12/12 A3020 RMK AO2 SLP228 T01220117 57002
KSMQ 250853Z AUTO 00000KT 10SM -RA OVC016 14/12 A3019 RMK AO2 RAE13B47 SLP223 P0000 60000 T01390117 58000 TSNO $
K12N 250854Z AUTO 00000KT 12/12 A3020 RMK AO2 SLP227 T01220117 58003 PWINO TSNO
KVAY 250854Z AUTO 00000KT 10SM OVC011 15/13 A3019 RMK AO2 SLP223 T01500128 55000 TSNO
KMIV 250854Z AUTO 02004KT 8SM OVC010 16/14 A3019 RMK AO2 SLP221 T01560139 55000
KACY 250854Z 10004KT 10SM OVC009 16/14 A3019 RMK AO2 SLP222 T01560139 55003
KMMU 250855Z AUTO 00000KT 10SM -RA OVC014 12/12 A3021 RMK AO2
KWRI 250855Z AUTO 00000KT 10SM OVC012 15/13 A3017 RMK AO2 SLP218 T01450129 55002
KWWD 250855Z AUTO 07005KT 10SM OVC009 16/13 A3018 RMK AO1 57007
KBLM 250855Z AUTO 08003KT 10SM OVC012 14/12 A3019 RMK AO1 57003
KNEL 250900Z AUTO 00000KT 10SM OVC013 15/13 A3019 RMK AO2 SLP220 T01500133 56002 $
KCDW 250900Z AUTO 00000KT 10SM OVC015 13/10 A3021 RMK AO2 TSNO
KWWD 250915Z AUTO 09007KT 10SM OVC009 16/13 A3018 RMK AO1
KMMU 250915Z AUTO 00000KT 10SM OVC014 12/12 A3021 RMK AO2
KBLM 250915Z AUTO 07004KT 10SM OVC012 15/12 A3020 RMK AO1
KWRI 250920Z AUTO 00000KT 10SM OVC010 15/13 A3018 RMK AO2 CIG 010V013 SLP220
KWRI 250928Z AUTO 01003KT 10SM OVC011 15/13 A3018 RMK AO2 SLP221
KNEL 250929Z AUTO 00000KT 10SM OVC015 15/13 A3019 RMK AO2 $
KSMQ 250933Z AUTO 00000KT 10SM BKN014 OVC025 14/12 A3020 RMK AO2 RAE14 P0000 TSNO $
KMMU 250935Z AUTO 00000KT 10SM OVC014 12/12 A3022 RMK AO2
KWWD 250935Z AUTO 07005KT 9SM OVC009 16/13 A3019 RMK AO1
KBLM 250935Z AUTO 07005KT 10SM OVC012 15/12 A3021 RMK AO1
KWRI 250938Z AUTO 02003KT 10SM OVC010 15/13 A3018 RMK AO2 CIG 010V012 SLP223
KWRI 250945Z AUTO 00000KT 10SM OVC011 15/13 A3018 RMK AO2 SLP223
KEWR 250951Z 02004KT 10SM OVC017 14/11 A3022 RMK AO2 SLP233 T01390111
KTEB 250951Z 07004KT 10SM OVC018 13/10 A3021 RMK AO2 SLP231 T01330100
KSMQ 250953Z AUTO 00000KT 10SM OVC014 14/12 A3021 RMK AO2 RAE14 SLP229 P0000 T01390122 TSNO $
KTTN 250953Z 07004KT 6SM BR OVC008 14/12 A3021 RMK AO2 SLP223 T01390122
KFWN 250953Z AUTO 00000KT 2 1/2SM BR OVC009 12/12 A3022 RMK AO2 CIG 009V013 SLP233 T01220117
KCDW 250953Z AUTO 08003KT 10SM OVC015 13/10 A3023 RMK AO2 SLP240 T01280100 TSNO
KACY 250954Z 01003KT 10SM OVC009 16/14 A3020 RMK AO2 SLP227 T01560139
KMIV 250954Z AUTO 05004KT 8SM OVC012 16/14 A3019 RMK AO2 SLP222 T01560139
K12N 250954Z AUTO 00000KT 13/12 A3022 RMK AO2 SLP232 P0001 T01280117 PWINO TSNO
KVAY 250954Z AUTO 00000KT 10SM OVC011 15/13 A3020 RMK AO2 SLP227 T01500128 TSNO
KBLM 250955Z AUTO 06003KT 10SM OVC012 15/12 A3022 RMK AO1
KMMU 250955Z AUTO 00000KT 10SM OVC014 12/12 A3022 RMK AO2
KWWD 250955Z AUTO 06005KT 10SM OVC009 16/13 A3020 RMK AO1
KWRI 250955Z AUTO 04004KT 10SM OVC011 15/13 A3019 RMK AO2 SLP223 T01460132
KNEL 251000Z AUTO 00000KT 10SM OVC015 15/13 A3021 RMK AO2 SLP226 T01500133 $
KFWN 251002Z AUTO 00000KT 2 1/2SM BR OVC011 12/11 A3022 RMK AO2
KMMU 251035Z AUTO 00000KT 10SM OVC016 12/12 A3024 RMK AO2
KNEL 251038Z AUTO 00000KT 10SM OVC013 15/13 A3022 RMK AO2 $
KTEB 251051Z 00000KT 10SM OVC020 13/10 A3024 RMK AO2 SLP238 T01330100
KEWR 251051Z 08004KT 10SM OVC019 14/11 A3024 RMK AO2 SLP239 T01440111
KACY 251054Z VRB04KT 10SM OVC009 16/14 A3022 RMK AO2 SLP232 T01560139
KWRI 251055Z AUTO 04006KT 10SM OVC011 15/13 A3020 RMK AO2 SLP228 T01460132
KVAY 251114Z AUTO 00000KT 7SM OVC011 14/13 A3022 RMK AO2 TSNO
KBLM 251115Z AUTO 07005KT 10SM OVC014 15/13 A3024 RMK AO1
KWWD 251115Z AUTO 08005KT 10SM OVC011 16/14 A3021 RMK AO1
KWRI 251129Z AUTO 03005KT 10SM OVC010 15/13 A3021 RMK AO2 SLP232
KVAY 251135Z AUTO 00000KT 6SM BR OVC009 14/13 A3023 RMK AO2 CIG 007V014 TSNO
KBLM 251135Z AUTO 05005KT 10SM OVC012 14/13 A3024 RMK AO1
KWWD 251135Z AUTO 09004KT 10SM OVC011 17/14 A3021 RMK AO1
KACY 251135Z 05003KT 10SM OVC011 16/14 A3023 RMK AO2
KFWN 251139Z AUTO 00000KT 3SM BR OVC011 12/11 A3025 RMK AO2
KMMU 251145Z 04004KT 06SM BR OVC014 13/11 A3026
KFWN 251149Z AUTO 00000KT 2SM BR OVC011 12/11 A3025 RMK AO2
KTEB 251151Z 00000KT 10SM OVC020 14/11 A3024 RMK AO2 SLP241 70002 T01390106 10139 20133 51014
KEWR 251151Z 08004KT 10SM BKN020 OVC050 14/11 A3025 RMK AO2 SLP244 70006 T01440111 10150 20139 51017
KTTN 251153Z 09005KT 10SM OVC010 14/12 A3023 RMK AO2 SLP233 T01390122 10144 20139 51015
KCDW 251153Z AUTO 00000KT 10SM OVC015 13/11 A3026 RMK AO2 SLP251 70001 T01280106 10133 20128 51015 TSNO
KFWN 251153Z AUTO 00000KT 1 3/4SM BR OVC011 12/11 A3025 RMK AO2 SLP242 60003 70004 T01220111 10128 20122 50009
KSMQ 251153Z AUTO 05003G45KT 10SM OVC014 14/12 A3024 RMK AO2 PK WND 34045/1150 SLP239 60000 T01390117 10144 20133 51016 TSNO
KACY 251154Z 00000KT 10SM OVC011 16/14 A3024 RMK AO2 SLP238 T01610139 10161 20156 53016
KVAY 251154Z AUTO 00000KT 4SM BR OVC007 14/13 A3023 RMK AO2 CIG 006V011 SLP237 T01440133 10150 20144 53014 TSNO
KMIV 251154Z AUTO 06005KT 4SM BR OVC010 16/14 A3023 RMK AO2 SLP234 T01560139 10161 20156 53012
K12N 251154Z AUTO 00000KT 13/12 A3025 RMK AO2 SLP242 60001 70005 T01280117 10128 20122 51015 PWINO TSNO
KWWD 251155Z AUTO 08005KT 10SM OVC011 17/14 A3022 RMK AO1 10170 20160 52014
KWRI 251155Z AUTO 04004KT 10SM OVC010 14/13 A3022 RMK AO2 SLP234 T01440130 10148 20144 53016
KBLM 251155Z AUTO 05005KT 10SM OVC010 14/13 A3025 RMK AO1 10150 20140 52020
KNEL 251200Z AUTO 00000KT 10SM OVC013 15/13 A3024 RMK AO2 SLP237 T01500133 10150 20150 53012 $
KWWD 251215Z AUTO 05005KT 10SM OVC011 17/14 A3023 RMK AO1
KBLM 251215Z AUTO 06005KT 10SM OVC014 15/13 A3025 RMK AO1
KFWN 251216Z AUTO 00000KT 1 3/4SM BR BKN008 OVC011 12/11 A3025 RMK AO2 CIG 007V011
KMIV 251230Z AUTO 06006KT 4SM BR BKN007 OVC010 16/14 A3023 RMK AO2
KBLM 251235Z AUTO 08005KT 10SM OVC014 15/13 A3025 RMK AO1
KWWD 251235Z AUTO 05006KT 10SM OVC013 17/14 A3023 RMK AO1
KSMQ 251237Z AUTO 00000KT 10SM OVC016 14/12 A3023 RMK AO2 TSNO $
KMIV 251244Z AUTO 07004KT 2 1/2SM BR OVC005 16/14 A3024 RMK AO2
KMMU 251245Z 00000KT 6SM BR OVC014 13/11 A3026
KFWN 251245Z AUTO 00000KT 3SM BR OVC008 13/11 A3025 RMK AO2 CIG 006V010
KEWR 251251Z 09004KT 10SM OVC017 15/11 A3026 RMK AO2 SLP246 T01500106
KTEB 251251Z 00000KT 10SM OVC022 14/10 A3025 RMK AO2 SLP244 T01390100
KFWN 251253Z AUTO 00000KT 3SM BR OVC008 13/11 A3025 RMK AO2 CIG 006V010 SLP244 T01280111
KCDW 251253Z AUTO 00000KT 10SM OVC017 13/11 A3027 RMK AO2 SLP254 T01330106 TSNO
KTTN 251253Z 11004KT 7SM OVC010 14/12 A3025 RMK AO2 CIG 007V012 SLP236 T01440122
KSMQ 251253Z AUTO 00000KT 10SM OVC016 14/12 A3024 RMK AO2 SLP240 T01440117 TSNO $
K12N 251254Z AUTO 00000KT 13/12 A3025 RMK AO2 SLP245 T01280117 PWINO TSNO
KMIV 251254Z AUTO 08006KT 2 1/2SM BR OVC005 16/14 A3024 RMK AO2 SLP237 T01560144
KVAY 251254Z AUTO 00000KT 10SM OVC011 15/13 A3024 RMK AO2 SLP240 T01500133 TSNO
KACY 251254Z 05003KT 10SM OVC011 16/14 A3025 RMK AO2 SLP241 T01610139
KWRI 251255Z AUTO 05005KT 10SM OVC009 15/13 A3023 RMK AO2 SLP237 T01490131
KWWD 251255Z AUTO 06006KT 10SM OVC013 17/14 A3024 RMK AO1
KBLM 251255Z AUTO 08005KT 10SM OVC014 16/13 A3025 RMK AO1
KNEL 251300Z AUTO 08005KT 10SM OVC013 16/13 A3024 RMK AO2 SLP238 T01560133 $
KMIV 251308Z AUTO 08005KT 4SM BR OVC005 16/14 A3024 RMK AO2
KBLM 251315Z AUTO 09005KT 10SM OVC014 16/13 A3025 RMK AO1
KWWD 251315Z AUTO 06006KT 10SM OVC013 17/14 A3024 RMK AO1
KTTN 251319Z 13005KT 6SM BR OVC008 14/12 A3024 RMK AO2
KVAY 251320Z AUTO 00000KT 8SM BKN007 OVC012 15/13 A3024 RMK AO2 TSNO
KWWD 251335Z AUTO 08007KT 10SM OVC013 17/14 A3024 RMK AO1
KBLM 251335Z AUTO 09006KT 10SM OVC014 16/13 A3025 RMK AO1
KMIV 251337Z AUTO 08004KT 6SM BR FEW007 OVC013 17/14 A3024 RMK AO2
KMMU 251345Z 00000KT 6SM OVC013 14/11 A3027
KTEB 251351Z 04003KT 10SM OVC020 15/10 A3026 RMK AO2 SLP246 T01500100
KEWR 251351Z 09005KT 10SM OVC020 15/11 A3027 RMK AO2 SLP248 CIG 018V022 T01500106
KSMQ 251353Z AUTO 00000KT 10SM OVC016 15/12 A3025 RMK AO2 SLP243 T01500122 TSNO
KCDW 251353Z 00000KT 10SM OVC017 14/11 A3027 RMK AO2 SLP257 T01390106
KFWN 251353Z AUTO 00000KT 4SM BR OVC008 13/11 A3027 RMK AO2 SLP250 T01280111
KTTN 251353Z 13005KT 7SM OVC008 14/13 A3025 RMK AO2 SLP237 T01440128
KVAY 251354Z AUTO 10004KT 5SM BR OVC007 15/13 A3024 RMK AO2 SLP241 T01500133 TSNO
KACY 251354Z 09007KT 10SM OVC011 17/14 A3025 RMK AO2 SLP241 T01670144
KMIV 251354Z AUTO 09004KT 7SM OVC013 17/14 A3024 RMK AO2 SLP238 T01670144
K12N 251354Z AUTO 00000KT 13/12 A3027 RMK AO2 SLP249 T01280117 PWINO TSNO
KBLM 251355Z AUTO 08008KT 10SM OVC014 16/12 A3026 RMK AO1
KWWD 251355Z AUTO 08008KT 10SM OVC013 17/14 A3024 RMK AO1
KWRI 251355Z AUTO 06005KT 10SM OVC009 15/14 A3023 RMK AO2 CIG 008V011 SLP237 T01550136
KNEL 251400Z AUTO 11004KT 10SM OVC013 16/13 A3025 RMK AO2 SLP241 T01610133 $
KBLM 251415Z AUTO 09007KT 10SM OVC014 16/12 A3026 RMK AO1
KWWD 251415Z AUTO 07006KT 10SM OVC013 18/14 A3024 RMK AO1
KSMQ 251417Z AUTO 00000KT 10SM OVC014 15/12 A3025 RMK AO2 TSNO
KWWD 251435Z AUTO 08007KT 10SM OVC013 18/14 A3024 RMK AO1
KBLM 251435Z AUTO 10006KT 10SM OVC014 16/13 A3026 RMK AO1
KMMU 251445Z 04003KT 6SM BR OVC014 14/11 A3028
KWRI 251451Z AUTO 10007KT 10SM OVC010 16/14 A3023 RMK AO2 CIG 008V012 SLP237
KEWR 251451Z 07004KT 10SM OVC022 16/11 A3027 RMK AO2 SLP251 CIG 020V024 T01610111 53007
KTEB 251451Z 00000KT 10SM OVC020 16/10 A3027 RMK AO2 SLP249 T01560100 52008
KTTN 251453Z 11005KT 8SM OVC008 16/13 A3025 RMK AO2 SLP238 T01560128 51006
KCDW 251453Z 00000KT 9SM OVC019 14/11 A3028 RMK AO2 SLP259 T01440106 51008
KSMQ 251453Z AUTO VRB03KT 8SM OVC014 15/13 A3026 RMK AO2 SLP246 T01500128 TSNO
KFWN 251453Z AUTO 00000KT 5SM BR OVC008 13/11 A3027 RMK AO2 SLP251 T01330111 51008
KMIV 251454Z AUTO 10005KT 8SM OVC013 17/14 A3024 RMK AO2 SLP237 T01720144 50003
KVAY 251454Z AUTO 00000KT 5SM BR OVC007 16/14 A3025 RMK AO2 SLP242 T01560139 51004 TSNO
KACY 251454Z 10007KT 10SM OVC013 17/14 A3024 RMK AO2 SLP241 T01720139 50002
K12N 251454Z AUTO 00000KT 13/12 A3027 RMK AO2 SLP250 T01330117 51007 PWINO TSNO
KWRI 251455Z AUTO 09005KT 10SM OVC010 16/14 A3023 RMK AO2 CIG 009V012 SLP237 T01630136 51003
KWRI 251455Z AUTO 09005KT 10SM OVC010 16/14 A3023
KBLM 251455Z AUTO 09004KT 10SM OVC014 16/13 A3026 RMK AO1 52003
KWWD 251455Z AUTO 09006KT 10SM OVC011 18/14 A3024 RMK AO1 52007
KNEL 251500Z AUTO 12006KT 10SM OVC013 16/13 A3025 RMK AO2 SLP241 T01610133 51009 $
KWRI 251501Z AUTO 08007KT 10SM OVC011 16/14 A3023 RMK AO2 CIG 009V013 SLP237
KBLM 251515Z AUTO 10005KT 10SM OVC014 16/13 A3027 RMK AO1
KWWD 251515Z AUTO 11007KT 10SM OVC011 18/14 A3024 RMK AO1
KTTN 251523Z 13006KT 10SM OVC010 16/13 A3025 RMK AO2
KFWN 251525Z AUTO 00000KT 5SM BR OVC010 14/12 A3028 RMK AO2
KWWD 251535Z AUTO 10007KT 10SM OVC013 18/14 A3024 RMK AO1
KBLM 251535Z AUTO 07005KT 10SM OVC014 16/13 A3026 RMK AO1
KMMU 251545Z 00000KT 6SM BR OVC014 15/11 A3027
KTEB 251551Z 00000KT 10SM OVC022 16/10 A3026 RMK AO2 SLP246 T01610100
KEWR 251551Z 07005KT 10SM SCT018 OVC023 17/12 A3027 RMK AO2 SLP249 T01670117
KSMQ 251553Z AUTO 15004KT 10SM OVC014 16/13 A3024 RMK AO2 SLP242 T01560128 TSNO
KCDW 251553Z 07005KT 9SM OVC019 16/11 A3027 RMK AO2 SLP256 T01560106
KTTN 251553Z 12006KT 10SM OVC010 16/13 A3025 RMK AO2 SLP237 T01560128
KFWN 251553Z AUTO 00000KT 4SM BR OVC010 14/12 A3027 RMK AO2 SLP250 T01390117
K12N 251554Z AUTO 00000KT 14/12 A3026 RMK AO2 SLP248 T01390117 PWINO TSNO
KACY 251554Z 09005KT 10SM OVC013 17/13 A3025 RMK AO2 SLP242 T01670133
KVAY 251554Z AUTO 00000KT 9SM OVC009 16/14 A3025 RMK AO2 SLP242 T01610139 TSNO
KMIV 251554Z AUTO 13007KT 10SM OVC013 18/14 A3024 RMK AO2 SLP238 T01780144
KWRI 251555Z AUTO 09006KT 10SM OVC012 16/14 A3023 RMK AO2 SLP238 T01650137
KBLM 251555Z AUTO 09005KT 10SM OVC014 16/13 A3026 RMK AO1
KWWD 251555Z AUTO 10007KT 10SM OVC013 18/14 A3024 RMK AO1
KNEL 251600Z AUTO 11005KT 10SM OVC013 17/13 A3025 RMK AO2 SLP242 T01670133 $
KBLM 251615Z AUTO 08006KT 10SM OVC014 16/13 A3026 RMK AO1
KWWD 251615Z AUTO 13007KT 10SM OVC015 18/14 A3024 RMK AO1
KSMQ 251623Z AUTO 15003KT 10SM OVC016 16/13 A3025 RMK AO2 TSNO
KVAY 251625Z AUTO 08003KT 9SM OVC011 17/14 A3024 RMK AO2 TSNO
KMIV 251629Z AUTO 11006KT 9SM OVC015 18/14 A3023 RMK AO2
KWWD 251635Z AUTO 09006KT 10SM OVC013 18/14 A3023 RMK AO1
KBLM 251635Z AUTO 09005KT 10SM OVC014 16/13 A3025 RMK AO1
KMMU 251645Z 00000KT 6SM BR OVC018 16/12 A3027
KTEB 251651Z 00000KT 10SM OVC022 16/10 A3026 RMK AO2 SLP245 T01610100
KEWR 251651Z 09004KT 10SM SCT018 OVC022 17/12 A3026 RMK AO2 SLP247 T01670117
KSMQ 251653Z AUTO 00000KT 10SM OVC016 16/13 A3024 RMK AO2 SLP241 T01610128 TSNO
KTTN 251653Z 10004KT 10SM OVC012 16/13 A3024 RMK AO2 SLP235 T01610128
KCDW 251653Z 00000KT 9SM OVC019 15/11 A3027 RMK AO2 SLP255 T01500106
KFWN 251653Z AUTO 00000KT 7SM OVC010 14/12 A3025 RMK AO2 CIG 008V013 SLP245 T01440122
KMIV 251654Z AUTO 12005KT 9SM OVC015 18/14 A3022 RMK AO2 SLP233 T01780144
KACY 251654Z 09006KT 10SM OVC013 17/14 A3024 RMK AO2 SLP240 T01720139
K12N 251654Z AUTO 00000KT 15/12 A3025 RMK AO2 SLP245 T01500117 PWINO TSNO
KBLM 251655Z AUTO 07008KT 10SM OVC014 16/13 A3026 RMK AO1
KWWD 251655Z AUTO 08006KT 10SM OVC013 18/15 A3023 RMK AO1
KWRI 251655Z AUTO 09005KT 10SM OVC011 17/14 A3022 RMK AO2 SLP234 T01660138
KNEL 251700Z AUTO 12006KT 10SM OVC013 17/13 A3024 RMK AO2 SLP238 T01670133 $
KWWD 251715Z AUTO 12007KT 10SM OVC013 18/14 A3023 RMK AO1
KBLM 251715Z AUTO 08006KT 10SM OVC014 16/12 A3025 RMK AO1
KACY 251725Z 08004KT 10SM OVC015 17/13 A3024 RMK AO2
KWWD 251735Z AUTO 09008KT 9SM OVC015 18/14 A3023 RMK AO1
KBLM 251735Z AUTO 09006KT 10SM OVC014 16/13 A3025 RMK AO1
KMMU 251745Z 10005KT 6SM BR OVC020 16/12 A3025
KEWR 251751Z 09005KT 10SM OVC022 17/12 A3025 RMK AO2 SLP243 CIG 020V024 T01670117 10167 20144 58007
KTEB 251751Z 08005KT 10SM OVC024 18/11 A3025 RMK AO2 SLP241 T01780106 10178 20139 58008 $
KCDW 251753Z 06005KT 10SM OVC021 16/11 A3026 RMK AO2 SLP251 T01610106 10161 20128 58008
KSMQ 251753Z AUTO 00000KT 10SM OVC018 16/13 A3023 RMK AO2 SLP237 T01610128 10167 20139 57009 TSNO
KTTN 251753Z 09005KT 10SM OVC012 16/13 A3023 RMK AO2 SLP232 T01610128 10161 20139 58007
KFWN 251753Z AUTO 14004KT 10SM OVC012 15/12 A3025 RMK AO2 SLP242 T01500122 10150 20122 58008
KACY 251754Z 10006KT 10SM OVC013 17/14 A3023 RMK AO2 SLP237 T01720139 10172 20156 58004
K12N 251754Z AUTO VRB03KT 15/12 A3025 RMK AO2 SLP243 T01500117 10150 20128 56006 PWINO TSNO
KMIV 251754Z AUTO 11006KT 9SM OVC015 18/14 A3022 RMK AO2 SLP233 T01780144 10183 20156 58004
KVAY 251754Z AUTO 10004KT 10SM OVC015 17/14 A3023 RMK AO2 SLP237 T01720139 10172 20144 58005 TSNO
KWRI 251755Z AUTO 12004KT 10SM OVC012 17/14 A3021 RMK AO2 SLP233 T01660138 10166 20144 58004
KWWD 251755Z AUTO 06007KT 10SM OVC015 18/14 A3022 RMK AO1 10180 20170 57007
KBLM 251755Z AUTO 08007KT 10SM OVC014 16/13 A3025 RMK AO1 10160 20140 57003
KNEL 251800Z AUTO 11006KT 10SM OVC013 17/13 A3023 RMK AO2 SLP236 T01670133 10167 20150 58003 $
KBLM 251815Z AUTO 08006KT 10SM OVC014 16/13 A3025 RMK AO1
KWWD 251815Z AUTO 09007KT 10SM OVC015 18/14 A3021 RMK AO1
KBLM 251835Z AUTO 08008KT 10SM OVC014 16/13 A3024 RMK AO1
KWWD 251835Z AUTO 10005KT 10SM OVC015 18/14 A3022 RMK AO1
KMMU 251845Z 13003KT 6SM HZ OVC020 17/12 A3024
KEWR 251851Z 11006KT 10SM OVC022 17/12 A3024 RMK AO2 SLP240 CIG 020V024 T01720117
KTEB 251851Z 11005KT 10SM OVC026 17/11 A3023 RMK AO2 SLP237 T01720106
KCDW 251853Z 00000KT 10SM OVC021 17/11 A3024 RMK AO2 SLP247 T01670111
KSMQ 251853Z AUTO 00000KT 10SM OVC019 17/13 A3022 RMK AO2 SLP235 T01670128 TSNO
KTTN 251853Z 12005KT 10SM OVC012 16/13 A3023 RMK AO2 SLP232 T01610128
KFWN 251853Z AUTO 18003KT 10SM BKN017 OVC023 16/12 A3023 RMK AO2 SLP237 T01560122
K12N 251854Z AUTO 21004KT 16/12 A3024 RMK AO2 SLP239 T01560117 PWINO TSNO
KVAY 251854Z AUTO 09004KT 10SM OVC015 17/14 A3023 RMK AO2 SLP235 T01720139 TSNO
KACY 251854Z 06007KT 10SM OVC013 17/14 A3023 RMK AO2 SLP236 T01720139
KMIV 251854Z AUTO 12003KT 10SM OVC015 18/14 A3022 RMK AO2 SLP231 T01780139
KWRI 251855Z AUTO 09005KT 10SM OVC012 16/14 A3022 RMK AO2 SLP233 T01650138
KBLM 251855Z AUTO 07006KT 10SM OVC014 16/13 A3025 RMK AO1
KWWD 251855Z AUTO 08005KT 10SM OVC015 18/14 A3022 RMK AO1
KNEL 251900Z AUTO 10006KT 10SM OVC013 17/13 A3023 RMK AO2 SLP236 T01670133 $
KACY 251902Z 05006KT 10SM OVC015 17/14 A3023 RMK AO2
KBLM 251915Z AUTO 08007KT 10SM OVC014 16/13 A3025 RMK AO1
KWWD 251915Z AUTO 09007KT 10SM OVC015 18/14 A3023 RMK AO1
KVAY 251917Z AUTO 10005KT 10SM OVC013 17/14 A3023 RMK AO2 TSNO
KNEL 251934Z AUTO 09005KT 10SM OVC015 17/13 A3024 RMK AO2 $
KWWD 251935Z AUTO 09005KT 10SM OVC017 18/14 A3023 RMK AO1
KBLM 251935Z AUTO 08006KT 10SM OVC014 16/13 A3025 RMK AO1
KACY 251938Z 08004KT 10SM OVC013 17/14 A3023 RMK AO2
KMMU 251945Z 17006KT 6SM HZ OVC020 17/12 A3024
KNEL 251950Z AUTO 09005KT 10SM BKN013 OVC018 16/13 A3024 RMK AO2 $
KEWR 251951Z 13004KT 10SM OVC022 17/12 A3024 RMK AO2 SLP240 T01720117
KTEB 251951Z 13005KT 10SM OVC024 17/11 A3023 RMK AO2 SLP237 T01720106
KSMQ 251953Z AUTO 00000KT 10SM OVC019 17/13 A3023 RMK AO2 SLP235 T01670128 TSNO
KFWN 251953Z AUTO 18004KT 9SM OVC017 16/12 A3024 RMK AO2 SLP238 T01560122
KCDW 251953Z 14004KT 9SM OVC023 17/11 A3024 RMK AO2 SLP247 T01670111
KTTN 251953Z 13005KT 10SM OVC014 16/13 A3023 RMK AO2 SLP231 T01610133
KVAY 251954Z AUTO 11004KT 10SM OVC013 17/14 A3023 RMK AO2 SLP235 T01670139 TSNO
KMIV 251954Z AUTO 10007KT 10SM OVC017 18/14 A3022 RMK AO2 SLP231 T01780139
KACY 251954Z 07005KT 10SM OVC013 17/14 A3023 RMK AO2 SLP237 T01720139
K12N 251954Z AUTO VRB03KT 16/12 A3024 RMK AO2 SLP240 T01560117 PWINO TSNO
KWRI 251955Z AUTO 07005KT 10SM OVC013 16/14 A3021 RMK AO2 SLP233 T01640137
KBLM 251955Z AUTO 09006KT 10SM OVC014 16/13 A3025 RMK AO1
KWWD 251955Z AUTO 08006KT 10SM OVC017 18/14 A3023 RMK AO1
KNEL 252000Z AUTO 10006KT 9SM OVC013 16/13 A3023 RMK AO2 SLP236 T01610133 $
KBLM 252015Z AUTO 07005KT 10SM OVC014 16/13 A3024 RMK AO1
KWWD 252015Z AUTO 06006KT 10SM OVC017 18/14 A3022 RMK AO1
KACY 252015Z 06006KT 8SM OVC007 17/14 A3023 RMK AO2
KWRI 252024Z AUTO 07006KT 10SM BKN010 OVC015 16/14 A3021 RMK AO2 CIG 009V013 SLP231
KBLM 252035Z AUTO 09006KT 10SM OVC012 16/13 A3024 RMK AO1
KWWD 252035Z AUTO 07007KT 10SM OVC017 18/14 A3022 RMK AO1
KWRI 252041Z AUTO 08005KT 10SM OVC011 16/14 A3021 RMK AO2 CIG 009V015 SLP231
KMMU 252045Z 17003KT 6SM HZ OVC020 16/12 A3025
KEWR 252051Z 14004KT 10SM OVC025 17/12 A3024 RMK AO2 SLP240 T01670122 55003
KTEB 252051Z 14005KT 10SM OVC026 17/11 A3023 RMK AO2 SLP236 T01720111 56005
KCDW 252053Z 16004KT 9SM OVC023 17/11 A3024 RMK AO2 SLP247 T01670111 55004
KTTN 252053Z 12005KT 8SM OVC014 16/13 A3023 RMK AO2 SLP229 T01560133 58002
KFWN 252053Z AUTO 00000KT 8SM OVC017 16/12 A3024 RMK AO2 SLP238 T01560117 55004
KSMQ 252053Z AUTO VRB05KT 9SM OVC017 16/13 A3022 RMK AO2 SLP234 T01560133 TSNO
KVAY 252054Z AUTO 08003KT 10SM OVC013 17/14 A3022 RMK AO2 SLP234 T01670139 56002 TSNO
K12N 252054Z AUTO 20003KT 16/12 A3024 RMK AO2 SLP240 T01560117 56003 PWINO TSNO
KMIV 252054Z AUTO 09005KT 9SM OVC017 18/14 A3021 RMK AO2 SLP230 T01780139 56003
KACY 252054Z 07005KT 10SM OVC007 16/14 A3023 RMK AO2 SLP236 T01610144 58001
KBLM 252055Z AUTO 10006KT 10SM OVC012 16/13 A3024 RMK AO1 57003
KWRI 252055Z AUTO 07004KT 10SM BKN011 OVC017 16/14 A3021 RMK AO2 CIG 009V015 BKN V SCT SLP232 T01590139 58002
KWRI 252055Z AUTO 07004KT 10SM BKN011 OVC017 16/14 A3021
KWWD 252055Z AUTO 09008KT 10SM OVC017 18/14 A3022 RMK AO1 54000
KWRI 252056Z AUTO 07005KT 10SM SCT011 OVC017 16/14 A3021 RMK AO2 SLP232
KVAY 252108Z AUTO 08003KT 10SM OVC015 17/14 A3022 RMK AO2 TSNO
KWRI 252111Z AUTO 07004KT 10SM FEW010 OVC015 16/14 A3021 RMK AO2 CIG 014V018 SLP232
KWWD 252115Z AUTO 08007KT 10SM OVC017 18/14 A3022 RMK AO1
KBLM 252115Z AUTO 10006KT 10SM OVC014 16/13 A3024 RMK AO1
KVAY 252118Z AUTO 10003KT 10SM OVC013 17/14 A3023 RMK AO2 TSNO
KWRI 252120Z AUTO 08004KT 10SM BKN009 OVC016 16/14 A3021 RMK AO2 CIG 009V011 BKN V SCT SLP231
KVAY 252133Z AUTO 09003KT 10SM OVC015 17/14 A3023 RMK AO2 TSNO
KBLM 252135Z AUTO 08004KT 10SM OVC012 16/13 A3024 RMK AO1
KWWD 252135Z AUTO 06008KT 10SM FEW012 OVC019 17/14 A3022 RMK AO1
KMMU 252145Z 10004KT 6SM HZ OVC014 16/12 A3025
KWRI 252149Z AUTO 07005KT 10SM BKN010 OVC015 16/14 A3022 RMK AO2 CIG 009V012 SLP234
KTEB 252151Z 00000KT 10SM OVC026 17/11 A3024 RMK AO2 SLP239 T01720111
KEWR 252151Z 13005KT 10SM OVC023 17/12 A3025 RMK AO2 SLP242 T01670117
KFWN 252153Z AUTO 16003KT 7SM OVC019 15/12 A3024 RMK AO2 SLP240 T01500117
KSMQ 252153Z AUTO 00000KT 9SM OVC019 16/13 A3023 RMK AO2 SLP236 T01560133 TSNO
KTTN 252153Z 09004KT 10SM OVC014 16/13 A3023 RMK AO2 SLP231 T01560133
KCDW 252153Z 15004KT 10SM OVC021 16/11 A3025 RMK AO2 SLP249 T01610111
KMIV 252154Z AUTO 09006KT 10SM OVC017 17/14 A3022 RMK AO2 SLP231 T01720139
KVAY 252154Z AUTO 00000KT 10SM OVC015 16/14 A3023 RMK AO2 SLP236 T01610139 TSNO
KACY 252154Z 06005KT 10SM BKN009 OVC017 16/14 A3023 RMK AO2 SLP237 T01610144
K12N 252154Z AUTO 00000KT 15/12 A3024 RMK AO2 SLP241 T01500117 PWINO TSNO
KWWD 252155Z AUTO 07009KT 10SM BKN010 OVC017 17/14 A3023 RMK AO1
KWRI 252155Z AUTO 07004KT 10SM BKN010 OVC015 16/14 A3022 RMK AO2 CIG 009V012 SLP234 T01570139
KWRI 252155Z AUTO 07004KT 10SM BKN010 OVC015 16/14 A3022
KBLM 252155Z AUTO 09004KT 10SM OVC012 16/13 A3025 RMK AO1
KWRI 252157Z AUTO 07006KT 10SM OVC012 16/14 A3022 RMK AO2 CIG 009V016 SLP233
KWRI 252202Z AUTO 08004KT 10SM BKN010 OVC015 16/14 A3022 RMK AO2 CIG 009V013 SLP234
KWRI 252209Z AUTO 09004KT 10SM -RA OVC010 16/14 A3022 RMK AO2 RAB2209 CIG 009V015 SLP235
KWRI 252209Z AUTO 09004KT 10SM -RA OVC010 16/14 A3022 RMK AO2 RAB2209 CIG 009V015 SLP235
KWRI 252213Z AUTO 08004KT 10SM -DZ OVC011 16/14 A3022 RMK AO2 RAB2209E2212DZB2212 CIG 009V015 SLP235
KWRI 252214Z AUTO 08004KT 10SM -DZ BKN010 OVC015 16/14 A3022 RMK AO2 RAB2209E2212DZB2212 CIG 009V013 SLP235
KWWD 252215Z AUTO 06007KT 10SM SCT010 OVC017 17/14 A3023 RMK AO1
KBLM 252215Z AUTO 10005KT 10SM OVC014 16/13 A3025 RMK AO1
KWRI 252219Z AUTO 07005KT 10SM BKN010 OVC015 16/14 A3022 RMK AO2 RAB2209E2212DZB2212E2219 CIG 008V013 SLP235
KWRI 252219Z AUTO 07005KT 10SM BKN010 OVC015 16/14 A3022 RMK AO2 RAB2209E2212DZB2212E2219 CIG 008V013 SLP235
KWRI 252219Z AUTO 07005KT 10SM BKN010 OVC015 16/14 A3022 RMK AO2 RAB2209E2212DZB2212E2219 CIG 008V013 SLP235
KWRI 252222Z AUTO 08004KT 10SM OVC012 16/14 A3022 RMK AO2 RAB2209E2212DZB2212E2219 CIG 008V016 SLP236
KWRI 252222Z AUTO 08004KT 10SM OVC012 16/14 A3022 RMK AO2 RAB2209E2212DZB2212E2219 CIG 008V016 SLP236
KWRI 252222Z AUTO 08004KT 10SM OVC012 16/14 A3022
KACY 252222Z 07005KT 10SM OVC017 16/14 A3024 RMK AO2
KWRI 252222Z AUTO 08004KT 10SM OVC012 16/14 A3022 RMK AO2 RAB2209E2212DZB2212E2219 CIG 008V016 SLP236
KWRI 252223Z AUTO 08004KT 10SM BKN009 OVC014 16/14 A3022 RMK AO2 RAB2209E2212DZB2212E2219 CIG 008V012 SLP236
KWRI 252227Z AUTO 08003KT 10SM OVC012 15/14 A3022 RMK AO2 RAB2209E2212DZB2212E2219 CIG 007V016 SLP236
KWRI 252227Z AUTO 08003KT 10SM OVC012 15/14 A3022 RMK AO2 RAB2209E2212DZB2212E2219 CIG 007V016 SLP236
KWRI 252227Z AUTO 08003KT 10SM OVC012 15/14 A3022 RMK AO2 RAB2209E2212DZB2212E2219 CIG 007V016 SLP236
KWRI 252227Z AUTO 08003KT 10SM OVC012 15/14 A3022 RMK AO2 RAB2209E2212DZB2212E2219 CIG 007V016 SLP236
KWRI 252227Z AUTO 08003KT 10SM OVC012 15/14 A3022
KWRI 252228Z AUTO 08003KT 10SM BKN009 OVC014 15/14 A3022 RMK AO2 RAB2209E2212DZB2212E2219 CIG 007V012 SLP236
KWRI 252229Z AUTO 07004KT 10SM OVC011 15/14 A3022 RMK AO2 RAB2209E2212DZB2212E2219 CIG 007V016 SLP236
KWRI 252229Z AUTO 07004KT 10SM OVC011 15/14 A3022
KWRI 252229Z AUTO 07004KT 10SM OVC011 15/14 A3022 RMK AO2 RAB2209E2212DZB2212E2219 CIG 007V016 SLP236
KWRI 252229Z AUTO 07004KT 10SM OVC011 15/14 A3022 RMK AO2 RAB2209E2212DZB2212E2219 CIG 007V016 SLP236
KWRI 252229Z AUTO 07004KT 10SM OVC011 15/14 A3022 RMK AO2 RAB2209E2212DZB2212E2219 CIG 007V016 SLP236
KWRI 252230Z AUTO 07004KT 10SM BKN009 OVC014 15/14 A3022 RMK AO2 RAB2209E2212DZB2212E2219 CIG 007V012 SLP236
KTTN 252234Z 12003KT 10SM OVC016 16/13 A3024 RMK AO2
KBLM 252235Z AUTO 09003KT 10SM OVC016 16/13 A3025 RMK AO1
KWWD 252235Z AUTO 08006KT 10SM OVC019 17/14 A3023 RMK AO1
KWRI 252235Z AUTO 07004KT 10SM -RA SCT009 OVC014 15/14 A3022 RMK AO2 RAB2209E2212B2235DZB2212E2219 SLP236
KWRI 252241Z AUTO 09003KT 10SM OVC012 15/14 A3023 RMK AO2 RAB2209E2212B2235E2241DZB2212E2219 CIG 007V015 SLP237
KWRI 252241Z AUTO 09003KT 10SM OVC012 15/14 A3023 RMK AO2 RAB2209E2212B2235E2241DZB2212E2219 CIG 007V015 SLP237
KWRI 252241Z AUTO 09003KT 10SM OVC012 15/14 A3023 RMK AO2 RAB2209E2212B2235E2241DZB2212E2219 CIG 007V015 SLP237
KWRI 252241Z AUTO 09003KT 10SM OVC012 15/14 A3023
KWRI 252243Z AUTO 08003KT 10SM -RA OVC012 15/14 A3022 RMK AO2 RAB2209E2212B2235DZB2212E2219 CIG 007V015 SLP236
KWRI 252243Z AUTO 08003KT 10SM -RA OVC012 15/14 A3022 RMK AO2 RAB2209E2212B2235DZB2212E2219 CIG 007V015 SLP236
KNEL 252243Z AUTO 08003KT 10SM OVC015 16/14 A3024 RMK AO2 $
KWRI 252243Z AUTO 08003KT 10SM -RA OVC012 15/14 A3022 RMK AO2 RAB2209E2212B2235DZB2212E2219 CIG 007V015 SLP236
KWRI 252244Z AUTO 08003KT 10SM -RA FEW007 OVC012 15/14 A3022 RMK AO2 RAB2209E2212B2235DZB2212E2219 CIG 011V015 SLP237
KWRI 252244Z AUTO 08003KT 10SM -RA FEW007 OVC012 15/14 A3022 RMK AO2 RAB2209E2212B2235DZB2212E2219 CIG 011V015 SLP237
KWRI 252244Z AUTO 08003KT 10SM -RA FEW007 OVC012 15/14 A3022 RMK AO2 RAB2209E2212B2235DZB2212E2219 CIG 011V015 SLP237
KMMU 252245Z 18003KT 6SM HZ OVC019 15/12 A3025
KWRI 252245Z AUTO 08003KT 10SM OVC011 15/14 A3022
KWRI 252245Z AUTO 08003KT 10SM OVC011 15/14 A3022 RMK AO2 RAB2209E2212B2235E2245DZB2212E2219 CIG 007V015 SLP237
KWRI 252245Z AUTO 08003KT 10SM OVC011 15/14 A3022 RMK AO2 RAB2209E2212B2235E2245DZB2212E2219 CIG 007V015 SLP237
KWRI 252248Z AUTO 08003KT 10SM -RA OVC011 15/14 A3023 RMK AO2 RAB2209E2212B2235DZB2212E2219 CIG 007V015 SLP237
KEWR 252251Z 11004KT 10SM OVC019 17/11 A3025 RMK AO2 SLP244 T01670111
KTEB 252251Z 14007KT 10SM OVC024 17/11 A3024 RMK AO2 SLP241 T01670111
KTTN 252253Z 13004KT 10SM OVC016 16/13 A3024 RMK AO2 SLP234 T01560128
KWRI 252253Z AUTO 07004KT 10SM OVC011 15/14 A3023 RMK AO2 RAB2209E2212B2235E2253DZB2212E2219 CIG 007V015 SLP237
KSMQ 252253Z AUTO 00000KT 10SM OVC017 15/13 A3023 RMK AO2 SLP238 T01500133 TSNO
KCDW 252253Z AUTO 16003KT 10SM OVC021 16/11 A3026 RMK AO2 SLP251 T01610111 TSNO
KWRI 252253Z AUTO 07004KT 10SM OVC011 15/14 A3023 RMK AO2 RAB2209E2212B2235E2253DZB2212E2219 CIG 007V015 SLP237
KWRI 252253Z AUTO 07004KT 10SM OVC011 15/14 A3023 RMK AO2 RAB2209E2212B2235E2253DZB2212E2219 CIG 007V015 SLP237
KFWN 252253Z AUTO 16003KT 9SM OVC019 15/12 A3025 RMK AO2 SLP242 T01500117
K12N 252254Z AUTO 00000KT 15/12 A3025 RMK AO2 SLP243 T01500117 PWINO TSNO
KACY 252254Z 07003KT 10SM OVC017 16/14 A3025 RMK AO2 SLP241 T01610139
KMIV 252254Z AUTO 10006KT 10SM OVC017 17/14 A3023 RMK AO2 SLP237 T01670144
KVAY 252254Z AUTO 11003KT 10SM OVC015 16/14 A3024 RMK AO2 SLP240 T01610139 TSNO
KWWD 252255Z AUTO 07007KT 10SM OVC019 17/14 A3024 RMK AO1
KWRI 252255Z AUTO 07004KT 10SM OVC011 15/14 A3022 RMK AO2 RAB2209E2212B2235E2253DZB2212E2219 CIG 007V015 SLP237 P0000 T01520141
KBLM 252255Z AUTO 09004KT 10SM OVC016 16/13 A3026 RMK AO1
KNEL 252300Z AUTO 10003KT 10SM OVC015 16/14 A3024 RMK AO2 SLP239 T01610139 $
KWWD 252315Z AUTO 08009KT 10SM OVC019 17/14 A3024 RMK AO1
KBLM 252315Z AUTO 10006KT 10SM OVC016 16/13 A3025 RMK AO1
KVAY 252331Z AUTO 00000KT 10SM BKN008 OVC017 16/14 A3024 RMK AO2 CIG 007V012 TSNO
KWWD 252335Z AUTO 07007KT 10SM OVC019 17/14 A3024 RMK AO1
KBLM 252335Z AUTO 11006KT 10SM OVC016 16/12 A3026 RMK AO1
KTTN 252336Z 11004KT 10SM OVC014 16/13 A3024 RMK AO2
KMMU 252345Z 00000KT 6SM HZ OVC017 15/12 A3026
KEWR 252351Z 11006KT 10SM BKN019 OVC030 16/11 A3026 RMK AO2 SLP245 T01610111 10172 20161 51005
KTEB 252351Z 13004KT 10SM OVC024 16/10 A3025 RMK AO2 SLP242 T01610100 10206 20161 51006
KTTN 252353Z 12003KT 10SM OVC014 16/13 A3025 RMK AO2 SLP236 T01560128 10161 20156 53007
KCDW 252353Z AUTO 17004KT 10SM OVC023 16/11 A3026 RMK AO2 SLP253 T01560111 10172 20156 51005 TSNO
KFWN 252353Z AUTO VRB04KT 9SM OVC017 15/12 A3025 RMK AO2 SLP243 T01500117 10161 20150 51005
KSMQ 252353Z AUTO 00000KT 10SM OVC017 15/13 A3024 RMK AO2 SLP242 T01500133 10167 20150 53007 TSNO
KACY 252354Z 10006KT 10SM OVC019 16/14 A3025 RMK AO2 SLP241 T01610139 10178 20161 51005
KVAY 252354Z AUTO 00000KT 10SM BKN008 OVC017 16/14 A3025 RMK AO2 CIG 006V011 SLP241 T01560139 10172 20156 52007 TSNO
K12N 252354Z AUTO 00000KT 14/12 A3026 RMK AO2 SLP245 T01440122 10156 20144 53005 PWINO TSNO
KMIV 252354Z AUTO 10004KT 10SM FEW012 OVC019 17/14 A3024 RMK AO2 SLP239 T01670144 10183 20167 53009
KBLM 252355Z AUTO 10004KT 10SM OVC018 16/12 A3026 RMK AO1 10160 20160 401600140 52007
KWRI 252355Z AUTO 00000KT 10SM OVC014 15/14 A3023 RMK AO2 SLP238 60000 T01510143 10167 20151 51006
KWWD 252355Z AUTO 07005KT 10SM OVC019 17/15 A3024 RMK AO1 10180 20170 401800160 52007
KVAY 260010Z AUTO 00000KT 10SM SCT008 OVC015 16/14 A3024 RMK AO2 TSNO
KMIV 260013Z AUTO 08004KT 10SM BKN012 OVC019 16/14 A3024 RMK AO2
KWWD 260015Z AUTO 07005KT 10SM OVC019 17/15 A3024 RMK AO1
KBLM 260015Z AUTO 10003KT 10SM OVC018 16/12 A3025 RMK AO1
KMIV 260024Z AUTO 08003KT 10SM SCT012 OVC019 16/14 A3023 RMK AO2
KBLM 260035Z AUTO 09003KT 10SM OVC018 15/12 A3025 RMK AO1
KWWD 260035Z AUTO 08004KT 10SM OVC021 17/15 A3023 RMK AO1
KMMU 260045Z 00000KT 10SM OVC017 15/12 A3026
KTEB 260051Z 12010G26KT 10SM OVC024 17/09 A3024 RMK AO2 PK WND 12026/0051 SLP241 T01670094
KEWR 260051Z 11005KT 10SM BKN021 OVC030 16/11 A3025 RMK AO2 SLP244 T01610106
KTTN 260053Z 11004KT 7SM OVC014 15/13 A3024 RMK AO2 SLP236 T01500133
KFWN 260053Z AUTO 00000KT 8SM OVC017 14/12 A3024 RMK AO2 SLP240 T01440117
KCDW 260053Z 00000KT 10SM OVC021 16/11 A3025 RMK AO2 SLP250 T01560111
KSMQ 260053Z AUTO 00000KT 7SM BKN012 OVC018 14/13 A3024 RMK AO2 SLP239 T01440133 TSNO
KACY 260054Z 10004KT 10SM OVC019 16/14 A3024 RMK AO2 SLP241 T01610139
KMIV 260054Z AUTO 08003KT 10SM OVC019 16/14 A3023 RMK AO2 SLP236 T01610144
KVAY 260054Z AUTO 00000KT 9SM OVC015 16/14 A3024 RMK AO2 SLP240 T01560139 TSNO
K12N 260054Z AUTO 00000KT 14/12 A3025 RMK AO2 SLP242 T01440122 PWINO TSNO
KBLM 260055Z AUTO 00000KT 10SM OVC020 15/12 A3026 RMK AO1
KWWD 260055Z AUTO 07005KT 10SM OVC023 17/15 A3023 RMK AO1
KWRI 260055Z AUTO 07003KT 10SM OVC014 15/14 A3023 RMK AO2 SLP237 T01520141
KWRI 260109Z AUTO 00000KT 10SM -RA OVC015 15/14 A3023 RMK AO2 RAB0109 SLP237
KWRI 260109Z AUTO 00000KT 10SM -RA OVC015 15/14 A3023 RMK AO2 RAB0109 SLP237
KWRI 260113Z AUTO 00000KT 10SM OVC015 15/14 A3023 RMK AO2 RAB0109E0113 SLP237
KWRI 260113Z AUTO 00000KT 10SM OVC015 15/14 A3023
KWWD 260115Z AUTO 08005KT 10SM OVC023 17/14 A3023 RMK AO1
KBLM 260115Z AUTO 00000KT 10SM OVC020 14/12 A3025 RMK AO1
KFWN 260126Z AUTO 15003KT 10SM OVC013 14/12 A3024 RMK AO2
KWRI 260129Z AUTO 04004KT 10SM OVC014 15/14 A3022 RMK AO2 RAB0109E0113 SLP236
KWWD 260135Z AUTO 08004KT 10SM OVC023 17/14 A3022 RMK AO1
KBLM 260135Z AUTO 00000KT 10SM BKN020 14/12 A3025 RMK AO1
KMMU 260145Z 00000KT 10SM OVC019 15/12 A3025
KTEB 260151Z 14004KT 10SM OVC024 16/09 A3024 RMK AO2 SLP239 T01610094
KEWR 260151Z 14004KT 10SM OVC023 16/11 A3025 RMK AO2 SLP242 T01610106
KFWN 260153Z AUTO 00000KT 6SM BR BKN011 OVC018 14/12 A3025 RMK AO2 SLP241 T01440122
KTTN 260153Z AUTO 00000KT 9SM OVC014 15/13 A3024 RMK AO2 SLP234 T01500133
KSMQ 260153Z AUTO 00000KT 4SM BR OVC012 14/13 A3023 RMK AO2 SLP238 T01440133 TSNO
KCDW 260153Z 00000KT 10SM OVC021 16/11 A3025 RMK AO2 SLP249 T01560106
KACY 260154Z 08004KT 10SM OVC021 16/14 A3023 RMK AO2 SLP237 T01610139
K12N 260154Z AUTO 00000KT 14/13 A3025 RMK AO2 SLP243 T01390128 PWINO TSNO
KVAY 260154Z AUTO 00000KT 10SM OVC019 16/14 A3023 RMK AO2 SLP237 T01560139 TSNO
KMIV 260154Z AUTO 07004KT 10SM OVC021 16/14 A3022 RMK AO2 SLP233 T01610144
KWRI 260155Z AUTO 05004KT 10SM OVC013 15/14 A3022 RMK AO2 RAB0109E0113 SLP235 P0000 T01510140
KWWD 260155Z AUTO 08004KT 10SM OVC023 17/14 A3022 RMK AO1
KBLM 260155Z AUTO 00000KT 10SM SCT022 14/12 A3025 RMK AO1
KBLM 260215Z AUTO 00000KT 10SM BKN022 13/12 A3025 RMK AO1
KWWD 260215Z AUTO 07005KT 10SM OVC023 17/15 A3022 RMK AO1
KBLM 260235Z AUTO 00000KT 10SM OVC020 13/12 A3024 RMK AO1
KWWD 260235Z AUTO 07006KT 10SM OVC023 17/15 A3021 RMK AO1
KFWN 260248Z AUTO 00000KT 4SM BR BKN009 OVC018 14/13 A3024 RMK AO2 CIG 007V013
KTEB 260251Z 00000KT 10SM OVC024 16/10 A3023 RMK AO2 SLP236 T01610100 58006
KEWR 260251Z 00000KT 10SM OVC023 16/11 A3024 RMK AO2 SLP239 T01610106 58007
KWRI 260252Z AUTO 08004KT 10SM OVC015 15/13 A3021 RMK AO2 SLP231
KWRI 260252Z AUTO 08004KT 10SM OVC015 15/13 A3021 RMK AO2 SLP231
KWRI 260252Z AUTO 08004KT 10SM OVC015 15/13 A3021 RMK AO2 SLP231
KWRI 260252Z AUTO 08004KT 10SM OVC015 15/13 A3021 RMK AO2 SLP231
KWRI 260252Z AUTO 08004KT 10SM OVC015 15/13 A3021
KTTN 260253Z AUTO 09004KT 8SM OVC014 15/13 A3023 RMK AO2 SLP230 T01500133 58007
KFWN 260253Z AUTO 00000KT 3SM BR BKN011 OVC018 14/13 A3024 RMK AO2 SLP238 T01390128 58003
KCDW 260253Z 00000KT 10SM OVC021 15/10 A3024 RMK AO2 SLP246 T01500100 58006
KSMQ 260253Z AUTO 00000KT 7SM OVC014 14/14 A3022 RMK AO2 SLP235 P0001 60001 T01440139 58007 TSNO
KVAY 260254Z AUTO 08003KT 10SM OVC019 16/14 A3022 RMK AO2 SLP234 T01560139 58008 TSNO
KMIV 260254Z AUTO 08003KT 10SM OVC021 16/14 A3021 RMK AO2 SLP230 T01560144 58009
KACY 260254Z 09004KT 10SM OVC021 16/14 A3022 RMK AO2 SLP234 T01610139 58007 $
K12N 260254Z AUTO 00000KT 13/13 A3024 RMK AO2 SLP238 T01330128 58007 PWINO TSNO
KBLM 260255Z AUTO 00000KT 10SM OVC020 13/12 A3024 RMK AO1 57007
KWRI 260255Z AUTO 06005KT 10SM OVC015 15/13 A3021 RMK AO2 SLP230 60000 T01520133 58007
KMMU 260255Z AUTO 00000KT 10SM OVC019 14/13 A3024 RMK AO2
KWWD 260255Z AUTO 07005KT 10SM OVC025 17/15 A3021 RMK AO1 57010
KNEL 260312Z AUTO 00000KT 10SM OVC013 16/13 A3023 RMK AO2 $
KBLM 260315Z AUTO 00000KT 10SM OVC020 13/12 A3024 RMK AO1
KMMU 260315Z AUTO 00000KT 10SM OVC019 14/13 A3024 RMK AO2
KWWD 260315Z AUTO 07003KT 10SM OVC025 17/15 A3021 RMK AO1
KFWN 260316Z AUTO 00000KT 4SM BR SCT011 OVC018 14/13 A3024 RMK AO2
KFWN 260329Z AUTO 00000KT 5SM BR FEW009 OVC016 14/13 A3024 RMK AO2
KBLM 260335Z AUTO 00000KT 10SM OVC018 14/12 A3024 RMK AO1
KMMU 260335Z AUTO 00000KT 10SM OVC019 13/13 A3023 RMK AO2
KWWD 260335Z AUTO 07003KT 10SM OVC025 17/15 A3021 RMK AO1
KFWN 260344Z AUTO 00000KT 5SM BR BKN012 OVC016 14/13 A3023 RMK AO2
KTEB 260351Z 00000KT 10SM OVC024 16/10 A3022 RMK AO2 SLP234 T01610100
KEWR 260351Z 00000KT 10SM BKN022 OVC032 16/12 A3023 RMK AO2 SLP236 T01610117
KFWN 260353Z AUTO 00000KT 5SM BR OVC012 14/12 A3023 RMK AO2 SLP237 T01390122
KSMQ 260353Z AUTO 00000KT 7SM OVC014 14/13 A3022 RMK AO2 SLP232 T01440133 TSNO
KCDW 260353Z 00000KT 10SM OVC021 14/11 A3024 RMK AO2 SLP244 T01440106
KTTN 260353Z AUTO 11004KT 10SM OVC014 15/13 A3022 RMK AO2 SLP226 T01500133
KVAY 260354Z AUTO 09003KT 10SM OVC019 16/13 A3022 RMK AO2 SLP232 T01560133 TSNO
KMIV 260354Z AUTO 00000KT 10SM OVC021 16/14 A3020 RMK AO2 SLP226 T01560139
KACY 260354Z 10SM OVC021 16/14 A3022 RMK AO2 SLP231 T01610139 $
K12N 260354Z AUTO 00000KT 13/13 A3024 RMK AO2 SLP238 T01330128 PWINO TSNO
KBLM 260355Z AUTO 00000KT 10SM OVC018 14/12 A3024 RMK AO1
KWRI 260355Z AUTO 08005KT 10SM OVC016 15/13 A3020 RMK AO2 SLP229 T01520132
KWWD 260355Z AUTO 07004KT 10SM OVC025 17/15 A3020 RMK AO1
KMMU 260355Z AUTO 00000KT 10SM OVC019 14/13 A3023 RMK AO2
KBLM 260415Z AUTO 00000KT 10SM OVC018 14/12 A3023 RMK AO1
KMMU 260415Z AUTO 00000KT 10SM OVC019 13/13 A3023 RMK AO2
KWWD 260415Z AUTO 07003KT 10SM OVC025 17/15 A3020 RMK AO1
KSMQ 260428Z AUTO 00000KT 6SM BR OVC016 14/13 A3022 RMK AO2 TSNO
KWWD 260435Z AUTO 06003KT 10SM OVC025 17/15 A3020 RMK AO1
KMMU 260435Z AUTO 00000KT 10SM OVC019 14/13 A3023 RMK AO2
KBLM 260435Z AUTO 00000KT 10SM OVC018 14/12 A3023 RMK AO1
KTEB 260451Z 00000KT 10SM OVC024 16/10 A3022 RMK AO2 SLP234 T01610100 402060133
KEWR 260451Z 00000KT 10SM BKN022 OVC032 16/12 A3023 RMK AO2 SLP236 T01610117 401720139
KCDW 260453Z 00000KT 10SM OVC021 14/11 A3023 RMK AO2 SLP243 T01440106 401720128
KTTN 260453Z AUTO 09004KT 10SM OVC014 15/13 A3021 RMK AO2 SLP226 T01500128 401610139
KFWN 260453Z AUTO 00000KT 5SM BR BKN010 OVC017 13/12 A3023 RMK AO2 SLP236 T01330122 401610122
KSMQ 260453Z AUTO 00000KT 6SM BR OVC016 14/13 A3021 RMK AO2 SLP232 T01440133 401670133 TSNO
KACY 260454Z 10SM OVC021 16/14 A3021 RMK AO2 SLP229 T01610139 401780156 $
KMIV 260454Z AUTO 06005KT 10SM OVC021 16/14 A3020 RMK AO2 SLP224 T01560144 401830156
K12N 260454Z AUTO 00000KT 13/12 A3023 RMK AO2 SLP237 T01330122 401560122 PWINO TSNO
KVAY 260454Z AUTO 00000KT 10SM OVC019 16/13 A3021 RMK AO2 SLP228 T01560133 401720144 TSNO
KWRI 260455Z AUTO 06004KT 10SM OVC017 15/13 A3019 RMK AO2 SLP225 T01510133 401670144
KBLM 260455Z AUTO 00000KT 10SM OVC016 14/12 A3022 RMK AO1
KWWD 260455Z AUTO 08004KT 10SM BKN025 17/15 A3019 RMK AO1
KMMU 260455Z AUTO 00000KT 10SM OVC019 13/13 A3023 RMK AO2
KWWD 260515Z AUTO 08004KT 10SM FEW025 17/14 A3019 RMK AO1
KBLM 260515Z AUTO 04003KT 10SM OVC014 14/12 A3022 RMK AO1
KMMU 260515Z AUTO 00000KT 10SM OVC019 13/13 A3023 RMK AO2
KTEB 260519Z 00000KT 10SM SCT024 OVC031 16/10 A3022 RMK AO2
KTTN 260519Z AUTO 10004KT 10SM OVC016 15/13 A3021 RMK AO2
KACY 260519Z 10SM SCT021 14/13 A3020 RMK AO2 $
KWWD 260535Z AUTO 09005KT 10SM CLR 17/14 A3019 RMK AO1
KBLM 260535Z AUTO 02004KT 10SM OVC014 14/12 A3022 RMK AO1
KMMU 260535Z AUTO 00000KT 10SM OVC019 13/13 A3022 RMK AO2
KEWR 260551Z 00000KT 10SM OVC022 16/12 A3022 RMK AO2 SLP233 T01560122 10161 20156 58006
KTEB 260551Z 00000KT 10SM BKN025 OVC031 15/11 A3021 RMK AO2 SLP231 T01500106 10167 20150 58005
KSMQ 260553Z AUTO 00000KT 9SM OVC018 14/13 A3020 RMK AO2 SLP228 60001 T01440133 10156 20139 58007 TSNO
KCDW 260553Z 00000KT 10SM OVC019 14/11 A3022 RMK AO2 SLP240 T01440111 10156 20144 58006
KFWN 260553Z AUTO 00000KT 4SM BR OVC010 13/12 A3023 RMK AO2 CIG 009V014 SLP234 T01330122 10150 20133 58003
KTTN 260553Z AUTO 11005KT 10SM OVC016 15/13 A3021 RMK AO2 SLP223 T01500128 10156 20150 56007
KACY 260554Z 05003KT 10SM CLR 14/13 A3020 RMK AO2 SLP226 T01390128 10167 20139 57008 $
K12N 260554Z AUTO 00000KT 13/12 A3023 RMK AO2 SLP235 T01330122 10144 20133 58003 PWINO TSNO
KMIV 260554Z AUTO 10004KT 10SM BKN021 14/13 A3019 RMK AO2 SLP221 T01440133 10167 20144 56008
KVAY 260554Z AUTO 07003KT 10SM OVC021 16/13 A3020 RMK AO2 SLP227 T01560133 10156 20156 56007 TSNO
KWWD 260555Z AUTO 08006KT 10SM CLR 17/14 A3018 RMK AO1 10170 20170 57010
KWRI 260555Z AUTO 06004KT 10SM OVC018 15/13 A3019 RMK AO2 SLP224 60000 T01510135 10153 20150 56006
KBLM 260555Z AUTO 36004KT 10SM OVC016 14/12 A3022 RMK AO1 10160 20130 57007
KMMU 260555Z AUTO 00000KT 10SM OVC019 13/13 A3022 RMK AO2
KNEL 260600Z AUTO 05003KT 10SM OVC015 16/13 A3021 RMK AO2 SLP228 T01560133 10161 20156 58009 $
KMIV 260607Z AUTO 08003KT 10SM SCT021 14/13 A3019 RMK AO2
KWWD 260615Z AUTO 08006KT 10SM CLR 17/14 A3018 RMK AO1
KBLM 260615Z AUTO 00000KT 10SM OVC018 14/12 A3022 RMK AO1
KMMU 260615Z AUTO 00000KT 10SM OVC019 13/13 A3022 RMK AO2
KBLM 260635Z AUTO 00000KT 10SM OVC018 14/13 A3022 RMK AO1
KWWD 260635Z AUTO 07004KT 10SM CLR 17/14 A3018 RMK AO1
KMMU 260635Z AUTO 00000KT 10SM OVC017 13/13 A3022 RMK AO2
KFWN 260648Z AUTO 00000KT 4SM BR OVC008 13/12 A3023 RMK AO2 CIG 005V011
KTEB 260651Z 00000KT 10SM OVC025 14/11 A3021 RMK AO2 SLP230 T01440111
KEWR 260651Z 00000KT 10SM OVC020 16/12 A3021 RMK AO2 SLP230 T01560122
KCDW 260653Z 00000KT 10SM OVC019 14/11 A3022 RMK AO2 SLP239 T01440111
KTTN 260653Z AUTO 08005KT 10SM OVC018 15/13 A3020 RMK AO2 SLP221 T01500128
KFWN 260653Z AUTO 00000KT 4SM BR OVC008 13/12 A3023 RMK AO2 CIG 005V011 SLP235 T01330122
KSMQ 260653Z AUTO 00000KT 8SM OVC018 14/13 A3020 RMK AO2 SLP226 T01440133 TSNO
KMIV 260654Z AUTO 04004KT 10SM CLR 14/13 A3019 RMK AO2 SLP220 T01440133
KACY 260654Z 00000KT 3SM BR CLR 13/13 A3019 RMK AO2 SLP224 T01330128 $
KVAY 260654Z AUTO 00000KT 10SM OVC021 16/13 A3020 RMK AO2 SLP225 T01560133 TSNO
K12N 260654Z AUTO 00000KT 13/12 A3023 RMK AO2 SLP235 T01330122 PWINO TSNO
KWWD 260655Z AUTO 08004KT 10SM CLR 16/14 A3018 RMK AO1
KWRI 260655Z AUTO 06004KT 10SM OVC018 15/13 A3018 RMK AO2 SLP222 T01520134
KBLM 260655Z AUTO 00000KT 10SM OVC020 14/13 A3021 RMK AO1
KMMU 260655Z AUTO 00000KT 10SM OVC017 13/13 A3022 RMK AO2
KACY 260711Z 00000KT 3/4SM BR CLR 13/12 A3019 RMK AO2 $
KWWD 260715Z AUTO 07004KT 10SM CLR 16/14 A3018 RMK AO1
KMMU 260715Z AUTO 00000KT 10SM OVC017 13/13 A3021 RMK AO2
KFWN 260715Z AUTO 00000KT 2 1/2SM BR BKN008 OVC017 13/12 A3022 RMK AO2
KBLM 260715Z AUTO 00000KT 10SM OVC020 14/13 A3020 RMK AO1
KACY 260721Z 00000KT 1 1/2SM BR CLR 13/12 A3019 RMK AO2 $
KFWN 260728Z AUTO 00000KT 3SM BR SCT010 OVC017 13/12 A3022 RMK AO2
KACY 260732Z 00000KT 3/4SM BR CLR 13/12 A3019 RMK AO2 $
KWWD 260735Z AUTO 06005KT 10SM CLR 16/14 A3018 RMK AO1
KBLM 260735Z AUTO 00000KT 10SM OVC020 14/13 A3020 RMK AO1
KMMU 260735Z AUTO 00000KT 10SM OVC017 13/13 A3021 RMK AO2
KFWN 260739Z AUTO 00000KT 2 1/2SM BR BKN010 OVC017 13/12 A3022 RMK AO2 CIG 009V014
KACY 260742Z 00000KT 1 1/4SM BR CLR 13/12 A3019 RMK AO2 $
KEWR 260751Z 00000KT 10SM OVC020 16/12 A3021 RMK AO2 SLP229 T01610122
KTEB 260751Z 00000KT 10SM OVC023 15/11 A3021 RMK AO2 SLP228 T01500111
KACY 260751Z 00000KT 2SM BR CLR 13/12 A3019 RMK AO2 VIS 3/4V5 $
KACY 260751Z 00000KT 2SM BR CLR 13/12 A3019 RMK AO2 VIS 3/4V5 $
KACY 260751Z 00000KT 2SM BR CLR 13/12 A3019 RMK AO2 VIS 3/4V5 $
KTTN 260753Z AUTO 06004KT 10SM OVC018 15/13 A3020 RMK AO2 SLP220 T01500128
KCDW 260753Z 00000KT 10SM OVC017 14/11 A3022 RMK AO2 SLP238 T01440111
KFWN 260753Z AUTO 00000KT 2 1/2SM BR OVC014 13/12 A3022 RMK AO2 SLP233 T01330122
KSMQ 260753Z AUTO 00000KT 8SM OVC016 14/13 A3020 RMK AO2 SLP226 T01440133 TSNO
KVAY 260754Z AUTO 00000KT 10SM OVC021 16/13 A3019 RMK AO2 SLP224 T01560133 TSNO
K12N 260754Z AUTO 00000KT 13/13 A3023 RMK AO2 SLP235 T01330128 PWINO TSNO
KMIV 260754Z AUTO 03003KT 9SM CLR 14/13 A3018 RMK AO2 SLP219 T01390133
KACY 260754Z 00000KT 5SM BR CLR 13/12 A3019 RMK AO2 SLP222 T01280117 $
KWRI 260755Z AUTO 05004KT 10SM OVC019 15/13 A3018 RMK AO2 SLP220 T01510135
KMMU 260755Z AUTO 00000KT 10SM OVC017 13/13 A3022 RMK AO2
KWWD 260755Z AUTO 05005KT 10SM CLR 16/14 A3017 RMK AO1
KBLM 260755Z AUTO 36003KT 10SM OVC020 14/13 A3020 RMK AO1
KNEL 260800Z AUTO 00000KT 10SM OVC021 15/13 A3019 RMK AO2 SLP221 T01500133 $
KACY 260813Z 00000KT 1 3/4SM BR CLR 13/12 A3019 RMK AO2 VIS 1V5 $
KFWN 260814Z AUTO 00000KT 3SM BR FEW007 OVC016 13/12 A3023 RMK AO2
KBLM 260815Z AUTO 36004KT 10SM OVC022 14/13 A3020 RMK AO1
KMMU 260815Z AUTO 00000KT 10SM OVC015 13/13 A3022 RMK AO2
KWWD 260815Z AUTO 06005KT 10SM CLR 16/14 A3018 RMK AO1
KACY 260826Z 00000KT 3SM BR CLR 13/12 A3019 RMK AO2 $
KWWD 260835Z AUTO 05004KT 10SM CLR 16/14 A3018 RMK AO1
KBLM 260835Z AUTO 02003KT 10SM OVC022 14/13 A3021 RMK AO1
KMMU 260835Z AUTO 00000KT 10SM OVC015 14/13 A3022 RMK AO2
KWRI 260841Z AUTO 04004KT 10SM OVC020 15/13 A3018 RMK AO2 CIG 018V022 SLP220
KTEB 260851Z 00000KT 10SM OVC021 15/11 A3021 RMK AO2 SLP230 T01500111 55001
KEWR 260851Z 00000KT 10SM OVC018 16/13 A3022 RMK AO2 SLP231 T01610128 55002
KTTN 260853Z AUTO 07004KT 10SM OVC018 15/13 A3020 RMK AO2 SLP221 T01500128 55002
KFWN 260853Z AUTO 00000KT 3SM BR OVC016 13/12 A3022 RMK AO2 SLP232 T01330122 58003
KCDW 260853Z 00000KT 10SM OVC017 14/11 A3023 RMK AO2 SLP241 T01440111 53001
KSMQ 260853Z AUTO 00000KT 10SM OVC018 14/13 A3020 RMK AO2 SLP227 T01440133 55001 TSNO
KVAY 260854Z AUTO 00000KT 10SM OVC021 16/13 A3020 RMK AO2 SLP224 T01560133 55002 TSNO
KMIV 260854Z AUTO 00000KT 6SM BR CLR 13/12 A3019 RMK AO2 SLP221 T01280122 55001
KACY 260854Z 00000KT 10SM CLR 13/12 A3019 RMK AO2 SLP223 T01280122 55003 $
K12N 260854Z AUTO 00000KT 13/12 A3022 RMK AO2 SLP232 T01330122 58003 PWINO TSNO
KWWD 260855Z AUTO 00000KT 10SM CLR 15/13 A3018 RMK AO1 54000
KBLM 260855Z AUTO 01003KT 10SM OVC022 14/13 A3021 RMK AO1 57003
KMMU 260855Z AUTO 00000KT 10SM OVC015 14/13 A3022 RMK AO2
KWRI 260855Z AUTO 04003KT 10SM OVC021 15/13 A3018 RMK AO2 SLP221 T01490135 55003
KNEL 260900Z AUTO 02004KT 10SM OVC021 14/13 A3020 RMK AO2 SLP224 T01440128 58006 $
KMMU 260915Z AUTO 00000KT 10SM OVC015 13/13 A3022 RMK AO2
KWWD 260915Z AUTO 02003KT 10SM CLR 14/13 A3018 RMK AO1
KBLM 260915Z AUTO 02004KT 10SM OVC022 14/13 A3021 RMK AO1
KMMU 260935Z AUTO 00000KT 10SM OVC015 13/13 A3022 RMK AO2
KBLM 260935Z AUTO 02004KT 10SM OVC024 14/13 A3021 RMK AO1
KWWD 260935Z AUTO 02003KT 10SM CLR 14/13 A3018 RMK AO1
KTEB 260951Z 01003KT 10SM OVC021 15/11 A3021 RMK AO2 SLP230 T01500111
KEWR 260951Z 01005KT 10SM OVC017 16/12 A3021 RMK AO2 SLP231 T01560122
KFWN 260953Z AUTO 00000KT 5SM BR OVC016 13/12 A3021 RMK AO2 SLP230 T01330122
KCDW 260953Z 00000KT 10SM OVC017 14/12 A3022 RMK AO2 SLP239 T01390117
KSMQ 260953Z AUTO 00000KT 8SM OVC018 14/13 A3020 RMK AO2 SLP226 T01440133 TSNO
KTTN 260953Z AUTO 07005KT 10SM OVC018 15/13 A3020 RMK AO2 SLP220 T01500128
KVAY 260954Z AUTO 00000KT 8SM OVC023 14/13 A3020 RMK AO2 SLP225 T01440133 TSNO
KACY 260954Z 00000KT 10SM CLR 13/12 A3020 RMK AO2 SLP224 T01280117 $
KMIV 260954Z AUTO 00000KT 5SM BR CLR 12/12 A3018 RMK AO2 SLP219 T01220117
K12N 260954Z AUTO 00000KT 13/12 A3021 RMK AO2 SLP230 T01330122 PWINO TSNO
KWRI 260955Z AUTO 02003KT 10SM OVC021 15/13 A3018 RMK AO2 SLP221 T01490135
KMMU 260955Z AUTO 00000KT 10SM OVC015 13/13 A3021 RMK AO2
KBLM 260955Z AUTO 00000KT 10SM OVC024 14/13 A3021 RMK AO1
KWWD 260955Z AUTO 02003KT 10SM BKN019 14/13 A3018 RMK AO1
KNEL 261000Z AUTO 00000KT 10SM BKN023 14/13 A3020 RMK AO2 SLP224 T01440128 $
KNEL 261000Z AUTO 00000KT 10SM BKN023 14/13 A3020 RMK AO2 SLP224 T01440128 $
KNEL 261000Z AUTO 00000KT 10SM BKN023 14/13 A3020 RMK AO2 SLP224 T01440128 $
KNEL 261000Z AUTO 00000KT 10SM BKN023 14/13 A3020 RMK AO2 SLP224 T01440128 $
KNEL 261000Z AUTO 00000KT 10SM BKN023 14/13 A3020 RMK AO2 SLP224 T01440128 $
KNEL 261000Z AUTO 00000KT 10SM BKN023 14/13 A3020 RMK AO2 SLP224 T01440128 $
KNEL 261000Z AUTO 00000KT 10SM BKN023 14/13 A3020 RMK AO2 SLP224 T01440128 $
KNEL 261013Z AUTO 00000KT 10SM SCT023 14/13 A3020 RMK AO2 $
KBLM 261015Z AUTO 02004KT 10SM OVC024 14/13 A3021 RMK AO1
KMMU 261015Z AUTO 00000KT 10SM OVC017 13/13 A3022 RMK AO2
KWWD 261015Z AUTO 02003KT 10SM OVC019 14/13 A3018 RMK AO1
KACY 261016Z 00000KT 10SM BKN021 13/12 A3019 RMK AO2 $
KEWR 261016Z 04004KT 10SM OVC014 16/12 A3022 RMK AO2
KNEL 261029Z AUTO 01003KT 10SM BKN025 14/13 A3020 RMK AO2 $
KMMU 261035Z AUTO 00000KT 10SM OVC017 13/13 A3022 RMK AO2
KWWD 261035Z AUTO 02004KT 10SM OVC019 14/13 A3018 RMK AO1
KBLM 261035Z AUTO 02003KT 10SM BKN026 BKN065 14/13 A3021 RMK AO1
KTEB 261051Z 00000KT 10SM OVC019 15/11 A3021 RMK AO2 SLP229 T01500111
KEWR 261051Z 02003KT 10SM OVC014 16/12 A3021
KEWR 261051Z 02003KT 10SM OVC014 16/12 A3021 RMK AO2 SLP231 T01560122
KSMQ 261053Z AUTO 00000KT 10SM OVC020 14/13 A3020 RMK AO2 SLP227 T01390133 TSNO
KTTN 261053Z 08004KT 10SM OVC018 15/13 A3020 RMK AO2 SLP222 T01500128
KCDW 261053Z 00000KT 10SM OVC017 14/12 A3022 RMK AO2 SLP239 T01390117
KFWN 261053Z AUTO 00000KT 4SM BR OVC016 13/12 A3021 RMK AO2 SLP230 T01330122
KVAY 261054Z AUTO 00000KT 9SM OVC023 15/13 A3020 RMK AO2 SLP227 T01500133 TSNO
KMIV 261054Z AUTO 04003KT 9SM BKN021 13/13 A3018 RMK AO2 SLP220 T01330128
K12N 261054Z AUTO 00000KT 13/12 A3021 RMK AO2 SLP231 T01330122 PWINO TSNO
KACY 261054Z 03004KT 10SM BKN023 13/12 A3020 RMK AO2 SLP224 T01330122 $
KBLM 261055Z AUTO 00000KT 10SM FEW026 BKN065 14/13 A3022 RMK AO1
KWWD 261055Z AUTO 03004KT 10SM BKN019 14/13 A3018 RMK AO1
KWRI 261055Z AUTO 04003KT 10SM OVC022 15/13 A3019 RMK AO2 CIG 021V026 SLP224 T01460132
KEWR 261058Z 01003KT 10SM OVC017 16/12 A3022 RMK AO2
KNEL 261100Z AUTO 00000KT 10SM OVC025 14/13 A3021 RMK AO2 SLP227 T01440133 $
KWWD 261115Z AUTO 04004KT 10SM SCT019 14/13 A3018 RMK AO1
KBLM 261115Z AUTO 00000KT 10SM FEW026 OVC065 14/13 A3022 RMK AO1
KBLM 261135Z AUTO 02003KT 10SM FEW031 OVC065 14/13 A3022 RMK AO1
KWWD 261135Z AUTO 04006KT 10SM BKN019 14/13 A3018 RMK AO1
KMMU 261145Z 00000KT 5SM BR SCT012 OVC014 14/12 A3023
KEWR 261151Z 03003KT 10SM OVC019 16/13 A3022 RMK AO2 SLP234 CIG 017V021 T01560128 10161 20150 53002
KTEB 261151Z 00000KT 10SM OVC019 15/11 A3021 RMK AO2 SLP231 T01500111 10150 20144 53001
KTTN 261153Z 09006KT 9SM OVC022 15/13 A3021 RMK AO2 SLP225 T01500128 10150 20150 53004
KCDW 261153Z 00000KT 10SM OVC019 14/11 A3023 RMK AO2 SLP243 T01440111 10144 20139 53001
KFWN 261153Z AUTO 00000KT 3SM BR OVC016 13/12 A3023 RMK AO2 SLP235 T01330122 10133 20128 53003
KSMQ 261153Z AUTO 00000KT 7SM OVC020 14/13 A3021 RMK AO2 SLP231 70001 T01440133 10144 20139 53004 TSNO
KMIV 261154Z AUTO 05007KT 10SM BKN021 14/13 A3018 RMK AO2 SLP220 T01390133 10144 20117 55001
KACY 261154Z 04006KT 10SM OVC027 14/13 A3020 RMK AO2 SLP226 T01390133 10139 20122 51003
KVAY 261154Z AUTO 08003KT 10SM OVC025 15/13 A3020 RMK AO2 SLP227 T01500133 10156 20144 52003 TSNO
K12N 261154Z AUTO 00000KT 13/13 A3023 RMK AO2 SLP235 T01330128 10133 20133 53003 PWINO TSNO
KBLM 261155Z AUTO 00000KT 10SM BKN029 OVC065 14/13 A3022 RMK AO1 10140 20140 52003
KWRI 261155Z AUTO 05005KT 10SM OVC025 15/13 A3019 RMK AO2 SLP225 T01490135 10153 20144 52003
KWWD 261155Z AUTO 05005KT 10SM SCT019 15/14 A3018 RMK AO1 10170 20140 54000
KWWD 261215Z AUTO 06007KT 10SM BKN021 16/14 A3019 RMK AO1
KBLM 261215Z AUTO 02004KT 10SM OVC029 14/13 A3022 RMK AO1
KWWD 261235Z AUTO 07009KT 10SM BKN021 16/14 A3019 RMK AO1
KMMU 261245Z 01003KT 4SM BR SCT012 OVC014 14/12 A3025
KTEB 261251Z 32005KT 10SM OVC023 15/12 A3023 RMK AO2 SLP235 T01500117
KEWR 261251Z 00000KT 10SM OVC024 16/12 A3023 RMK AO2 SLP237 CIG 022V026 T01610122
KTTN 261253Z 06004KT 7SM OVC024 16/13 A3022 RMK AO2 SLP227 T01560133
KSMQ 261253Z AUTO 00000KT 8SM OVC020 14/13 A3022 RMK AO2 SLP233 T01440133 TSNO
KFWN 261253Z AUTO 00000KT 3SM BR OVC016 13/12 A3024 RMK AO2 SLP239 T01330122
KCDW 261253Z 00000KT 8SM OVC017 14/12 A3024 RMK AO2 SLP246 T01440117
K12N 261254Z AUTO 00000KT 14/13 A3024 RMK AO2 SLP240 T01390128 PWINO TSNO
KVAY 261254Z AUTO 02004KT 10SM OVC025 16/13 A3021 RMK AO2 SLP228 T01610133 TSNO
KMIV 261254Z AUTO 06006KT 10SM OVC023 15/13 A3020 RMK AO2 SLP225 T01500133
KACY 261254Z 06005KT 10SM OVC027 16/14 A3020 RMK AO2 SLP227 T01560144
KWWD 261255Z AUTO 06006KT 10SM SCT021 17/15 A3019 RMK AO1
KBLM 261255Z AUTO 03003KT 10SM OVC029 15/14 A3022 RMK AO1
KWRI 261255Z AUTO 03005KT 10SM OVC026 16/14 A3019 RMK AO2 SLP224 T01570136
KNEL 261300Z AUTO VRB04KT 10SM OVC027 16/14 A3020 RMK AO2 SLP225 T01560139 $
KWWD 261315Z AUTO 04006KT 10SM FEW021 17/15 A3020 RMK AO1
KBLM 261315Z AUTO 03005KT 10SM OVC027 16/14 A3022 RMK AO1
KWWD 261335Z AUTO 06008KT 10SM FEW010 18/16 A3020 RMK AO1
KBLM 261335Z AUTO 03004KT 10SM OVC027 16/14 A3022 RMK AO1
KMMU 261345Z 08003KT 4SM BR OVC012 14/13 A3024
KEWR 261351Z 01005KT 10SM OVC025 17/13 A3022 RMK AO2 SLP234 T01670128
KTEB 261351Z 01003KT 10SM OVC023 16/12 A3022 RMK AO2 SLP234 T01610117
KFWN 261353Z AUTO 00000KT 4SM BR OVC018 14/13 A3023 RMK AO2 SLP237 T01390128
KCDW 261353Z 33003KT 9SM OVC019 14/12 A3024 RMK AO2 SLP244 T01440117
KTTN 261353Z 05005KT 9SM OVC024 16/13 A3022 RMK AO2 SLP226 T01610133
KSMQ 261353Z AUTO 00000KT 10SM OVC020 16/14 A3021 RMK AO2 SLP231 T01560139 TSNO
KVAY 261354Z AUTO 04004KT 10SM OVC025 17/13 A3022 RMK AO2 SLP232 T01670133 TSNO
KACY 261354Z 08007KT 10SM OVC029 18/15 A3021 RMK AO2 SLP229 T01780150
K12N 261354Z AUTO 00000KT 14/13 A3023 RMK AO2 SLP237 T01440128 PWINO TSNO
KMIV 261354Z AUTO 04004KT 10SM OVC025 16/14 A3021 RMK AO2 SLP230 T01610139
KBLM 261355Z AUTO 03004KT 10SM OVC027 17/14 A3022 RMK AO1
KWWD 261355Z AUTO 05008KT 10SM FEW010 18/16 A3020 RMK AO1
KWRI 261355Z AUTO 03005KT 10SM OVC027 17/14 A3020 RMK AO2 SLP227 T01660136
KNEL 261400Z AUTO 03003KT 10SM OVC027 17/14 A3021 RMK AO2 SLP229 T01670139 $
KWWD 261415Z AUTO 03007KT 010V080 10SM FEW010 BKN025 19/16 A3021 RMK AO1
KBLM 261415Z AUTO 02003KT 10SM OVC027 17/14 A3023 RMK AO1
KWWD 261435Z AUTO 07006KT 10SM OVC027 19/16 A3021 RMK AO1
KBLM 261435Z AUTO 04004KT 10SM OVC027 17/14 A3022 RMK AO1
KMMU 261445Z 10003KT 4SM BR OVC020 15/13 A3023
KNEL 261447Z AUTO 08003KT 10SM OVC031 18/14 A3022 RMK AO2 $
KACY 261447Z 13007KT 10SM FEW017 BKN031 19/15 A3022 RMK AO2
KTEB 261451Z 00000KT 10SM OVC023 17/12 A3022 RMK AO2 SLP232 T01670117 50001
KEWR 261451Z 00000KT 10SM FEW015 OVC025 17/13 A3023 RMK AO2 SLP235 T01720128 51001
KCDW 261453Z 00000KT 9SM OVC019 16/12 A3023 RMK AO2 SLP243 T01560122 50000
KFWN 261453Z AUTO 00000KT 6SM BR FEW007 OVC018 14/13 A3022 RMK AO2 SLP234 T01440128 58001
KSMQ 261453Z AUTO 00000KT 10SM OVC024 16/14 A3021 RMK AO2 SLP230 T01610139 58001 TSNO
KTTN 261453Z 09004KT 10SM OVC024 16/13 A3022 RMK AO2 SLP228 T01610133 51003
KACY 261454Z 06007KT 10SM FEW019 OVC031 20/15 A3022 RMK AO2 SLP233 T02000150 53007
KVAY 261454Z AUTO 05003KT 10SM OVC029 17/13 A3022 RMK AO2 SLP234 T01720133 53006 TSNO
KMIV 261454Z AUTO 00000KT 10SM OVC027 18/14 A3021 RMK AO2 SLP230 T01780144 51010
K12N 261454Z AUTO 00000KT 15/13 A3023 RMK AO2 SLP235 T01500128 58001 PWINO TSNO
KBLM 261455Z AUTO 00000KT 10SM OVC029 17/14 A3023 RMK AO1 52003
KWRI 261455Z AUTO 04004KT 10SM OVC028 17/14 A3020 RMK AO2 SLP228 T01740138 53004
KWWD 261455Z AUTO 07008G14KT 10SM FEW016 SCT027 20/16 A3021 RMK AO1 52010
KNEL 261500Z AUTO 07003KT 10SM OVC029 18/14 A3022 RMK AO2 $
KNEL 261500Z AUTO 07003KT 10SM OVC029 18/14 A3022 RMK AO2 $
KNEL 261500Z AUTO 07003KT 10SM OVC029 18/14 A3022 RMK AO2 $
KNEL 261506Z AUTO 07003KT 10SM OVC029 18/14 A3022 RMK AO2 SLP232 T01780139 53002 $
KBLM 261515Z AUTO 08005KT 10SM OVC031 18/14 A3023 RMK AO1
KWWD 261515Z AUTO 09010KT 10SM CLR 21/15 A3021 RMK AO1
KWRI 261531Z AUTO 05005KT 10SM OVC030 18/14 A3020 RMK AO2 SLP227
KNEL 261532Z AUTO 08004KT 10SM OVC031 18/14 A3022 RMK AO2 $
KNEL 261532Z AUTO 08004KT 10SM OVC031 18/14 A3022 RMK AO2 $
KNEL 261532Z AUTO 08004KT 10SM OVC031 18/14 A3022 RMK AO2 $
KNEL 261532Z AUTO 08004KT 10SM OVC031 18/14 A3022 RMK AO2 $
KBLM 261535Z AUTO 09003KT 10SM OVC031 18/14 A3023 RMK AO1
KWWD 261535Z AUTO 08007KT 10SM CLR 21/15 A3020 RMK AO1
KMMU 261545Z 00000KT 7SM OVC020 16/13 A3023
KVAY 261549Z AUTO 00000KT 10SM OVC031 18/14 A3021 RMK AO2 TSNO
KTEB 261551Z 01003KT 10SM OVC025 17/12 A3022 RMK AO2 SLP232 T01720117
KEWR 261551Z 00000KT 10SM FEW015 OVC028 18/13 A3022 RMK AO2 SLP234 T01780128
KSMQ 261553Z AUTO 00000KT 10SM OVC026 17/13 A3020 RMK AO2 SLP227 T01720133 TSNO
KCDW 261553Z 00000KT 10SM OVC023 16/12 A3023 RMK AO2 SLP242 T01610122
KTTN 261553Z 11004KT 10SM OVC026 17/13 A3021 RMK AO2 SLP224 T01720133
KFWN 261553Z AUTO 00000KT 8SM OVC020 15/13 A3022 RMK AO2 SLP232 T01500128
K12N 261554Z AUTO VRB03KT 16/13 A3022 RMK AO2 SLP233 T01610128 PWINO TSNO
KACY 261554Z 11007KT 10SM BKN023 21/14 A3020 RMK AO2 SLP226 T02110144
KVAY 261554Z AUTO 08003KT 10SM OVC031 18/14 A3020 RMK AO2 SLP228 T01780139 TSNO
KMIV 261554Z AUTO 05004KT 10SM BKN024 BKN029 19/14 A3019 RMK AO2 SLP222 T01940144
KACY 261554Z 11007KT 10SM BKN023 21/14 A3020 RMK AO2 SLP226 T02110144
KACY 261554Z 11007KT 10SM BKN023 21/14 A3020 RMK AO2 SLP226 T02110144
KWWD 261555Z AUTO 09007KT 10SM CLR 21/14 A3019 RMK AO1
KWRI 261555Z AUTO 08005KT 10SM OVC031 18/14 A3019 RMK AO2 SLP224 T01830142
KBLM 261555Z AUTO 11006KT 10SM OVC029 18/14 A3022 RMK AO1
KNEL 261600Z AUTO 09006KT 10SM OVC033 19/14 A3020 RMK AO2 SLP226 T01890144 $
KNEL 261600Z AUTO 09006KT 10SM OVC033 19/14 A3020 RMK AO2 SLP226 T01890144 $
KNEL 261600Z AUTO 09006KT 10SM OVC033 19/14 A3020 RMK AO2 SLP226 T01890144 $
KNEL 261600Z AUTO 09006KT 10SM OVC033 19/14 A3020 RMK AO2 SLP226 T01890144 $
KNEL 261600Z AUTO 09006KT 10SM OVC033 19/14 A3020 RMK AO2 SLP226 T01890144 $
KWWD 261615Z AUTO 08011KT 10SM CLR 21/14 A3018 RMK AO1
KBLM 261615Z AUTO 11005KT 10SM OVC029 18/14 A3021 RMK AO1
KWRI 261623Z AUTO 08006KT 10SM -RA OVC031 19/15 A3018 RMK AO2 RAB1623 SLP220
KWRI 261623Z AUTO 08006KT 10SM -RA OVC031 19/15 A3018 RMK AO2 RAB1623 SLP220
KWRI 261623Z AUTO 08006KT 10SM -RA OVC031 19/15 A3018 RMK AO2 RAB1623 SLP220
KWRI 261623Z AUTO 08006KT 10SM -RA OVC031 19/15 A3018
KWRI 261623Z AUTO 08006KT 10SM -RA OVC031 19/15 A3018 RMK AO2 RAB1623 SLP220
KWRI 261633Z AUTO 10006KT 10SM FEW018 OVC032 19/15 A3017 RMK AO2 RAB1623E1633 SLP218
KWRI 261633Z AUTO 10006KT 10SM FEW018 OVC032 19/15 A3017 RMK AO2 RAB1623E1633 SLP218
KWRI 261633Z AUTO 10006KT 10SM FEW018 OVC032 19/15 A3017
KWRI 261633Z AUTO 10006KT 10SM FEW018 OVC032 19/15 A3017 RMK AO2 RAB1623E1633 SLP218
KWRI 261633Z AUTO 10006KT 10SM FEW018 OVC032 19/15 A3017 RMK AO2 RAB1623E1633 SLP218
KBLM 261635Z AUTO 11005KT 10SM OVC027 18/14 A3021 RMK AO1
KACY 261635Z 09008KT 10SM SCT027 BKN032 21/14 A3018 RMK AO2
KWWD 261635Z AUTO 09011KT 10SM CLR 21/14 A3018 RMK AO1
KACY 261635Z 09008KT 10SM SCT027 BKN032 21/14 A3018 RMK AO2
KACY 261635Z 09008KT 10SM SCT027 BKN032 21/14 A3018 RMK AO2
KACY 261642Z 12009KT 10SM BKN029 21/13 A3018 RMK AO2
KACY 261642Z 12009KT 10SM BKN029 21/13 A3018 RMK AO2
KMMU 261645Z 00000KT 7SM OVC020 16/13 A3021
KNEL 261650Z AUTO 09005KT 10SM OVC029 19/14 A3019 RMK AO2 $
KWRI 261650Z AUTO 07003KT 10SM BKN018 OVC032 19/15 A3017 RMK AO2 RAB1623E1633 SLP216
KNEL 261650Z AUTO 09005KT 10SM OVC029 19/14 A3019 RMK AO2 $
KNEL 261650Z AUTO 09005KT 10SM OVC029 19/14 A3019 RMK AO2 $
KNEL 261650Z AUTO 09005KT 10SM OVC029 19/14 A3019 RMK AO2 $
KTEB 261651Z 00000KT 10SM OVC029 18/12 A3019 RMK AO2 SLP224 T01780122
KEWR 261651Z 36003KT 10SM FEW020 OVC028 19/13 A3020 RMK AO2 SLP226 T01890133
KEWR 261651Z 36003KT 10SM FEW020 OVC028 19/13 A3020
KTTN 261653Z 09004KT 10SM OVC028 18/13 A3019 RMK AO2 SLP215 T01780133
KCDW 261653Z 00000KT 10SM OVC023 17/12 A3021 RMK AO2 SLP234 T01670122
KFWN 261653Z AUTO 00000KT 9SM OVC020 16/13 A3020 RMK AO2 SLP224 T01610128
KSMQ 261653Z AUTO 00000KT 10SM OVC028 17/13 A3018 RMK AO2 SLP221 T01720133 TSNO
K12N 261654Z AUTO VRB03KT 16/13 A3020 RMK AO2 SLP226 T01610128 PWINO TSNO
KACY 261654Z 13007KT 10SM SCT029 21/14 A3018 RMK AO2 SLP218 T02110139
KACY 261654Z 13007KT 10SM SCT029 21/14 A3018 RMK AO2 SLP218 T02110139
KACY 261654Z 13007KT 10SM SCT029 21/14 A3018 RMK AO2 SLP218 T02110139
KACY 261654Z 13007KT 10SM SCT029 21/14 A3018 RMK AO2 SLP218 T02110139
KVAY 261654Z AUTO 05003KT 10SM OVC031 19/14 A3018 RMK AO2 SLP219 T01890139 TSNO
KMIV 261654Z AUTO 10005KT 10SM OVC030 21/14 A3016 RMK AO2 SLP211 T02060144
KACY 261654Z 13007KT 10SM SCT029 21/14 A3018 RMK AO2 SLP218 T02110139
KWRI 261655Z AUTO 09006KT 10SM BKN018 OVC032 19/15 A3016 RMK AO2 RAB1623E1633 SLP215 P0000 T01900148
KBLM 261655Z AUTO 08005KT 10SM OVC027 18/14 A3020 RMK AO1
KWWD 261655Z AUTO 10008G14KT 10SM CLR 21/14 A3017 RMK AO1
KWRI 261655Z AUTO 09006KT 10SM BKN018 OVC032 19/15 A3016
KWRI 261655Z AUTO 09006KT 10SM BKN018 OVC032 19/15 A3016 RMK AO2 RAB1623E1633 SLP215 P0000 T01900148
KWRI 261655Z AUTO 09006KT 10SM BKN018 OVC032 19/15 A3016 RMK AO2 RAB1623E1633 SLP215 P0000 T01900148
KWRI 261655Z AUTO 09006KT 10SM BKN018 OVC032 19/15 A3016 RMK AO2 RAB1623E1633 SLP215 P0000 T01900148
KEWR 261658Z VRB04KT 10SM OVC030 19/13 A3019 RMK AO2
KNEL 261700Z AUTO 08004KT 10SM OVC029 19/14 A3018 RMK AO2 SLP218 T01890144 $
KNEL 261700Z AUTO 08004KT 10SM OVC029 19/14 A3018 RMK AO2 SLP218 T01890144 $
KNEL 261700Z AUTO 08004KT 10SM OVC029 19/14 A3018 RMK AO2 SLP218 T01890144 $
KNEL 261700Z AUTO 08004KT 10SM OVC029 19/14 A3018 RMK AO2 SLP218 T01890144 $
KNEL 261700Z AUTO 08004KT 10SM OVC029 19/14 A3018 RMK AO2 SLP218 T01890144 $
KTTN 261711Z 11004KT 10SM OVC030 18/13 A3018 RMK AO2
KBLM 261715Z AUTO 11006KT 10SM OVC029 18/14 A3019 RMK AO1
KWWD 261715Z AUTO 08010G14KT 10SM CLR 21/14 A3016 RMK AO1
KWRI 261727Z AUTO 10005KT 10SM SCT019 OVC028 19/15 A3015 RMK AO2 CIG 025V030 SCT V BKN SLP210
KBLM 261735Z AUTO 12006KT 10SM OVC029 18/14 A3018 RMK AO1
KWWD 261735Z AUTO 08010KT 060V120 10SM CLR 22/14 A3015 RMK AO1
KVAY 261736Z AUTO 07004KT 10SM OVC029 19/14 A3016 RMK AO2 TSNO
KEWR 261738Z 08004KT 10SM OVC029 19/13 A3018 RMK AO2
KMMU 261745Z 00000KT 7SM OVC025 17/13 A3018
KTEB 261751Z VRB03KT 10SM OVC029 18/12 A3016 RMK AO2 SLP214 T01830122 10189 20150 58018
KEWR 261751Z 06004KT 10SM OVC029 19/13 A3017 RMK AO2 SLP215 T01940128 10194 20156 58020
KCDW 261753Z 00000KT 10SM OVC027 18/12 A3017 RMK AO2 SLP223 T01780122 10178 20144 58020
KTTN 261753Z 13005KT 10SM OVC030 19/13 A3015 RMK AO2 SLP203 T01890133 10189 20150 58023
KSMQ 261753Z AUTO 00000KT 10SM OVC028 19/13 A3015 RMK AO2 SLP207 T01890133 10189 20144 58022 TSNO
KFWN 261753Z AUTO VRB03KT 9SM OVC018 16/12 A3018 RMK AO2 SLP217 P0001 60001 T01610122 10161 20133 58016
KSMQ 261753Z AUTO 00000KT 10SM OVC028 19/13 A3015
KACY 261754Z 12009KT 10SM SCT027 20/13 A3015 RMK AO2 SLP210 T02000133 10222 20139 57016
K12N 261754Z AUTO 00000KT 17/12 A3017 RMK AO2 SLP216 T01670122 10167 20133 58018 PWINO TSNO
KMIV 261754Z AUTO 12008KT 10SM BKN034 22/13 A3013 RMK AO2 SLP202 T02170133 10228 20139 56020
KVAY 261754Z AUTO 10004KT 10SM OVC029 19/14 A3015 RMK AO2 SLP208 T01940144 10194 20150 58021 TSNO
KWWD 261755Z AUTO 10009KT 10SM CLR 21/14 A3015 RMK AO1 10220 20150 57020
KWRI 261755Z AUTO VRB04KT 10SM OVC027 20/14 A3013 RMK AO2 CIG 023V030 SLP205 60000 T01970140 10197 20150 58023
KBLM 261755Z AUTO 11005KT 10SM OVC029 18/14 A3017 RMK AO1 10180 20140 57020
KNEL 261800Z AUTO 08006KT 10SM OVC029 19/14 A3015 RMK AO2 SLP209 T01940139 10194 20167 58012 $
KSMQ 261801Z AUTO 00000KT 10SM OVC030 18/13 A3014 RMK AO2 TSNO
KEWR 261811Z 08004KT 10SM OVC030 19/13 A3015 RMK AO2
KBLM 261815Z AUTO 10004KT 10SM OVC029 18/14 A3016 RMK AO1
KWWD 261815Z AUTO 10012KT 10SM CLR 21/14 A3014 RMK AO1
KBLM 261835Z AUTO 11005KT 10SM OVC029 19/14 A3015 RMK AO1
KWWD 261835Z AUTO 08007KT 10SM CLR 21/14 A3013 RMK AO1
KMMU 261845Z 00000KT 7SM OVC025 18/13 A3016
KTTN 261846Z 12004KT 10SM OVC028 19/13 A3013 RMK AO2
KTEB 261851Z 00000KT 10SM OVC029 19/12 A3014 RMK AO2 SLP205 T01890122
KEWR 261851Z 14005KT 10SM OVC030 19/13 A3014 RMK AO2 SLP207 T01890128
KVAY 261852Z AUTO 10004KT 10SM OVC031 20/14 A3012 RMK AO2 TSNO
KSMQ 261853Z AUTO 00000KT 10SM OVC032 19/13 A3013 RMK AO2 SLP201 T01890133 TSNO
KCDW 261853Z 03003KT 10SM OVC025 18/13 A3015 RMK AO2 SLP215 T01830128
KTTN 261853Z 00000KT 10SM OVC028 19/13 A3013 RMK AO2 SLP197 T01890133
KFWN 261853Z AUTO 00000KT 8SM OVC020 17/12 A3016 RMK AO2 SLP211 T01670122
KMIV 261854Z AUTO 11007KT 10SM FEW036 22/13 A3011 RMK AO2 SLP194 T02220128
KACY 261854Z 11008KT 10SM CLR 20/14 A3013 RMK AO2 SLP203 T02000139
KVAY 261854Z AUTO 08003KT 10SM OVC031 20/14 A3012 RMK AO2 SLP200 T02000139 TSNO
K12N 261854Z AUTO 00000KT 17/12 A3016 RMK AO2 SLP210 T01670122 PWINO TSNO
KWWD 261855Z AUTO 08006KT 060V120 10SM CLR 21/14 A3013 RMK AO1
KWRI 261855Z AUTO 09006KT 10SM OVC027 19/14 A3011 RMK AO2 SLP197 T01940144
KBLM 261855Z AUTO 14006KT 10SM SCT019 OVC029 19/14 A3015 RMK AO1
KNEL 261900Z AUTO VRB04KT 10SM OVC029 20/14 A3013 RMK AO2 SLP200 T02000144 $
KWWD 261915Z AUTO 08009KT 10SM CLR 21/14 A3012 RMK AO1
KBLM 261915Z AUTO 12007KT 10SM FEW021 OVC031 19/14 A3014 RMK AO1
KVAY 261927Z AUTO 10005KT 10SM BKN027 OVC033 20/14 A3012 RMK AO2 TSNO
KBLM 261935Z AUTO 10006KT 10SM OVC031 18/14 A3014 RMK AO1
KWWD 261935Z AUTO 08010KT 10SM CLR 21/14 A3012 RMK AO1
KMMU 261945Z 00000KT 7SM OVC025 18/13 A3015
KEWR 261951Z 15004KT 10SM OVC031 19/13 A3014 RMK AO2 SLP205 T01890128
KEWR 261951Z 15004KT 10SM OVC031 19/13 A3014
KTEB 261951Z 00000KT 10SM OVC029 19/12 A3013 RMK AO2 SLP203 T01890122
KTTN 261953Z 12003KT 10SM OVC026 19/13 A3012 RMK AO2 SLP193 T01890133
KCDW 261953Z AUTO 00000KT 10SM OVC027 18/13 A3015 RMK AO2 SLP214 T01830128 TSNO
KFWN 261953Z AUTO 00000KT 10SM OVC022 17/12 A3015 RMK AO2 SLP208 T01670122
KSMQ 261953Z AUTO 33003KT 10SM OVC030 18/13 A3012 RMK AO2 SLP199 T01830133 TSNO
KVAY 261954Z AUTO 10003KT 10SM OVC029 20/14 A3011 RMK AO2 SLP197 T02000144 TSNO
K12N 261954Z AUTO 00000KT 17/12 A3015 RMK AO2 SLP208 T01670122 PWINO TSNO
KMIV 261954Z AUTO 10010KT 10SM FEW036 21/13 A3010 RMK AO2 SLP193 T02060128
KACY 261954Z 13009KT 10SM CLR 20/13 A3012 RMK AO2 SLP200 T02000133
KBLM 261955Z AUTO 13004KT 10SM OVC031 18/14 A3014 RMK AO1
KWRI 261955Z AUTO 07005KT 10SM OVC028 19/15 A3010 RMK AO2 SLP194 T01920146
KWWD 261955Z AUTO 09009G14KT 10SM CLR 20/14 A3011 RMK AO1
KEWR 261958Z 13003KT 10SM OVC029 19/13 A3014 RMK AO2
KNEL 262000Z AUTO 12004KT 10SM OVC027 19/14 A3012 RMK AO2 SLP198 T01940144 $
KVAY 262013Z AUTO 00000KT 10SM OVC031 19/14 A3011 RMK AO2 TSNO
KWWD 262015Z AUTO 08009G14KT 10SM CLR 20/14 A3010 RMK AO1
KBLM 262015Z AUTO 10006KT 10SM OVC031 18/14 A3014 RMK AO1
KNEL 262023Z AUTO 08006KT 10SM SCT023 OVC030 19/14 A3011 RMK AO2 $
KNEL 262032Z AUTO 09005KT 10SM BKN023 OVC030 19/14 A3012 RMK AO2 $
KBLM 262035Z AUTO 09006KT 10SM OVC031 18/14 A3013 RMK AO1
KWWD 262035Z AUTO 07010KT 10SM CLR 19/14 A3010 RMK AO1
KWRI 262043Z AUTO 08004KT 10SM -RA OVC027 19/14 A3010 RMK AO2 RAB2043 SLP193
KMMU 262045Z 00000KT 7SM OVC025 18/13 A3014
KVAY 262047Z AUTO 00000KT 10SM OVC029 19/14 A3011 RMK AO2 TSNO
KTEB 262051Z 00000KT 10SM OVC029 19/12 A3012 RMK AO2 SLP199 T01890122 56015
KEWR 262051Z 13003KT 10SM OVC029 19/13 A3013
KEWR 262051Z 13003KT 10SM OVC029 19/13 A3013 RMK AO2 SLP202 T01890128 56013
KWRI 262052Z AUTO 06004KT 10SM OVC027 19/15 A3009 RMK AO2 RAB2043E2052 SLP192
KWRI 262052Z AUTO 06004KT 10SM OVC027 19/15 A3009 RMK AO2 RAB2043E2052 SLP192
KWRI 262052Z AUTO 06004KT 10SM OVC027 19/15 A3009 RMK AO2 RAB2043E2052 SLP192
KWRI 262052Z AUTO 06004KT 10SM OVC027 19/15 A3009 RMK AO2 RAB2043E2052 SLP192
KWRI 262052Z AUTO 06004KT 10SM OVC027 19/15 A3009
KFWN 262053Z AUTO 00000KT 9SM OVC026 17/13 A3013 RMK AO2 SLP203 T01670128 56014
KSMQ 262053Z AUTO 34003KT 10SM OVC030 18/13 A3011 RMK AO2 SLP196 T01830133 56012 TSNO
KNEL 262053Z AUTO 09005KT 10SM SCT023 OVC032 19/14 A3011 RMK AO2 $
KTTN 262053Z 10003KT 10SM OVC028 19/14 A3012 RMK AO2 SLP191 T01890139 56012
KCDW 262053Z AUTO 00000KT 10SM OVC027 18/12 A3014 RMK AO2 SLP210 T01780122 56013 TSNO
KMIV 262054Z AUTO 09007KT 10SM SCT032 20/13 A3010 RMK AO2 SLP191 T02000128 56012
KACY 262054Z 11007KT 10SM CLR 18/14 A3011 RMK AO2 SLP196 T01830139 56014
KVAY 262054Z AUTO 00000KT 10SM OVC029 19/14 A3011 RMK AO2 SLP194 T01940144 58006 TSNO
K12N 262054Z AUTO 00000KT 17/13 A3013 RMK AO2 SLP203 T01670133 57013 PWINO TSNO
KEWR 262055Z 14005KT 10SM OVC029 19/13 A3013 RMK AO2
KWWD 262055Z AUTO 08009KT 10SM CLR 19/14 A3010 RMK AO1 57017
KBLM 262055Z AUTO 07004KT 10SM OVC031 17/14 A3013 RMK AO1 57014
KWRI 262055Z AUTO 06003KT 10SM OVC026 19/14 A3009 RMK AO2 RAB2043E2052 SLP192 P0000 60000 T01860144 56013
KWRI 262055Z AUTO 06003KT 10SM OVC026 19/14 A3009
KWRI 262057Z AUTO 05004KT 10SM -RA OVC026 19/14 A3009 RMK AO2 RAB2057 SLP192
KNEL 262100Z AUTO 09006KT 10SM FEW023 OVC032 19/14 A3012 RMK AO2 SLP196 T01890144 56021 $
KTTN 262102Z 09003KT 10SM OVC030 19/14 A3011 RMK AO2
KWRI 262104Z AUTO 06004KT 10SM OVC027 19/14 A3009 RMK AO2 RAB2057E2104 SLP192
KVAY 262108Z AUTO 00000KT 10SM OVC031 19/14 A3010 RMK AO2 TSNO
KWWD 262115Z AUTO 08007KT 10SM CLR 19/14 A3009 RMK AO1
KBLM 262115Z AUTO 07003KT 10SM OVC031 17/14 A3013 RMK AO1
KTTN 262134Z 06004KT 10SM OVC028 18/14 A3011 RMK AO2
KWWD 262135Z AUTO 07006KT 10SM CLR 18/14 A3009 RMK AO1
KBLM 262135Z AUTO 06003KT 10SM OVC031 17/14 A3013 RMK AO1
KMMU 262145Z 00000KT 7SM OVC025 17/13 A3013
KTEB 262151Z 04004KT 10SM OVC027 18/13 A3012 RMK AO2 SLP198 T01830128
KEWR 262151Z 12003KT 10SM OVC029 18/13 A3013 RMK AO2 SLP201 T01830133
KCDW 262153Z AUTO 00000KT 10SM OVC027 17/13 A3013 RMK AO2 SLP209 T01720128 TSNO
KFWN 262153Z AUTO 00000KT 8SM OVC024 16/12 A3013 RMK AO2 SLP202 T01610122
KSMQ 262153Z AUTO 00000KT 10SM OVC030 17/14 A3011 RMK AO2 SLP195 T01720139 TSNO
KTTN 262153Z 04005KT 10SM OVC028 18/13 A3011 RMK AO2 SLP188 T01830133
KACY 262154Z 08005KT 10SM CLR 17/14 A3011 RMK AO2 SLP196 T01670139
K12N 262154Z AUTO 00000KT 16/14 A3013 RMK AO2 SLP202 T01610139 PWINO TSNO
KVAY 262154Z AUTO VRB03KT 10SM OVC031 19/14 A3010 RMK AO2 SLP193 T01890144 TSNO
KMIV 262154Z AUTO 09006KT 10SM CLR 18/13 A3010 RMK AO2 SLP190 T01780128
KBLM 262155Z AUTO 07004KT 10SM OVC031 17/14 A3013 RMK AO1
KWWD 262155Z AUTO 07007KT 10SM CLR 18/14 A3009 RMK AO1
KWRI 262155Z AUTO 08003KT 10SM -RA OVC028 18/15 A3009 RMK AO2 RAB2057E2104B2155 CIG 025V030 SLP191 P0000 T01800145
KNEL 262200Z AUTO 08004KT 10SM OVC034 18/14 A3012 RMK AO2 SLP196 T01780144 $
KWRI 262206Z AUTO 08006KT 10SM OVC029 18/15 A3010 RMK AO2 RAE2204DZB2204E2206 SLP193
KWWD 262215Z AUTO 06005KT 10SM CLR 18/14 A3010 RMK AO1
KBLM 262215Z AUTO 00000KT 10SM OVC031 17/14 A3013 RMK AO1
KVAY 262216Z AUTO 08004KT 10SM BKN027 OVC033 18/14 A3011 RMK AO2 TSNO
KTEB 262226Z 00000KT 10SM OVC031 18/12 A3012 RMK AO2
KBLM 262235Z AUTO 05003KT 10SM OVC031 17/14 A3013 RMK AO1
KWWD 262235Z AUTO 06004KT 10SM CLR 17/14 A3011 RMK AO1
KWRI 262238Z AUTO 08005KT 10SM OVC030 18/14 A3010 RMK AO2 RAE2204DZB2204E2206 SLP194
KMMU 262245Z 00000KT 7SM OVC028 16/13 A3014
KTEB 262251Z 00000KT 10SM OVC031 18/12 A3012 RMK AO2 SLP200 T01830122
KEWR 262251Z 13004KT 10SM OVC029 18/13 A3013 RMK AO2 SLP202 T01830133
KTTN 262253Z 04004KT 10SM OVC026 18/13 A3012 RMK AO2 SLP193 T01780133
KSMQ 262253Z AUTO 00000KT 10SM OVC030 17/14 A3012 RMK AO2 SLP198 T01720139 TSNO
KCDW 262253Z AUTO 12003KT 10SM OVC027 17/13 A3014 RMK AO2 SLP210 T01720128 TSNO
KFWN 262253Z AUTO 00000KT 8SM OVC024 16/13 A3014 RMK AO2 SLP204 T01560128
KACY 262254Z 08003KT 10SM CLR 15/13 A3012 RMK AO2 SLP199 T01500133
K12N 262254Z AUTO 00000KT 16/13 A3014 RMK AO2 SLP205 T01560133 PWINO TSNO
KVAY 262254Z AUTO 00000KT 10SM OVC029 18/14 A3012 RMK AO2 SLP197 T01830139 TSNO
KMIV 262254Z AUTO 11003KT 10SM CLR 16/13 A3011 RMK AO2 SLP195 T01610128
KWWD 262255Z AUTO 06005KT 10SM CLR 17/14 A3011 RMK AO1
KBLM 262255Z AUTO 03003KT 10SM OVC031 17/14 A3014 RMK AO1
KWRI 262255Z AUTO 09005KT 10SM OVC030 18/14 A3010 RMK AO2 RAE2204DZB2204E2206 SLP195 P0000 T01760144
KNEL 262300Z AUTO 10003KT 10SM OVC032 17/14 A3013 RMK AO2 SLP199 T01720144 $
KVAY 262301Z AUTO 00000KT 10SM OVC031 18/14 A3012 RMK AO2 TSNO
KWWD 262315Z AUTO 04005KT 10SM CLR 17/14 A3011 RMK AO1
KBLM 262315Z AUTO 06003KT 10SM OVC031 17/14 A3014 RMK AO1
KTEB 262330Z 00000KT 10SM OVC029 18/13 A3013 RMK AO2
KTTN 262333Z 07004KT 10SM OVC030 17/14 A3012 RMK AO2
KBLM 262335Z AUTO 03003KT 10SM OVC031 17/14 A3014 RMK AO1
KWWD 262335Z AUTO 05005KT 10SM CLR 17/14 A3012 RMK AO1
KMMU 262345Z 00000KT 7SM OVC026 16/14 A3014
KTEB 262351Z 00000KT 10SM OVC029 18/13 A3013 RMK AO2 SLP201 T01830128 10211 20183 53002
KEWR 262351Z 14003KT 10SM OVC029 18/13 A3014 RMK AO2 SLP204 T01780133 10194 20178 53002
KSMQ 262353Z AUTO 00000KT 10SM OVC030 17/14 A3012 RMK AO2 SLP200 T01670139 10189 20161 53003 TSNO
KTTN 262353Z 09003KT 10SM OVC030 17/14 A3012 RMK AO2 SLP194 T01720139 10189 20172 53002
KCDW 262353Z AUTO 00000KT 10SM OVC027 17/13 A3014 RMK AO2 SLP212 T01720128 10183 20167 53001 TSNO
KFWN 262353Z AUTO 00000KT 7SM OVC024 15/13 A3014 RMK AO2 SLP205 T01500128 10167 20150 53002
K12N 262354Z AUTO 00000KT 15/13 A3014 RMK AO2 SLP206 T01500133 10172 20150 53002 PWINO TSNO
KACY 262354Z 00000KT 10SM CLR 14/13 A3013 RMK AO2 SLP201 T01440133 10206 20144 53005
KMIV 262354Z AUTO 09003KT 10SM CLR 15/13 A3012 RMK AO2 SLP196 T01500128 10222 20144 53006
KVAY 262354Z AUTO 00000KT 10SM OVC033 18/14 A3012 RMK AO2 SLP199 T01780144 10200 20178 53005 TSNO
KWRI 262355Z AUTO 10005KT 10SM OVC030 17/14 A3011 RMK AO2 SLP197 60000 T01710143 10197 20171 53005
KWWD 262355Z AUTO 05005KT 10SM CLR 17/14 A3012 RMK AO1 10210 20170 402200140 52007
KBLM 262355Z AUTO 03003KT 10SM OVC029 17/14 A3014 RMK AO1 10190 20170 401900130 52003
KNEL 270000Z AUTO 00000KT 10SM OVC030 17/14 A3013 RMK AO2 SLP199 T01720144 10200 20172 53001 $
KBLM 270015Z AUTO 00000KT 10SM OVC029 17/14 A3014 RMK AO1
KWWD 270015Z AUTO 06004KT 10SM CLR 17/14 A3012 RMK AO1
KWWD 270035Z AUTO 06004KT 10SM CLR 17/14 A3011 RMK AO1
KBLM 270035Z AUTO 06003KT 10SM OVC029 17/14 A3014 RMK AO1
KMMU 270045Z 00000KT 7SM OVC025 16/13 A3014
KTEB 270051Z 00000KT 10SM OVC029 18/13 A3012 RMK AO2 SLP200 T01780128
KEWR 270051Z 00000KT 10SM OVC029 18/13 A3013 RMK AO2 SLP203 T01780133
KTTN 270053Z 11004KT 10SM OVC030 17/14 A3012 RMK AO2 SLP193 T01720139
KSMQ 270053Z AUTO 00000KT 10SM OVC030 17/14 A3012 RMK AO2 SLP198 T01670139 TSNO
KFWN 270053Z AUTO 00000KT 7SM OVC024 15/13 A3014 RMK AO2 SLP205 T01500128
KCDW 270053Z 00000KT 10SM OVC027 17/13 A3014 RMK AO2 SLP211 T01670128
KMIV 270054Z AUTO 00000KT 10SM CLR 15/13 A3012 RMK AO2 SLP198 T01500128
KVAY 270054Z AUTO 00000KT 10SM OVC033 17/14 A3012 RMK AO2 SLP200 T01720144 TSNO
KACY 270054Z 00000KT 5SM BR CLR 13/12 A3013 RMK AO2 SLP201 T01330122
K12N 270054Z AUTO 00000KT 15/13 A3014 RMK AO2 SLP206 T01500133 PWINO TSNO
KWRI 270055Z AUTO 10005KT 10SM OVC030 17/14 A3011 RMK AO2 SLP197 T01680143
KBLM 270055Z AUTO 00000KT 10SM OVC029 17/14 A3014 RMK AO1
KWWD 270055Z AUTO 07004KT 10SM CLR 17/14 A3011 RMK AO1
KNEL 270100Z AUTO 00000KT 10SM OVC030 17/15 A3013 RMK AO2 SLP201 T01670150 $
KACY 270101Z 00000KT 3/4SM BR CLR 13/12 A3013 RMK AO2
KACY 270109Z 00000KT 3SM BR CLR 13/12 A3013 RMK AO2
KBLM 270115Z AUTO 07003KT 10SM OVC031 17/14 A3014 RMK AO1
KWWD 270115Z AUTO 06003KT 10SM CLR 17/14 A3011 RMK AO1
KBLM 270135Z AUTO 08003KT 10SM OVC031 17/14 A3014 RMK AO1
KWWD 270135Z AUTO 06004KT 10SM CLR 17/14 A3011 RMK AO1
KEWR 270151Z 14003KT 10SM OVC029 18/14 A3013 RMK AO2 SLP203 T01780139
KTEB 270151Z 00000KT 10SM OVC027 18/13 A3012 RMK AO2 SLP200 T01780128
KCDW 270153Z 00000KT 10SM OVC027 17/13 A3014 RMK AO2 SLP211 T01670128
KSMQ 270153Z AUTO 00000KT 10SM OVC030 17/14 A3012 RMK AO2 SLP200 T01670139 TSNO
KFWN 270153Z AUTO 00000KT 6SM BR OVC024 15/13 A3014 RMK AO2 SLP206 T01500133
KTTN 270153Z AUTO 12003KT 10SM OVC030 17/14 A3012 RMK AO2 SLP194 T01670139
KMIV 270154Z AUTO 00000KT 10SM CLR 13/12 A3011 RMK AO2 SLP196 T01330122
KVAY 270154Z AUTO 11004KT 10SM OVC033 17/14 A3012 RMK AO2 SLP199 T01720139 TSNO
KACY 270154Z 00000KT 10SM CLR 13/12 A3012 RMK AO2 SLP199 T01330122
K12N 270154Z AUTO 00000KT 15/13 A3014 RMK AO2 SLP205 T01500133 PWINO TSNO
KWRI 270155Z AUTO 09003KT 10SM OVC030 17/14 A3011 RMK AO2 SLP197 T01650144
KWWD 270155Z AUTO 05005KT 10SM CLR 17/14 A3011 RMK AO1
KBLM 270155Z AUTO 07003KT 10SM OVC033 17/14 A3014 RMK AO1
KNEL 270200Z AUTO 00000KT 10SM OVC030 17/15 A3013 RMK AO2 SLP199 T01670150 $
KWWD 270215Z AUTO 06005KT 10SM CLR 17/14 A3010 RMK AO1
KBLM 270215Z AUTO 08003KT 10SM OVC033 16/14 A3014 RMK AO1
KBLM 270235Z AUTO 05003KT 10SM OVC033 16/14 A3013 RMK AO1
KWWD 270235Z AUTO 05004KT 10SM CLR 16/13 A3010 RMK AO1
KEWR 270251Z 00000KT 10SM OVC029 18/13 A3012 RMK AO2 SLP200 T01780133 58004
KTEB 270251Z 00000KT 10SM OVC027 17/13 A3012 RMK AO2 SLP199 T01720128 58002
KCDW 270253Z 00000KT 10SM OVC027 16/13 A3013 RMK AO2 SLP209 T01610133 58003
KTTN 270253Z AUTO 09003KT 10SM OVC030 17/14 A3011 RMK AO2 SLP189 T01670139 58004
KFWN 270253Z AUTO 00000KT 6SM BR OVC026 14/13 A3014 RMK AO2 SLP204 T01440133 58001
KSMQ 270253Z AUTO 00000KT 10SM OVC030 16/14 A3011 RMK AO2 SLP195 T01610139 58005 TSNO
KACY 270254Z 00000KT 10SM CLR 13/12 A3011 RMK AO2 SLP195 T01330122 58006
K12N 270254Z AUTO 00000KT 15/13 A3013 RMK AO2 SLP203 T01500133 58002 PWINO TSNO
KVAY 270254Z AUTO 11004KT 10SM OVC033 17/14 A3011 RMK AO2 SLP195 T01670139 58004 TSNO
KMIV 270254Z AUTO 00000KT 10SM CLR 13/12 A3010 RMK AO2 SLP191 T01280117 58006
KBLM 270255Z AUTO 07003KT 10SM OVC033 16/14 A3013 RMK AO1 57003
KMMU 270255Z AUTO 00000KT 10SM OVC026 15/14 A3013 RMK AO2
KWWD 270255Z AUTO 05004KT 10SM CLR 16/13 A3009 RMK AO1 57010
KWRI 270255Z AUTO 00000KT 10SM OVC030 16/14 A3009 RMK AO2 SLP192 T01630143 58005
KBLM 270315Z AUTO 00000KT 10SM OVC033 16/14 A3013 RMK AO1
KMMU 270315Z AUTO 00000KT 10SM OVC026 15/14 A3012 RMK AO2
KWRI 270315Z AUTO 09003KT 10SM OVC029 16/14 A3009 RMK AO2 SLP192
KWWD 270315Z AUTO 05004KT 10SM CLR 16/13 A3009 RMK AO1
KACY 270330Z 00000KT 1 1/2SM BR CLR 13/12 A3010 RMK AO2
KWRI 270332Z AUTO 09004KT 10SM OVC030 16/14 A3009 RMK AO2 SLP190
KBLM 270335Z AUTO 00000KT 10SM OVC033 16/14 A3012 RMK AO1
KMMU 270335Z AUTO 00000KT 10SM OVC026 15/14 A3012 RMK AO2
KWWD 270335Z AUTO 05005KT 10SM CLR 16/13 A3009 RMK AO1
KWRI 270337Z AUTO 07005KT 10SM OVC029 16/14 A3008 RMK AO2 SLP188
KACY 270338Z 00000KT 1SM BR CLR 13/12 A3010 RMK AO2
KACY 270338Z 00000KT 1SM BR CLR 13/12 A3010 RMK AO2
KACY 270342Z 00000KT 2SM BR CLR 13/12 A3010 RMK AO2
KWRI 270348Z AUTO 07005KT 10SM OVC030 16/14 A3008 RMK AO2 SLP186
KACY 270350Z 00000KT 4SM BR CLR 13/12 A3010 RMK AO2
KACY 270350Z 00000KT 4SM BR CLR 13/12 A3010 RMK AO2
KACY 270350Z 00000KT 4SM BR CLR 13/12 A3010 RMK AO2
KEWR 270351Z 00000KT 10SM OVC028 18/13 A3011 RMK AO2 SLP196 T01780133
KTEB 270351Z 00000KT 10SM OVC027 17/13 A3011 RMK AO2 SLP194 T01720133
KCDW 270353Z 00000KT 9SM OVC027 16/13 A3012 RMK AO2 SLP204 T01610128
KSMQ 270353Z AUTO 00000KT 10SM OVC032 16/14 A3009 RMK AO2 SLP190 T01610139 TSNO
KTTN 270353Z AUTO 10003KT 10SM OVC030 17/14 A3010 RMK AO2 SLP184 T01670139
KFWN 270353Z AUTO 00000KT 6SM BR OVC026 14/13 A3011 RMK AO2 SLP197 T01440128
KACY 270354Z 00000KT 5SM BR CLR 13/12 A3010 RMK AO2 SLP191 T01280117
KVAY 270354Z AUTO 00000KT 10SM OVC031 17/14 A3009 RMK AO2 SLP188 T01670139 TSNO
KMIV 270354Z AUTO 10003KT 10SM CLR 13/13 A3008 RMK AO2 SLP185 T01330128
K12N 270354Z AUTO 00000KT 15/13 A3012 RMK AO2 SLP197 T01500128 PWINO TSNO
KBLM 270355Z AUTO 07005KT 10SM OVC033 16/14 A3011 RMK AO1
KWRI 270355Z AUTO 07005KT 10SM OVC030 16/14 A3008 RMK AO2 SLP186 T01620144
KWWD 270355Z AUTO 03004KT 10SM CLR 15/13 A3008 RMK AO1
KMMU 270355Z AUTO 00000KT 10SM OVC026 15/14 A3011 RMK AO2
KNEL 270400Z AUTO 00000KT 10SM OVC032 16/14 A3009 RMK AO2 SLP189 T01610144 $
KBLM 270415Z AUTO 07005KT 10SM OVC033 16/14 A3011 RMK AO1
KMMU 270415Z AUTO 00000KT 10SM OVC026 15/14 A3011 RMK AO2
KWWD 270415Z AUTO 03003KT 10SM CLR 15/13 A3007 RMK AO1
KMMU 270435Z AUTO 00000KT 10SM OVC026 15/14 A3011 RMK AO2
KBLM 270435Z AUTO 07005KT 10SM OVC033 16/14 A3011 RMK AO1
KWWD 270435Z AUTO 03004KT 10SM CLR 15/13 A3007 RMK AO1
KEWR 270451Z 12004KT 10SM OVC028 17/13 A3011 RMK AO2 SLP194 T01720133 401940150
KTEB 270451Z 00000KT 10SM OVC027 17/13 A3010 RMK AO2 SLP192 T01720133 402110144
KCDW 270453Z 00000KT 10SM OVC027 16/13 A3011 RMK AO2 SLP202 T01610128 401830139
KSMQ 270453Z AUTO 00000KT 10SM OVC032 16/14 A3008 RMK AO2 SLP187 T01610139 401890139 TSNO
KTTN 270453Z AUTO 08003KT 10SM OVC030 16/14 A3009 RMK AO2 SLP181 T01610139 401890150
KFWN 270453Z AUTO 00000KT 6SM BR OVC026 14/13 A3011 RMK AO2 SLP194 T01440128 401670128
KACY 270454Z AUTO 06003KT 10SM CLR 13/12 A3008 RMK AO2 SLP184 T01280117 402220122 TSNO
KVAY 270454Z AUTO 00000KT 10SM OVC031 16/14 A3008 RMK AO2 SLP186 T01560139 402000144 TSNO
KMIV 270454Z AUTO 00000KT 10SM CLR 13/13 A3007 RMK AO2 SLP180 T01330128 402280117
K12N 270454Z AUTO 00000KT 16/13 A3010 RMK AO2 SLP191 T01610128 401720133 PWINO TSNO
KMMU 270455Z AUTO 00000KT 10SM OVC026 15/14 A3010 RMK AO2
KWRI 270455Z AUTO 06006KT 10SM OVC031 16/14 A3007 RMK AO2 SLP183 T01600143 401970144
KBLM 270455Z AUTO 06004KT 10SM OVC033 16/14 A3010 RMK AO1
KWWD 270455Z AUTO 02004KT 10SM CLR 14/12 A3006 RMK AO1
KNEL 270500Z AUTO 05003KT 10SM OVC032 16/14 A3009 RMK AO2 SLP186 T01610144 401610161 $
KBLM 270515Z AUTO 06004KT 10SM OVC033 16/13 A3010 RMK AO1
KMMU 270515Z AUTO 00000KT 10SM OVC026 15/14 A3010 RMK AO2
KWWD 270515Z AUTO 04004KT 10SM CLR 14/12 A3005 RMK AO1
KWWD 270535Z AUTO 05004KT 10SM CLR 14/13 A3005 RMK AO1
KMMU 270535Z AUTO 00000KT 10SM OVC026 15/14 A3009 RMK AO2
KBLM 270535Z AUTO 05003KT 10SM OVC033 16/13 A3009 RMK AO1
KTEB 270551Z 00000KT 10SM OVC025 17/13 A3008 RMK AO2 SLP185 T01670133 10183 20167 58014
KEWR 270551Z 07005KT 10SM OVC027 17/13 A3008 RMK AO2 SLP186 T01720133 10178 20172 58014
KSMQ 270553Z AUTO 00000KT 10SM OVC032 16/14 A3006 RMK AO2 SLP179 T01610139 10172 20156 58015 TSNO
KFWN 270553Z AUTO 08004KT 5SM BR OVC026 14/13 A3008 RMK AO2 SLP187 T01440128 10156 20144 58017
KTTN 270553Z AUTO 11004KT 10SM OVC028 16/14 A3006 RMK AO2 SLP174 T01610139 10172 20161 58015
KCDW 270553Z 00000KT 10SM OVC027 16/13 A3009 RMK AO2 SLP193 T01610128 10172 20156 58015
KVAY 270554Z AUTO 00000KT 10SM OVC033 16/13 A3006 RMK AO2 SLP179 T01560133 10178 20150 58016 TSNO
KACY 270554Z 05003KT 10SM CLR 13/12 A3006 RMK AO2 SLP178 T01280117 10144 20128 58013
K12N 270554Z AUTO 00000KT 15/13 A3009 RMK AO2 SLP185 T01500133 10161 20150 57016 PWINO TSNO
KMIV 270554Z AUTO 06006KT 10SM CLR 14/13 A3005 RMK AO2 SLP173 T01390128 10150 20122 58017
KWWD 270555Z AUTO 04004KT 10SM CLR 14/13 A3004 RMK AO1 10170 20140 57017
KWRI 270555Z AUTO 05005KT 10SM OVC032 16/14 A3005 RMK AO2 SLP175 T01550140 10173 20154 58016
KBLM 270555Z AUTO 07004KT 10SM OVC033 16/13 A3008 RMK AO1 10170 20160 57017
KMMU 270555Z AUTO 00000KT 10SM OVC026 15/14 A3008 RMK AO2
KNEL 270600Z AUTO 06004KT 10SM OVC034 16/14 A3006 RMK AO2 SLP178 T01610144 10172 20161 56014 $
KBLM 270615Z AUTO 05003KT 10SM OVC033 16/13 A3007 RMK AO1
KWWD 270615Z AUTO 04005KT 10SM CLR 15/13 A3004 RMK AO1
KMMU 270615Z AUTO 00000KT 10SM OVC026 15/14 A3008 RMK AO2
KFWN 270621Z AUTO 00000KT 5SM BR OVC035 14/13 A3008 RMK AO2
KTTN 270629Z AUTO 11004KT 10SM OVC030 16/14 A3006 RMK AO2
KWWD 270635Z AUTO 05005KT 10SM CLR 15/13 A3003 RMK AO1
KMMU 270635Z AUTO 00000KT 10SM OVC026 15/14 A3007 RMK AO2
KBLM 270635Z AUTO 06003KT 10SM OVC033 16/13 A3007 RMK AO1
KTEB 270651Z 00000KT 10SM OVC027 17/13 A3006 RMK AO2 DZB0556E27 SLP178 P0000 T01670133
KEWR 270651Z 08004KT 10SM OVC027 17/12 A3007 RMK AO2 SLP180 T01720117
KTTN 270653Z AUTO 11005KT 10SM OVC030 16/14 A3005 RMK AO2 SLP171 T01610139
KCDW 270653Z 00000KT 10SM OVC025 16/13 A3007 RMK AO2 SLP187 T01610128
KFWN 270653Z AUTO 00000KT 6SM BR OVC035 14/13 A3007 RMK AO2 SLP182 T01440128
KSMQ 270653Z AUTO 00000KT 10SM OVC030 16/14 A3005 RMK AO2 SLP175 T01560139 TSNO
KACY 270654Z 03004KT 10SM CLR 12/11 A3004 RMK AO2 SLP172 T01220111
KVAY 270654Z AUTO 00000KT 10SM BKN035 15/13 A3005 RMK AO2 SLP174 T01500133 TSNO
KMIV 270654Z AUTO 05005KT 10SM CLR 14/13 A3003 RMK AO2 SLP167 T01390128
K12N 270654Z AUTO 00000KT 14/13 A3007 RMK AO2 SLP182 T01440133 PWINO TSNO
KMMU 270655Z AUTO 00000KT 10SM OVC026 15/14 A3007 RMK AO2
KBLM 270655Z AUTO 05003KT 10SM OVC033 16/13 A3007 RMK AO1
KWRI 270655Z AUTO 05005KT 10SM OVC032 16/14 A3003 RMK AO2 SLP170 T01560138
KWWD 270655Z AUTO 05005KT 10SM CLR 15/12 A3002 RMK AO1
KNEL 270700Z AUTO 06004KT 10SM OVC034 16/13 A3005 RMK AO2 SLP173 T01610133 $
KWWD 270715Z AUTO 06005KT 10SM CLR 16/13 A3002 RMK AO1
KBLM 270715Z AUTO 05005KT 10SM OVC033 16/13 A3006 RMK AO1
KMMU 270715Z AUTO 00000KT 10SM OVC026 15/14 A3006 RMK AO2
KWWD 270735Z AUTO 06007KT 10SM CLR 16/13 A3001 RMK AO1
KBLM 270735Z AUTO 05004KT 10SM OVC033 16/13 A3004 RMK AO1
KMMU 270735Z AUTO 00000KT 10SM OVC026 15/14 A3005 RMK AO2
KEWR 270751Z 00000KT 10SM FEW018 OVC028 17/10 A3004 RMK AO2 SLP173 T01720100
KTEB 270751Z 00000KT 10SM OVC027 17/13 A3004 RMK AO2 SLP171 T01670133
KCDW 270753Z 00000KT 9SM OVC025 16/13 A3005 RMK AO2 SLP180 T01560128
KFWN 270753Z AUTO 00000KT 5SM BR FEW030 OVC038 14/13 A3005 RMK AO2 SLP175 T01440128
KSMQ 270753Z AUTO 00000KT 10SM OVC028 16/14 A3002 RMK AO2 SLP166 T01560139 TSNO
KTTN 270753Z AUTO 09004KT 10SM OVC030 16/13 A3003 RMK AO2 SLP161 T01560133
KMIV 270754Z AUTO 05005KT 10SM CLR 13/13 A3001 RMK AO2 SLP161 T01330128
KACY 270754Z 00000KT 10SM CLR 12/11 A3002 RMK AO2 SLP165 T01220111
K12N 270754Z AUTO 00000KT 14/13 A3005 RMK AO2 SLP175 T01440128 PWINO TSNO $
KVAY 270754Z AUTO 00000KT 10SM OVC035 14/13 A3003 RMK AO2 SLP167 T01440133 TSNO
KMMU 270755Z AUTO 00000KT 10SM OVC026 15/14 A3005 RMK AO2
KBLM 270755Z AUTO 05004KT 10SM OVC033 16/13 A3004 RMK AO1
KWRI 270755Z AUTO 06005KT 10SM OVC033 15/13 A3001 RMK AO2 SLP163 T01550132
KWWD 270755Z AUTO 06007KT 10SM CLR 16/12 A3000 RMK AO1
KNEL 270800Z AUTO 06003KT 10SM OVC034 16/13 A3003 RMK AO2 SLP166 T01610133 $
KBLM 270815Z AUTO 05003KT 10SM OVC031 16/12 A3004 RMK AO1
KWWD 270815Z AUTO 07008KT 10SM CLR 16/12 A3000 RMK AO1
KMMU 270815Z AUTO 00000KT 10SM OVC024 14/14 A3004 RMK AO2
KWWD 270835Z AUTO 07009KT 10SM CLR 16/12 A2999 RMK AO1
KBLM 270835Z AUTO 04003KT 10SM OVC031 16/12 A3003 RMK AO1
KMMU 270835Z AUTO 00000KT 10SM OVC024 15/14 A3004 RMK AO2
KEWR 270851Z 00000KT 10SM OVC029 17/10 A3003 RMK AO2 SLP169 T01670100 56018
KTEB 270851Z 01003KT 10SM OVC025 16/14 A3003 RMK AO2 SLP168 60000 T01610139 56017
KTTN 270851Z AUTO 07004KT 10SM OVC028 16/12 A3002 RMK AO2
KTTN 270853Z AUTO 07005KT 10SM OVC028 16/12 A3002 RMK AO2 SLP158 T01560122 56013
KSMQ 270853Z AUTO 00000KT 10SM OVC028 16/13 A3001 RMK AO2 SLP162 T01560133 58016 TSNO
KFWN 270853Z AUTO 00000KT 4SM BR BKN027 OVC040 14/13 A3004 RMK AO2 SLP171 T01390128 56015
KCDW 270853Z 00000KT 9SM OVC025 16/13 A3004 RMK AO2 SLP177 T01560128 56016
KACY 270854Z 03003KT 10SM CLR 12/11 A3001 RMK AO2 SLP160 T01170111 56018
KVAY 270854Z AUTO 00000KT 10SM OVC035 16/13 A3002 RMK AO2 SLP163 T01560128 56016 TSNO
K12N 270854Z AUTO 00000KT 14/13 A3004 RMK AO2 SLP171 T01440128 57015 PWINO TSNO
KMIV 270854Z AUTO 05005KT 10SM CLR 13/12 A3000 RMK AO2 SLP156 T01330122 56017
KWRI 270855Z AUTO 06005KT 10SM OVC032 15/13 A3000 RMK AO2 SLP159 T01540128 56016
KMMU 270855Z AUTO 00000KT 10SM OVC024 14/14 A3004 RMK AO2
KWWD 270855Z AUTO 06008KT 10SM CLR 16/12 A2999 RMK AO1 57017
KBLM 270855Z AUTO 05003KT 10SM OVC029 16/12 A3003 RMK AO1 57017
KNEL 270900Z AUTO 07003KT 10SM OVC032 16/13 A3001 RMK AO2 SLP161 T01560128 56019 $
KBLM 270915Z AUTO 06004KT 10SM OVC029 16/12 A3003 RMK AO1
KWWD 270915Z AUTO 06009KT 10SM CLR 16/12 A2998 RMK AO1
KMMU 270915Z AUTO 00000KT 10SM OVC024 15/14 A3003 RMK AO2
KFWN 270918Z AUTO 00000KT 4SM BR SCT027 BKN032 OVC041 14/13 A3003 RMK AO2
KMMU 270935Z AUTO 00000KT 10SM OVC024 14/14 A3003 RMK AO2
KBLM 270935Z AUTO 05004KT 10SM OVC029 16/12 A3003 RMK AO1
KWWD 270935Z AUTO 06007KT 10SM CLR 16/12 A2998 RMK AO1
KTEB 270951Z 00000KT 10SM OVC025 16/14 A3003 RMK AO2 SLP167 T01610139
KEWR 270951Z 02004KT 10SM OVC028 16/13 A3003 RMK AO2 SLP169 T01610133
KTTN 270953Z AUTO 07004KT 10SM OVC026 16/12 A3002 RMK AO2 SLP157 T01560117
KSMQ 270953Z AUTO 08003KT 10SM OVC028 16/13 A3001 RMK AO2 SLP163 T01610133 TSNO
KFWN 270953Z AUTO 00000KT 3SM BR OVC041 13/12 A3003 RMK AO2 SLP169 T01330122
KCDW 270953Z AUTO 00000KT 9SM OVC023 16/13 A3004 RMK AO2 SLP177 T01560133 TSNO
K12N 270954Z AUTO 00000KT 14/13 A3004 RMK AO2 SLP170 T01390128 PWINO TSNO
KACY 270954Z 02004KT 10SM CLR 12/11 A3001 RMK AO2 SLP161 T01170106
KMIV 270954Z AUTO 05005KT 10SM CLR 13/12 A2999 RMK AO2 SLP156 T01330117
KVAY 270954Z AUTO 05003KT 10SM OVC033 16/12 A3001 RMK AO2 SLP162 T01560122 TSNO
KWRI 270955Z AUTO 05004KT 10SM OVC030 15/13 A3000 RMK AO2 SLP159 T01520127
KWWD 270955Z AUTO 06007KT 10SM CLR 16/12 A2998 RMK AO1
KBLM 270955Z AUTO 05003KT 10SM OVC029 16/12 A3003 RMK AO1
KMMU 270955Z AUTO 00000KT 7SM OVC024 14/14 A3004 RMK AO2
KNEL 271000Z AUTO 06003KT 10SM OVC030 16/12 A3001 RMK AO2 SLP161 T01560122 $
KSMQ 271009Z AUTO 08003KT 10SM OVC030 16/13 A3001 RMK AO2 TSNO
KMMU 271015Z AUTO 00000KT 7SM OVC024 14/14 A3003 RMK AO2
KWWD 271015Z AUTO 06007KT 10SM CLR 16/12 A2999 RMK AO1
KBLM 271015Z AUTO 05004KT 10SM OVC029 16/12 A3003 RMK AO1
KFWN 271017Z AUTO 00000KT 4SM BR BKN026 OVC041 13/12 A3004 RMK AO2
KBLM 271035Z AUTO 07004KT 10SM OVC029 16/13 A3003 RMK AO1
KWWD 271035Z AUTO 06008KT 10SM CLR 16/12 A2999 RMK AO1
KMMU 271035Z AUTO 00000KT 7SM OVC024 14/14 A3003 RMK AO2
KTEB 271051Z 00000KT 10SM OVC025 16/14 A3003 RMK AO2 DZB08E46 SLP169 P0000 T01610139
KEWR 271051Z 01004KT 10SM OVC023 16/14 A3004 RMK AO2 SLP170 T01610139
KFWN 271053Z AUTO 00000KT 4SM BR OVC026 13/12 A3004 RMK AO2 SLP170 T01330122
KCDW 271053Z AUTO 00000KT 5SM BR BKN020 OVC026 16/13 A3004 RMK AO2 SLP178 T01560133 TSNO
KSMQ 271053Z AUTO 00000KT 10SM OVC034 16/13 A3002 RMK AO2 SLP163 T01610133 TSNO
KTTN 271053Z 07003KT 10SM OVC026 16/12 A3002 RMK AO2 SLP160 T01560117
K12N 271054Z AUTO 00000KT 14/13 A3003 RMK AO2 SLP169 T01440128 PWINO TSNO
KWRI 271054Z AUTO 06004KT 10SM OVC029 15/12 A3000 RMK AO2 SLP161
KACY 271054Z 02004KT 10SM CLR 11/10 A3001 RMK AO2 SLP162 T01110100
KWRI 271054Z AUTO 06004KT 10SM OVC029 15/12 A3000
KVAY 271054Z AUTO 00000KT 10SM OVC031 16/12 A3002 RMK AO2 SLP164 T01560122 TSNO
KMIV 271054Z AUTO 05007KT 10SM CLR 13/12 A3000 RMK AO2 SLP156 P0001 T01280117
KWRI 271054Z AUTO 06004KT 10SM OVC029 15/12 A3000 RMK AO2 SLP161
KWRI 271054Z AUTO 06004KT 10SM OVC029 15/12 A3000 RMK AO2 SLP161
KWWD 271055Z AUTO 07010KT 10SM CLR 17/13 A2998 RMK AO1
KWRI 271055Z AUTO 06004KT 10SM OVC029 15/12 A3000 RMK AO2 SLP161 T01530121
KBLM 271055Z AUTO 06005KT 10SM OVC031 16/13 A3003 RMK AO1
KNEL 271100Z AUTO 07003KT 10SM OVC032 16/12 A3002 RMK AO2 SLP163 T01560122 $
KWRI 271110Z AUTO 05004KT 10SM OVC030 15/12 A3000 RMK AO2 SLP160
KBLM 271115Z AUTO 05004KT 10SM FEW025 SCT030 OVC035 16/13 A3003 RMK AO1
KWWD 271115Z AUTO 07011KT 10SM CLR 16/12 A2999 RMK AO1
KWRI 271117Z AUTO 05005KT 10SM OVC029 15/12 A3000 RMK AO2 CIG 028V030 OVC V BKN SLP160
KWRI 271130Z AUTO 04005KT 10SM OVC032 15/12 A3000 RMK AO2 SLP159
KWWD 271135Z AUTO 06012KT 10SM CLR 16/12 A2998 RMK AO1
KBLM 271135Z AUTO 07005KT 10SM OVC035 16/13 A3003 RMK AO1
KMMU 271145Z 04003KT 5SM BR SCT023 OVC027 15/13 A3005
KEWR 271151Z 07004KT 10SM SCT018 BKN024 OVC032 17/14 A3004 RMK AO2 SLP171 T01670139 10172 20161 53002
KTEB 271151Z 02003KT 8SM OVC027 17/13 A3003 RMK AO2 SLP170 60000 T01670133 10172 20161 53002
KTTN 271153Z 08006KT 10SM OVC028 16/12 A3002 RMK AO2 SLP158 T01560117 10161 20150 50000
KCDW 271153Z AUTO 08003KT 5SM BR OVC025 15/13 A3005 RMK AO2 SLP181 T01500133 10161 20150 53004 TSNO
KSMQ 271153Z AUTO 05005G25KT 9SM OVC034 16/14 A3002 RMK AO2 SLP164 T01610139 10161 20156 53002 TSNO
KFWN 271153Z AUTO 00000KT 4SM BR BKN026 OVC033 13/12 A3004 RMK AO2 SLP172 70001 T01330122 10144 20133 53000
K12N 271154Z AUTO 00000KT 14/13 A3004 RMK AO2 SLP170 T01440128 10150 20139 55001 PWINO TSNO
KMIV 271154Z AUTO 06005KT 10SM CLR 13/12 A2999 RMK AO2 SLP155 60001 70001 T01330117 10139 20128 57001
KVAY 271154Z AUTO 06003KT 10SM OVC035 16/12 A3001 RMK AO2 SLP162 T01560117 10156 20144 58001 TSNO
KACY 271154Z 05005KT 10SM CLR 13/11 A3000 RMK AO2 SLP159 T01280111 10128 20111 58002
KWWD 271155Z AUTO 06009KT 10SM CLR 16/12 A2998 RMK AO1 10170 20140 57003
KBLM 271155Z AUTO 07005KT 10SM OVC033 16/13 A3003 RMK AO1 10160 20160 54000
KWRI 271155Z AUTO 04004KT 10SM OVC032 15/13 A3000 RMK AO2 SLP159 T01500125 10158 20150 58001
KNEL 271200Z AUTO 00000KT 10SM OVC036 15/13 A3002 RMK AO2 SLP162 T01500128 10161 20150 55003 $
KBLM 271215Z AUTO 07006KT 10SM OVC035 16/12 A3003 RMK AO1
KWWD 271215Z AUTO 06008G16KT 10SM CLR 17/12 A2999 RMK AO1
KFWN 271217Z AUTO 00000KT 4SM BR SCT026 OVC031 14/12 A3005 RMK AO2
KTEB 271219Z 03004KT 7SM OVC031 17/13 A3003 RMK AO2
KTTN 271228Z 09005KT 10SM FEW023 OVC030 16/12 A3002 RMK AO2
KWWD 271235Z AUTO 06010G17KT 10SM CLR 17/11 A2999 RMK AO1
KBLM 271235Z AUTO 07005KT 10SM OVC035 16/12 A3003 RMK AO1
KEWR 271251Z 07005KT 10SM BKN020 OVC035 17/14 A3003 RMK AO2 SLP169 T01720139
KTEB 271251Z 00000KT 7SM OVC033 17/13 A3003 RMK AO2 SLP168 T01670128
KTTN 271253Z 09005KT 10SM OVC030 16/12 A3002 RMK AO2 SLP157 T01560122
KCDW 271253Z AUTO 00000KT 5SM HZ OVC031 16/13 A3004 RMK AO2 SLP177 T01560128 TSNO
KFWN 271253Z AUTO 00000KT 3SM BR OVC033 14/13 A3005 RMK AO2 SLP173 T01440128
KSMQ 271253Z AUTO 04004KT 8SM OVC034 16/13 A3002 RMK AO2 SLP164 T01610133 TSNO
KACY 271254Z 07007KT 10SM CLR 15/11 A3001 RMK AO2 SLP161 T01500111
K12N 271254Z AUTO 00000KT 14/13 A3004 RMK AO2 SLP172 T01440128 PWINO TSNO
KMIV 271254Z AUTO 08007KT 10SM CLR 14/12 A3000 RMK AO2 SLP157 T01440117
KVAY 271254Z AUTO 07003KT 10SM OVC035 16/12 A3001 RMK AO2 SLP161 T01610117 TSNO
KWWD 271255Z AUTO 06008G16KT 10SM CLR 17/10 A2999 RMK AO1
KWRI 271255Z AUTO 05007KT 10SM OVC035 16/13 A3000 RMK AO2 SLP159 T01580129
KBLM 271255Z AUTO 07006KT 10SM OVC035 16/12 A3003 RMK AO1
KNEL 271300Z AUTO 07006KT 10SM OVC036 17/12 A3001 RMK AO2 SLP161 T01670117 $
KBLM 271315Z AUTO 06007KT 10SM OVC035 16/12 A3002 RMK AO1
KWWD 271315Z AUTO 05009G16KT 10SM CLR 17/09 A2998 RMK AO1
KEWR 271318Z 09005KT 10SM SCT018 BKN030 OVC036 17/13 A3003 RMK AO2
KBLM 271335Z AUTO 08009KT 10SM OVC035 17/12 A3003 RMK AO1
KWWD 271335Z AUTO 07011G14KT 10SM CLR 17/09 A2998 RMK AO1
KMMU 271345Z 03003KT 5SM BR OVC032 16/13 A3004
KTEB 271351Z 08004KT 8SM OVC033 17/13 A3002 RMK AO2 SLP164 T01720128
KEWR 271351Z 09004KT 10SM FEW018 BKN031 BKN039 17/13 A3002 RMK AO2 SLP166 T01720133
KCDW 271353Z AUTO 08003KT 5SM HZ OVC035 17/13 A3004 RMK AO2 SLP176 T01670128 TSNO
KSMQ 271353Z AUTO 00000KT 8SM OVC032 16/13 A3001 RMK AO2 SLP161 T01610133 TSNO
KTTN 271353Z 09006KT 10SM FEW022 OVC034 16/12 A3002 RMK AO2 SLP158 T01610122
KFWN 271353Z AUTO 02003KT 5SM HZ BKN024 OVC035 15/12 A3005 RMK AO2 SLP174 T01500122
KMIV 271354Z AUTO 07007KT 10SM CLR 16/12 A2999 RMK AO2 SLP155 T01560117
KVAY 271354Z AUTO 07004KT 10SM OVC035 17/12 A3001 RMK AO2 SLP162 T01720122 TSNO
KACY 271354Z 07010KT 10SM CLR 16/11 A3000 RMK AO2 SLP159 T01610106
K12N 271354Z AUTO 00000KT 15/13 A3005 RMK AO2 SLP172 T01500128 PWINO TSNO
KWWD 271355Z AUTO 06010G15KT 10SM CLR 17/09 A2998 RMK AO1
KWRI 271355Z AUTO 08010KT 10SM SCT035 SCT230 17/12 A2999 RMK AO2 SLP157 T01730121
KBLM 271355Z AUTO 09008KT 10SM OVC035 17/12 A3002 RMK AO1
KNEL 271413Z AUTO 10013G18KT 10SM SCT024 OVC034 17/12 A3001 RMK AO2 $
KBLM 271415Z AUTO 10009KT 10SM OVC035 17/12 A3003 RMK AO1
KWWD 271415Z AUTO 06009G17KT 10SM CLR 17/11 A2999 RMK AO1
KWRI 271421Z AUTO 07012KT 10SM BKN027 BKN034 17/12 A2999 RMK AO2 CIG 024V030 SLP157
KWRI 271432Z AUTO 08007KT 10SM -RA BKN024 OVC034 17/12 A2999 RMK AO2 RAB1432 CIG 023V029 SLP157
KBLM 271435Z AUTO 07009KT 10SM OVC035 17/12 A3002 RMK AO1
KWWD 271435Z AUTO 06011G17KT 10SM CLR 17/11 A2999 RMK AO1
KWRI 271439Z AUTO 07009G14KT 10SM BKN024 OVC030 17/12 A2999 RMK AO2 RAB1432E1439 SLP156
KMMU 271445Z 05003KT 5SM BR OVC032 17/13 A3003
KEWR 271451Z 09006KT 10SM SCT022 BKN037 OVC130 18/13 A3002 RMK AO2 SLP167 T01830128 55004
KTEB 271451Z 08004KT 10SM R06/6000VP6000FT OVC037 18/13 A3002 RMK AO2 SLP165 T01780128 55005
KFWN 271453Z AUTO 36003KT 4SM HZ SCT013 OVC024 16/12 A3004 RMK AO2 SLP171 T01560122 58001
KSMQ 271453Z AUTO 00000KT 8SM OVC036 17/13 A3001 RMK AO2 SLP161 T01670133 56004 TSNO
KCDW 271453Z AUTO 10005KT 5SM HZ OVC035 17/13 A3003 RMK AO2 SLP175 T01720128 56006 TSNO
KTTN 271453Z 11006KT 10SM OVC034 17/12 A3002 RMK AO2 SLP157 T01720122 56001
K12N 271454Z AUTO 00000KT 16/12 A3004 RMK AO2 SLP170 T01560122 58000 PWINO TSNO
KACY 271454Z 07013G18KT 10SM CLR 17/11 A3000 RMK AO2 SLP158 T01720106 58001
KVAY 271454Z AUTO 09005KT 10SM SCT026 OVC035 18/12 A3000 RMK AO2 SLP160 T01780117 58002 TSNO
KMIV 271454Z AUTO 09009KT 10SM CLR 17/11 A3000 RMK AO2 SLP156 T01670111 51001
KWRI 271455Z AUTO 08008KT 10SM BKN024 OVC031 17/12 A2999 RMK AO2 RAB1432E1439 CIG 023V028 BKN V OVC SLP155 P0000 60000 T01750122 58004
KWWD 271455Z AUTO 06013G18KT 10SM CLR 18/11 A2998 RMK AO1 54000
KBLM 271455Z AUTO 08008G14KT 10SM FEW019 OVC035 17/12 A3002 RMK AO1 57003
KNEL 271500Z AUTO 10010KT 10SM FEW027 OVC032 18/12 A3001 RMK AO2 SLP159 T01780122 55001 $
KFWN 271504Z AUTO 00000KT 4SM HZ BKN013 OVC024 16/13 A3004 RMK AO2
KVAY 271505Z AUTO 07007KT 10SM BKN028 OVC033 18/12 A3000 RMK AO2 TSNO
KVAY 271514Z AUTO 10007KT 10SM SCT028 OVC035 18/12 A3001 RMK AO2 TSNO
KWWD 271515Z AUTO 06010G18KT 10SM CLR 18/11 A2997 RMK AO1
KBLM 271515Z AUTO 10008KT 10SM SCT019 OVC033 17/13 A3002 RMK AO1
KFWN 271522Z AUTO 03003KT 5SM HZ SCT015 SCT024 OVC037 16/13 A3003 RMK AO2
KWWD 271535Z AUTO 06013G16KT 10SM CLR 18/11 A2996 RMK AO1
KBLM 271535Z AUTO 09010G14KT 10SM FEW019 OVC033 17/12 A3002 RMK AO1
KWRI 271545Z AUTO 05009KT 10SM SCT025 OVC032 18/12 A2999 RMK AO2 SLP156
KMMU 271545Z 06004KT 5SM BR OVC020 17/13 A3002
KWRI 271548Z AUTO 06009KT 10SM BKN024 OVC032 18/12 A2998 RMK AO2 CIG 023V028 SLP155
KNEL 271549Z AUTO 10011G17KT 10SM BKN025 BKN033 18/12 A3000 RMK AO2 $
KTEB 271551Z 07006KT 10SM OVC037 18/12 A3001 RMK AO2 SLP161 T01780117
KEWR 271551Z 09003KT 10SM SCT025 OVC035 18/12 A3001 RMK AO2 SLP162 T01830122
KFWN 271553Z AUTO 05003KT 6SM HZ FEW023 OVC037 16/13 A3003 RMK AO2 SLP168 T01610128
KCDW 271553Z AUTO 07003KT 6SM HZ OVC037 17/12 A3002 RMK AO2 SLP170 T01720122 TSNO
KSMQ 271553Z AUTO 00000KT 9SM FEW020 BKN030 OVC038 17/13 A3000 RMK AO2 SLP158 T01720133 TSNO
KTTN 271553Z 09006KT 10SM OVC036 18/12 A3000 RMK AO2 SLP153 T01780117
K12N 271554Z AUTO 00000KT 16/13 A3003 RMK AO2 SLP167 T01610128 PWINO TSNO
KMIV 271554Z AUTO 08010KT 10SM CLR 18/10 A2997 RMK AO2 SLP148 T01780100
KACY 271554Z 07013G18KT 10SM CLR 18/10 A2998 RMK AO2 SLP153 T01780100
KVAY 271554Z AUTO 07005KT 10SM FEW027 OVC037 18/12 A3000 RMK AO2 SLP157 T01780122 TSNO
KWWD 271555Z AUTO 06014G18KT 10SM CLR A2996 RMK AO1
KWRI 271555Z AUTO 06009KT 10SM BKN025 OVC032 18/12 A2998 RMK AO2 CIG 023V028 SLP154 T01760122
KWRI 271555Z AUTO 06009KT 10SM BKN025 OVC032 18/12 A2998
KBLM 271555Z AUTO 08012G15KT 10SM FEW021 BKN033 17/12 A3001 RMK AO1
KNEL 271600Z AUTO 10010KT 10SM BKN025 OVC031 18/12 A3000 RMK AO2 SLP155 T01830117 $
KWRI 271602Z AUTO 07010KT 10SM SCT025 OVC033 18/12 A2997 RMK AO2 SLP151
KSMQ 271608Z AUTO 00000KT 9SM BKN022 OVC031 17/13 A3000 RMK AO2 TSNO
KBLM 271615Z AUTO 09011G16KT 10SM FEW023 BKN031 18/12 A3001 RMK AO1
KWWD 271615Z AUTO 05016G22KT 10SM CLR 18/11 A2995 RMK AO1
KSMQ 271628Z AUTO 00000KT 9SM FEW020 SCT025 OVC031 17/13 A2999 RMK AO2 TSNO
KBLM 271635Z AUTO 10010G17KT 10SM BKN023 OVC031 17/12 A3000 RMK AO1
KWWD 271635Z AUTO 06015G19KT 10SM CLR 18/11 A2994 RMK AO1
KFWN 271637Z AUTO 00000KT 6SM HZ BKN025 OVC040 16/13 A3001 RMK AO2
KCDW 271641Z AUTO 07004KT 7SM SCT022 BKN029 OVC039 17/12 A3000 RMK AO2 TSNO
KMMU 271645Z 08006KT 7SM BKN020 OVC036 17/13 A3000
KCDW 271650Z AUTO 07004KT 8SM FEW022 BKN035 OVC042 17/12 A3000 RMK AO2 TSNO
KTEB 271651Z 07006KT 10SM OVC041 18/12 A2999 RMK AO2 SLP154 T01830117
KEWR 271651Z 11004KT 10SM BKN030 BKN090 BKN250 19/11 A2999 RMK AO2 SLP155 T01890111
KTTN 271653Z 12006KT 10SM FEW030 OVC036 18/11 A2998 RMK AO2 SLP146 T01780111
KCDW 271653Z AUTO 08006KT 9SM FEW022 BKN034 OVC042 18/12 A3000 RMK AO2 SLP162 T01780122 TSNO
KFWN 271653Z AUTO VRB03KT 6SM HZ BKN025 OVC033 17/13 A3000 RMK AO2 SLP160 T01670128
KSMQ 271653Z AUTO 00000KT 10SM BKN025 OVC032 18/13 A2998 RMK AO2 SLP150 T01780133 TSNO
K12N 271654Z AUTO 00000KT 16/13 A3000 RMK AO2 SLP156 T01610128 PWINO TSNO
KVAY 271654Z AUTO 07004KT 10SM SCT027 OVC039 18/12 A2997 RMK AO2 SLP149 T01830117 TSNO
KMIV 271654Z AUTO 06011KT 10SM CLR 18/10 A2995 RMK AO2 SLP140 T01830100
KACY 271654Z 06010KT 10SM CLR 17/11 A2996 RMK AO2 SLP146 T01720106
KWRI 271655Z AUTO 08008KT 10SM BKN034 18/12 A2996 RMK AO2 CIG 028 RWY24 SLP147 T01800122
KWWD 271655Z AUTO 05014G20KT 10SM CLR A2993 RMK AO1
KBLM 271655Z AUTO 08008KT 10SM BKN023 OVC031 17/12 A3000 RMK AO1
KNEL 271700Z AUTO 08010KT 10SM BKN029 OVC034 18/12 A2998 RMK AO2 SLP150 T01780117 $
KFWN 271705Z AUTO 02003KT 6SM HZ SCT025 BKN032 OVC044 17/13 A3000 RMK AO2
KSMQ 271707Z AUTO 13003KT 9SM OVC032 19/13 A2997 RMK AO2 TSNO
KVAY 271710Z AUTO VRB06KT 10SM BKN027 OVC039 18/12 A2997 RMK AO2 TSNO
KBLM 271715Z AUTO 07010KT 10SM SCT023 BKN029 17/11 A2999 RMK AO1
KWWD 271715Z AUTO 05015G24KT 10SM CLR 18/11 A2992 RMK AO1
KWWD 271735Z AUTO 05016G23KT 10SM CLR A2991 RMK AO1
KVAY 271737Z AUTO 07006KT 10SM SCT029 OVC036 18/12 A2995 RMK AO2 TSNO
KMMU 271745Z 11004KT 10SM OVC028 17/12 A2998
KTEB 271751Z 07006KT 10SM FEW029 BKN045 19/11 A2996 RMK AO2 SLP146 T01890111 10189 20167 58019
KEWR 271751Z 17007KT 10SM BKN030 BKN090 OVC200 18/12 A2997 RMK AO2 SLP149 T01830117 10194 20167 58017
KTTN 271753Z 09009KT 10SM OVC040 18/11 A2995 RMK AO2 SLP136 T01830111 10183 20156 58021
KFWN 271753Z AUTO 03005KT 6SM HZ BKN029 OVC039 16/12 A2998 RMK AO2 SLP152 T01610122 10167 20133 58018
KSMQ 271753Z AUTO VRB03KT 10SM OVC036 18/11 A2995 RMK AO2 SLP143 T01830111 10189 20156 58018 TSNO
KCDW 271753Z AUTO 09007KT 10SM OVC042 18/11 A2998 RMK AO2 SLP155 T01780111 10178 20150 58014 TSNO
K12N 271754Z AUTO 00000KT 16/13 A2998 RMK AO2 SLP151 T01610128 10167 20144 58019 PWINO TSNO
KACY 271754Z 07015KT 10SM CLR 18/11 A2994 RMK AO2 SLP137 T01780106 10178 20128 58021
KMIV 271754Z AUTO 05010KT 10SM CLR 19/10 A2992 RMK AO2 SLP132 T01890100 10189 20133 58024
KVAY 271754Z AUTO 07007KT 10SM BKN034 18/12 A2995 RMK AO2 SLP140 T01830117 10183 20156 58019 TSNO
KWWD 271755Z AUTO 05014G24KT 10SM CLR 18/11 A2992 RMK AO1 10180 20160 57020
KBLM 271755Z AUTO 07011KT 10SM CLR 17/11 A2998 RMK AO1 10180 20160 57014
KWRI 271755Z AUTO 07010KT 10SM FEW035 18/12 A2993 RMK AO2 SLP137 60000 T01780117 10180 20151 58018
KNEL 271800Z AUTO 06009KT 10SM BKN027 18/11 A2995 RMK AO2 SLP141 T01780111 10183 20167 58011 $
KNEL 271813Z AUTO 07011KT 10SM SCT027 18/11 A2995 RMK AO2 $
KBLM 271815Z AUTO 08009KT 10SM CLR 17/11 A2997 RMK AO1
KWWD 271815Z AUTO 05013G19KT 10SM CLR 18/12 A2991 RMK AO1
KFWN 271822Z AUTO 00000KT 6SM HZ FEW023 SCT030 OVC039 17/12 A2998 RMK AO2
KBLM 271835Z AUTO 08010KT 10SM CLR 17/11 A2996 RMK AO1
KWRI 271835Z AUTO 07010KT 10SM BKN027 BKN210 18/12 A2992 RMK AO2 CIG 026V030 BKN027 V SCT SLP135
KWRI 271835Z AUTO 07010KT 10SM BKN027 BKN210 18/12 A2992
KWRI 271835Z AUTO 07010KT 10SM BKN027 BKN210 18/12 A2992 RMK AO2 CIG 026V030 BKN027 V SCT SLP135
KWWD 271835Z AUTO 05016G22KT 10SM CLR 18/12 A2990 RMK AO1
KWRI 271835Z AUTO 07010KT 10SM BKN027 BKN210 18/12 A2992 RMK AO2 CIG 026V030 BKN027 V SCT SLP135
KWRI 271835Z AUTO 07010KT 10SM BKN027 BKN210 18/12 A2992 RMK AO2 CIG 026V030 BKN027 V SCT SLP135
KWRI 271837Z AUTO 07010KT 10SM SCT027 BKN210 18/12 A2992 RMK AO2 SLP135
KMMU 271845Z 09005KT 10SM BKN040 OVC050 18/12 A2997
KEWR 271851Z VRB05KT 10SM BKN030 BKN090 OVC220 19/12 A2996 RMK AO2 SLP144 T01890117
KTEB 271851Z 09006KT 10SM OVC045 19/11 A2995 RMK AO2 SLP141 T01890111
KTTN 271853Z 09009KT 10SM BKN038 18/11 A2994 RMK AO2 SLP131 T01830111
KCDW 271853Z AUTO 11005KT 10SM FEW034 BKN044 18/11 A2996 RMK AO2 SLP150 T01830111 TSNO
KSMQ 271853Z AUTO 15004KT 10SM SCT034 19/11 A2995 RMK AO2 SLP140 T01890111 TSNO
KFWN 271853Z AUTO 01003KT 7SM OVC045 17/13 A2997 RMK AO2 SLP147 T01670128
K12N 271854Z AUTO 00000KT 16/12 A2997 RMK AO2 SLP147 T01610122 PWINO TSNO
KVAY 271854Z AUTO 05009KT 10SM FEW029 18/11 A2993 RMK AO2 SLP135 T01830111 TSNO
KACY 271854Z 06015G20KT 10SM CLR 17/11 A2992 RMK AO2 SLP130 T01720106
KMIV 271854Z AUTO 05012G17KT 10SM CLR 19/09 A2990 RMK AO2 SLP125 T01890094
KBLM 271855Z AUTO 09008KT 10SM FEW023 17/11 A2996 RMK AO1
KWWD 271855Z AUTO 05013KT 10SM CLR 18/11 A2991 RMK AO1
KWRI 271855Z AUTO 07008KT 10SM SCT027 BKN210 18/12 A2992 RMK AO2 SLP133 T01790117
KNEL 271900Z AUTO 07012KT 10SM FEW025 18/11 A2994 RMK AO2 SLP136 T01780106 $
KWWD 271915Z AUTO 05014G19KT 10SM FEW022 17/12 A2991 RMK AO1
KBLM 271915Z AUTO 06011G15KT 10SM FEW023 17/11 A2996 RMK AO1
KBLM 271935Z AUTO 05009G16KT 10SM FEW023 17/11 A2995 RMK AO1
KWWD 271935Z AUTO 04013G19KT 10SM SCT020 17/12 A2990 RMK AO1
KMMU 271951Z 08008KT 10SM OVC030 18/12 A2996
KEWR 271951Z 13004KT 10SM BKN030 BKN090 BKN240 18/12 A2995 RMK AO2 SLP141 T01830117
KTEB 271951Z 07005KT 10SM BKN047 18/11 A2994 RMK AO2 SLP140 T01830111
KTTN 271953Z 08010KT 10SM BKN032 18/11 A2993 RMK AO2 SLP128 T01780106
KCDW 271953Z AUTO 11005KT 10SM OVC036 18/11 A2996 RMK AO2 SLP150 T01780111 TSNO
KFWN 271953Z AUTO 03005KT 8SM FEW036 BKN049 17/12 A2996 RMK AO2 SLP146 T01720122
KSMQ 271953Z AUTO 10004KT 10SM CLR 18/12 A2993 RMK AO2 SLP135 T01830117 TSNO
KVAY 271954Z AUTO 07007KT 10SM SCT029 18/11 A2992 RMK AO2 SLP133 T01780111 TSNO
KACY 271954Z 07013G17KT 10SM CLR 17/11 A2992 RMK AO2 SLP129 T01670106
KMIV 271954Z AUTO 06011KT 10SM CLR 18/09 A2990 RMK AO2 SLP125 T01780089
K12N 271954Z AUTO 00000KT 17/13 A2996 RMK AO2 SLP144 T01670128 PWINO TSNO
KWWD 271955Z AUTO 04014G21KT 10SM SCT020 17/12 A2990 RMK AO1
KWRI 271955Z AUTO 05010KT 10SM FEW029 SCT210 17/11 A2991 RMK AO2 SLP130 T01740108
KBLM 271955Z AUTO 06008G16KT 10SM FEW023 17/11 A2995 RMK AO1
KBLM 272015Z AUTO 07010G15KT 10SM SCT023 16/11 A2995 RMK AO1
KWWD 272015Z AUTO 05014G20KT 10SM BKN020 17/12 A2990 RMK AO1
KWWD 272035Z AUTO 04012G21KT 10SM BKN020 17/12 A2990 RMK AO1
KBLM 272035Z AUTO 07009G14KT 10SM FEW023 16/11 A2995 RMK AO1
KTEB 272051Z 07007KT 10SM CLR 18/11 A2995 RMK AO2 SLP141 T01780111 55005
KEWR 272051Z 08005KT 10SM BKN030 BKN040 OVC220 18/12 A2995 RMK AO2 SLP141 T01830122 56008
KFWN 272053Z AUTO 02003KT 8SM FEW027 SCT033 BKN049 17/12 A2996 RMK AO2 SLP143 T01670122 56009
KCDW 272053Z 10008KT 10SM OVC047 17/11 A2996 RMK AO2 SLP150 T01720111 56006
KSMQ 272053Z AUTO 00000KT 10SM CLR 18/12 A2993 RMK AO2 SLP133 T01780117 56009 TSNO
KTTN 272053Z 09007KT 10SM FEW030 17/11 A2993 RMK AO2 SLP128 T01720111 56008
KMIV 272054Z AUTO 07011KT 10SM CLR 17/09 A2991 RMK AO2 SLP125 T01720094 55006
KVAY 272054Z AUTO VRB03KT 10SM CLR 17/10 A2992 RMK AO2 SLP133 T01720100 56008 TSNO
K12N 272054Z AUTO 00000KT 17/13 A2996 RMK AO2 SLP143 T01670128 56008 PWINO TSNO
KACY 272054Z 05013KT 10SM CLR 16/10 A2992 RMK AO2 SLP131 T01610100 55006
KWRI 272055Z AUTO 06006KT 10SM BKN200 16/11 A2991 RMK AO2 SLP130 T01620105 56007
KWWD 272055Z AUTO 04009G18KT 10SM BKN020 17/12 A2990 RMK AO1 57007
KBLM 272055Z AUTO 07009G15KT 10SM CLR 16/11 A2995 RMK AO1 57010
KNEL 272100Z AUTO 06011KT 10SM CLR 16/11 A2993 RMK AO2 SLP133 T01610106 56007 $
KBLM 272115Z AUTO 07008G14KT 10SM CLR 16/10 A2995 RMK AO1
KWWD 272115Z AUTO 04011G17KT 10SM BKN018 16/12 A2990 RMK AO1
KWWD 272135Z AUTO 03012G18KT 10SM BKN018 16/12 A2990 RMK AO1
KBLM 272135Z AUTO 06008KT 10SM CLR 16/10 A2994 RMK AO1
KMMU 272145Z 11007KT 10SM OVC035 18/12 A2996
KTEB 272151Z 07005KT 10SM CLR 17/11 A2994 RMK AO2 SLP139 T01720106
KEWR 272151Z 04006KT 10SM SCT030 BKN150 OVC220 18/12 A2995 RMK AO2 SLP140 T01780117
KSMQ 272153Z AUTO 00000KT 10SM CLR 16/12 A2993 RMK AO2 SLP136 T01610117 TSNO
KFWN 272153Z AUTO 02005KT 9SM BKN032 16/12 A2996 RMK AO2 SLP143 T01610122
KCDW 272153Z 09006KT 10SM CLR 17/11 A2996 RMK AO2 SLP150 T01670106
KTTN 272153Z 11004KT 10SM CLR 16/11 A2993 RMK AO2 SLP131 T01560106
KMIV 272154Z AUTO 06007KT 10SM CLR 16/10 A2991 RMK AO2 SLP127 T01610100
KACY 272154Z 04007KT 10SM CLR 15/10 A2992 RMK AO2 SLP130 T01500100
K12N 272154Z AUTO 00000KT 16/13 A2996 RMK AO2 SLP143 T01610128 PWINO TSNO
KVAY 272154Z AUTO 00000KT 10SM CLR 16/10 A2993 RMK AO2 SLP135 T01560100 TSNO
KWRI 272155Z AUTO 08005KT 10SM SCT210 SCT230 15/10 A2992 RMK AO2 SLP135 T01520101
KBLM 272155Z AUTO 06009KT 10SM CLR 15/10 A2994 RMK AO1
KWWD 272155Z AUTO 03012G19KT 10SM FEW018 16/11 A2989 RMK AO1
KBLM 272215Z AUTO 07009KT 10SM CLR 15/10 A2994 RMK AO1
KWWD 272215Z AUTO 03008G19KT 10SM CLR 16/11 A2989 RMK AO1
KBLM 272235Z AUTO 07006KT 10SM CLR 15/10 A2995 RMK AO1
KWWD 272235Z AUTO 03011G17KT 10SM FEW018 16/11 A2988 RMK AO1
KMMU 272245Z 03004KT 10SM FEW150 15/11 A2997
KTEB 272251Z 07004KT 10SM CLR 17/11 A2995 RMK AO2 SLP142 T01670111 $
KEWR 272251Z 03008KT 10SM SCT030 BKN150 OVC200 17/12 A2995 RMK AO2 SLP142 T01720117
KCDW 272253Z 00000KT 10SM CLR 15/11 A2996 RMK AO2 SLP152 T01500106
KTTN 272253Z 09006KT 10SM CLR 15/10 A2994 RMK AO2 SLP133 T01500100
KFWN 272253Z AUTO 02003KT 9SM SCT030 SCT035 BKN043 16/12 A2997 RMK AO2 SLP147 T01560122
KSMQ 272253Z AUTO 00000KT 10SM FEW032 15/12 A2994 RMK AO2 SLP138 T01500117 TSNO
KVAY 272254Z AUTO 06004KT 10SM CLR 16/09 A2993 RMK AO2 SLP136 T01560094 TSNO
KACY 272254Z 02007KT 10SM CLR 14/10 A2991 RMK AO2 SLP127 T01440100
KMIV 272254Z AUTO 05007KT 10SM CLR 16/11 A2990 RMK AO2 SLP125 T01560106
K12N 272254Z AUTO 00000KT 15/13 A2997 RMK AO2 SLP146 T01500128 PWINO TSNO
KBLM 272255Z AUTO 06004KT 10SM CLR 15/11 A2995 RMK AO1
KWRI 272255Z AUTO 04005KT 10SM OVC200 14/10 A2992 RMK AO2 SLP132 T01400100
KWWD 272255Z AUTO 03010KT 10SM SCT018 16/11 A2988 RMK AO1
KBLM 272315Z AUTO 05006KT 10SM CLR 15/11 A2995 RMK AO1
KWWD 272315Z AUTO 02014KT 10SM SCT018 16/11 A2987 RMK AO1
KBLM 272335Z AUTO 06008KT 10SM CLR 15/11 A2994 RMK AO1
KWWD 272335Z AUTO 02012G18KT 10SM FEW018 15/11 A2987 RMK AO1
KMMU 272345Z 02004KT 10SM OVC150 14/11 A2996
KEWR 272351Z 02008KT 10SM SCT030 SCT150 BKN230 16/12 A2995 RMK AO2 SLP142 T01610122 10189 20161 53001
KTEB 272351Z 03004KT 10SM CLR 17/11 A2994 RMK AO2 SLP140 T01670106 10189 20167 58001 $
KCDW 272353Z 00000KT 10SM CLR 16/11 A2996 RMK AO2 SLP150 T01560106 10183 20150 50001
KFWN 272353Z AUTO 00000KT 9SM CLR 14/12 A2997 RMK AO2 SLP146 T01390117 10172 20139 51004
KTTN 272353Z 07004KT 10SM CLR 14/10 A2993 RMK AO2 SLP129 T01440100 10183 20144 50000
KSMQ 272353Z AUTO 00000KT 10SM CLR 14/12 A2993 RMK AO2 SLP136 T01390117 10189 20139 50002 TSNO
K12N 272354Z AUTO 00000KT 14/12 A2997 RMK AO2 SLP147 T01390122 10167 20139 50003 PWINO TSNO
KMIV 272354Z AUTO 04010KT 10SM CLR 15/11 A2989 RMK AO2 SLP119 T01500106 10189 20150 58006
KACY 272354Z 02008KT 10SM CLR 14/10 A2990 RMK AO2 SLP123 T01390100 10183 20139 58007
KVAY 272354Z AUTO 03005KT 10SM CLR 14/09 A2991 RMK AO2 SLP129 T01440094 10189 20144 58003 TSNO
KWRI 272355Z AUTO 03007KT 10SM OVC190 14/10 A2990 RMK AO2 SLP127 T01390098 10183 20136 58003
KBLM 272355Z AUTO 05009KT 10SM CLR 15/10 A2993 RMK AO1 10170 20150 401800150 57007
KWWD 272355Z AUTO 01013G17KT 10SM CLR 15/11 A2986 RMK AO1 10180 20150 401800140 57014
KNEL 280000Z AUTO 04004KT 10SM CLR 14/11 A2991 RMK AO2 SLP127 T01440106 10178 20144 50000 $
KWWD 280015Z AUTO 03010G18KT 10SM CLR 15/11 A2986 RMK AO1
KBLM 280015Z AUTO 06009KT 10SM CLR 15/10 A2992 RMK AO1
KWWD 280035Z AUTO 03010KT 10SM SCT021 15/11 A2987 RMK AO1
KBLM 280035Z AUTO 06008KT 10SM CLR 15/10 A2992 RMK AO1
KMMU 280045Z 05004KT 10SM OVC150 13/11 A2995
KEWR 280051Z 04008KT 10SM FEW028 BKN140 OVC180 16/12 A2994 RMK AO2 SLP137 T01610122
KTEB 280051Z 06005KT 10SM FEW031 16/11 A2994 RMK AO2 SLP138 T01610111 $
KSMQ 280053Z AUTO 00000KT 10SM CLR 13/12 A2992 RMK AO2 SLP130 T01330117 TSNO
KCDW 280053Z 00000KT 10SM CLR 15/11 A2995 RMK AO2 SLP147 T01500106
KFWN 280053Z AUTO 00000KT 7SM CLR 13/11 A2996 RMK AO2 SLP144 T01280111
KTTN 280053Z 04004KT 10SM CLR 14/10 A2992 RMK AO2 SLP125 T01440100
KACY 280054Z 05007KT 10SM CLR 14/10 A2989 RMK AO2 SLP122 T01390100
KMIV 280054Z AUTO 04011KT 10SM CLR 14/10 A2988 RMK AO2 SLP116 T01440100
KVAY 280054Z AUTO 00000KT 10SM CLR 14/09 A2991 RMK AO2 SLP127 T01440094 TSNO
K12N 280054Z AUTO 00000KT 13/12 A2995 RMK AO2 SLP141 T01330122 PWINO TSNO
KWRI 280055Z AUTO 05008KT 10SM FEW180 14/10 A2989 RMK AO2 SLP123 T01390098
KBLM 280055Z AUTO 05010G16KT 10SM CLR 15/10 A2992 RMK AO1
KWWD 280055Z AUTO 02010G16KT 10SM BKN021 OVC120 15/11 A2986 RMK AO1
KNEL 280100Z AUTO 05005KT 10SM CLR 14/11 A2991 RMK AO2 SLP125 T01440106 $
KBLM 280115Z AUTO 06011KT 10SM CLR 15/09 A2992 RMK AO1
KWWD 280115Z AUTO 03008KT 10SM BKN019 OVC120 15/11 A2987 RMK AO1
KWWD 280135Z AUTO 03010KT 10SM BKN019 OVC110 15/11 A2987 RMK AO1
KBLM 280135Z AUTO 07011G14KT 10SM CLR 15/09 A2992 RMK AO1
KMMU 280145Z 05005KT 10SM OVC150 14/11 A2994 RMK LAST
KTEB 280151Z 04004KT 10SM SCT031 16/11 A2993 RMK AO2 SLP135 T01610111 $
KEWR 280151Z 04009KT 10SM FEW028 BKN170 OVC240 16/12 A2993 RMK AO2 SLP135 T01610122
KFWN 280153Z AUTO 00000KT 6SM BR CLR 12/11 A2995 RMK AO2 SLP142 T01220111
KSMQ 280153Z AUTO 04004KT 10SM CLR 16/11 A2991 RMK AO2 SLP130 T01560111 TSNO
KCDW 280153Z 06003KT 10SM CLR 15/11 A2994 RMK AO2 SLP144 T01500106
KTTN 280153Z AUTO 06004KT 10SM CLR 13/11 A2991 RMK AO2 SLP122 T01330106
KVAY 280154Z AUTO 03004KT 10SM CLR 14/09 A2990 RMK AO2 SLP124 T01390094 TSNO
KACY 280154Z AUTO 05009G15KT 10SM CLR 15/10 A2988 RMK AO2 SLP119 T01500100 TSNO
K12N 280154Z AUTO 00000KT 13/12 A2995 RMK AO2 SLP141 T01330117 PWINO TSNO
KMIV 280154Z AUTO 04009KT 10SM CLR 14/10 A2988 RMK AO2 SLP117 T01440100
KBLM 280155Z AUTO 05009KT 10SM CLR 15/09 A2991 RMK AO1
KWRI 280155Z AUTO 03008KT 10SM OVC170 14/10 A2988 RMK AO2 SLP120 T01360100
KWWD 280155Z AUTO 04012G18KT 10SM SCT019 BKN110 16/12 A2986 RMK AO1
KNEL 280200Z AUTO 05007KT 020V080 10SM CLR 15/09 A2989 RMK AO2 SLP120 T01500094 $
KBLM 280215Z AUTO 05009G16KT 10SM CLR 15/09 A2991 RMK AO1
KWWD 280215Z AUTO 04011G17KT 10SM SCT019 BKN110 16/11 A2985 RMK AO1
KBLM 280235Z AUTO 05010KT 10SM CLR 15/09 A2991 RMK AO1
KWWD 280235Z AUTO 03011G15KT 10SM FEW019 SCT120 16/11 A2985 RMK AO1
KEWR 280251Z 02009KT 10SM FEW028 BKN170 OVC240 16/12 A2992 RMK AO2 SLP132 T01560122 56010
KTEB 280251Z 03003KT 10SM CLR 16/11 A2992 RMK AO2 SLP132 T01560111 58008 $
KSMQ 280253Z AUTO 01004KT 10SM CLR 15/11 A2990 RMK AO2 SLP127 T01500111 56009 TSNO
KCDW 280253Z 04003KT 10SM CLR 15/11 A2993 RMK AO2 SLP140 T01500111 58010
KTTN 280253Z AUTO 06007KT 10SM CLR 14/11 A2990 RMK AO2 SLP119 T01440106 56010
KFWN 280253Z AUTO 00000KT 5SM BR CLR 12/11 A2995 RMK AO2 SLP142 T01220111 56004
KMIV 280254Z AUTO 04008KT 10SM CLR 14/10 A2987 RMK AO2 SLP114 T01440100 57005
KACY 280254Z AUTO 04009KT 10SM FEW120 15/11 A2987 RMK AO2 SLP113 T01500106 58010 TSNO
KVAY 280254Z AUTO 02005KT 10SM CLR 14/10 A2989 RMK AO2 SLP122 T01390100 56007 TSNO
K12N 280254Z AUTO 00000KT 13/12 A2995 RMK AO2 SLP142 T01330117 55005 PWINO TSNO
KMMU 280255Z AUTO 00000KT 10SM CLR 14/12 A2993 RMK AO2
KWRI 280255Z AUTO 03009KT 10SM SCT150 14/10 A2987 RMK AO2 SLP116 T01380098 56010
KWWD 280255Z AUTO 04011G17KT 10SM SCT110 16/11 A2985 RMK AO1 57003
KBLM 280255Z AUTO 05012KT 10SM CLR 15/09 A2990 RMK AO1 57010
KNEL 280300Z AUTO 06008KT 10SM CLR 15/09 A2988 RMK AO2 SLP117 T01500094 56014 $
KBLM 280315Z AUTO 05012KT 10SM CLR 15/09 A2989 RMK AO1 TSNO
KWWD 280315Z AUTO 04010KT 10SM SCT120 16/11 A2984 RMK AO1 TSNO
KMMU 280315Z AUTO 01003KT 10SM CLR 12/12 A2992 RMK AO2
KWWD 280335Z AUTO 03014G18KT 10SM BKN120 16/11 A2983 RMK AO1 TSNO
KBLM 280335Z AUTO 06009KT 10SM CLR 15/09 A2990 RMK AO1 TSNO
KMMU 280335Z AUTO 05003KT 10SM CLR 13/12 A2993 RMK AO2
KEWR 280351Z 02009KT 10SM FEW028 BKN170 OVC210 16/12 A2991 RMK AO2 SLP129 T01560122
KTEB 280351Z 02004KT 10SM CLR 16/11 A2991 RMK AO2 SLP130 T01560111 $
KFWN 280353Z AUTO 04004KT 8SM CLR 13/12 A2994 RMK AO2 SLP138 T01330117 TSNO
KSMQ 280353Z AUTO 01005KT 10SM CLR 15/12 A2989 RMK AO2 SLP123 T01500117 TSNO
KTTN 280353Z AUTO 06007KT 10SM CLR 14/09 A2989 RMK AO2 SLP117 T01440089 TSNO
KCDW 280353Z 04004KT 10SM CLR 14/11 A2993 RMK AO2 SLP139 T01440111
KVAY 280354Z AUTO 04005KT 10SM CLR 14/09 A2988 RMK AO2 SLP118 T01390094 TSNO
K12N 280354Z AUTO VRB03KT 13/12 A2994 RMK AO2 SLP136 T01280117 PWINO TSNO
KACY 280354Z 04008KT 10SM CLR 15/10 A2985 RMK AO2 SLP109 T01500100
KMIV 280354Z AUTO 03008KT 10SM SCT110 14/09 A2986 RMK AO2 SLP109 T01440094 TSNO
KWRI 280355Z AUTO 03008KT 10SM CLR 14/09 A2987 RMK AO2 SLP115 T01370094
KWWD 280355Z AUTO 03011G18KT 10SM BKN110 15/11 A2982 RMK AO1 TSNO
KBLM 280355Z AUTO 03010KT 10SM CLR 15/09 A2989 RMK AO1 TSNO
KMMU 280355Z AUTO 01005KT 10SM CLR 13/12 A2992 RMK AO2
KNEL 280400Z AUTO 03006KT 10SM CLR 15/10 A2987 RMK AO2 SLP112 T01500100 $
KBLM 280415Z AUTO 05010G16KT 10SM CLR 15/08 A2989 RMK AO1
KWWD 280415Z AUTO 04010G17KT 10SM BKN120 16/11 A2983 RMK AO1
KMMU 280415Z AUTO 03004KT 10SM CLR 13/12 A2992 RMK AO2
KWWD 280435Z AUTO 04012G16KT 10SM SCT020 BKN120 A2983 RMK AO1
KMMU 280435Z AUTO 04004KT 10SM CLR 13/12 A2992 RMK AO2
KBLM 280435Z AUTO 04011G16KT 10SM CLR 15/08 A2988 RMK AO1
KTEB 280451Z 03006KT 10SM CLR 15/11 A2990 RMK AO2 SLP124 T01500111 401890150 $
KEWR 280451Z 03010KT 10SM FEW028 BKN160 OVC210 15/12 A2991 RMK AO2 SLP126 T01500122 401940150
KFWN 280453Z AUTO 04006KT 8SM CLR 13/11 A2992 RMK AO2 SLP132 T01330111 401720117
KSMQ 280453Z AUTO 04007KT 10SM CLR 15/12 A2989 RMK AO2 SLP120 T01500117 401890133 TSNO
KTTN 280453Z AUTO 03007KT 10SM CLR 14/11 A2986 RMK AO2 PRESFR SLP107 T01440111 401830133
KCDW 280453Z 07007KT 10SM CLR 15/11 A2992 RMK AO2 SLP137 T01500111 401830144
KACY 280454Z 05014G18KT 10SM FEW022 15/11 A2984 RMK AO2 SLP105 T01500106 401830111
KMIV 280454Z AUTO 04008KT 10SM FEW100 14/09 A2984 RMK AO2 SLP103 T01390094 401890128
KVAY 280454Z AUTO 04004KT 10SM CLR 14/08 A2987 RMK AO2 SLP114 T01390083 401890139 TSNO
K12N 280454Z AUTO 04004KT 13/12 A2992 RMK AO2 SLP132 T01280117 401670128 PWINO TSNO
KWRI 280455Z AUTO 04012KT 10SM FEW160 14/08 A2985 RMK AO2 SLP109 T01390077 401830136
KWWD 280455Z AUTO 02011G16KT 10SM BKN020 OVC110 16/11 A2982 RMK AO1
KBLM 280455Z AUTO 05010G16KT 10SM CLR 15/08 A2988 RMK AO1
KMMU 280455Z AUTO 01004KT 10SM CLR 13/12 A2991 RMK AO2
KNEL 280500Z AUTO 05005KT 10SM CLR 15/08 A2987 RMK AO2 SLP113 T01500083 401500150 $
KBLM 280515Z AUTO 04010G15KT 10SM CLR 15/08 A2988 RMK AO1
KMMU 280515Z AUTO 03005KT 10SM CLR 13/12 A2990 RMK AO2
KWWD 280515Z AUTO 03012KT 10SM FEW020 OVC120 15/11 A2982 RMK AO1
KBLM 280535Z AUTO 06012G18KT 10SM CLR 15/08 A2988 RMK AO1
KMMU 280535Z AUTO 04005KT 10SM CLR 13/12 A2990 RMK AO2
KWWD 280535Z AUTO 04011G15KT 10SM SCT020 BKN024 OVC120 16/11 A2982 RMK AO1
KTEB 280551Z 05005KT 10SM CLR 16/08 A2990 RMK AO2 SLP123 T01560083 10167 20150 56009 $
KEWR 280551Z 04009G16KT 10SM FEW028 BKN160 OVC210 16/09 A2990 RMK AO2 SLP123 T01560094 10167 20150 58009
KCDW 280553Z AUTO 07005KT 10SM CLR 14/10 A2991 RMK AO2 SLP133 T01440100 10156 20144 58007 TSNO
KFWN 280553Z AUTO 02005KT 8SM OVC039 13/11 A2993 RMK AO2 SLP133 T01330111 10144 20117 55009
KTTN 280553Z AUTO 06006KT 10SM CLR 14/11 A2987 RMK AO2 SLP106 T01440111 10150 20133 55012
KSMQ 280553Z AUTO 05007KT 10SM CLR 15/12 A2987 RMK AO2 SLP115 T01500117 10167 20133 58010 TSNO
K12N 280554Z AUTO 00000KT 13/11 A2992 RMK AO2 SLP129 T01280111 10139 20128 56013 PWINO TSNO
KVAY 280554Z AUTO 04006KT 10SM CLR 14/07 A2986 RMK AO2 SLP110 T01440072 10144 20139 58012 TSNO
KMIV 280554Z AUTO 04006KT 10SM FEW120 14/09 A2984 RMK AO2 SLP102 T01390089 10150 20139 56012
KACY 280554Z 06009G16KT 10SM FEW024 SCT110 15/11 A2984 RMK AO2 SLP102 T01500106 10150 20139 56010
KBLM 280555Z AUTO 06013G16KT 10SM CLR 15/08 A2987 RMK AO1 10150 20150 57010
KMMU 280555Z AUTO 03005KT 10SM CLR 13/12 A2990 RMK AO2
KWRI 280555Z AUTO 04009KT 10SM CLR 14/08 A2984 RMK AO2 SLP107 T01410083 10142 20136 58009
KWWD 280555Z AUTO 03011G15KT 10SM SCT020 BKN026 OVC110 16/11 A2982 RMK AO1 10160 20150 57010
KNEL 280600Z AUTO 06009KT 10SM CLR 15/08 A2986 RMK AO2 SLP110 T01500083 10150 20144 55007 $
KWWD 280615Z AUTO 03012G17KT 10SM BKN020 OVC026 A2981 RMK AO1
KMMU 280615Z AUTO 03003KT 10SM CLR 13/12 A2990 RMK AO2
KBLM 280615Z AUTO 06011KT 10SM CLR 15/08 A2987 RMK AO1
KMMU 280635Z AUTO 00000KT 10SM CLR 13/12 A2990 RMK AO2
KBLM 280635Z AUTO 06008G16KT 10SM CLR 15/07 A2987 RMK AO1
KWWD 280635Z AUTO 04014G19KT 10SM BKN022 OVC026 16/12 A2981 RMK AO1
KTEB 280651Z 05008KT 10SM CLR 16/07 A2988 RMK AO2 SLP119 T01560072 $
KEWR 280651Z 04008KT 10SM FEW028 BKN150 OVC200 16/09 A2989 RMK AO2 SLP120 T01560094
KFWN 280653Z AUTO 08004KT 8SM FEW036 13/11 A2992 RMK AO2 SLP131 T01280111
KSMQ 280653Z AUTO 03008KT 360V060 10SM CLR 15/10 A2987 RMK AO2 SLP113 T01500100 TSNO
KCDW 280653Z AUTO 05005KT 10SM CLR 14/09 A2990 RMK AO2 SLP130 T01440089 TSNO
KTTN 280653Z AUTO 07007KT 10SM CLR 14/11 A2987 RMK AO2 SLP107 T01440111
K12N 280654Z AUTO 04004KT 13/11 A2991 RMK AO2 SLP129 T01280111 PWINO TSNO
KMIV 280654Z AUTO 03009KT 10SM SCT075 OVC100 14/09 A2982 RMK AO2 RAB35E46 SLP098 P0000 T01390094
KACY 280654Z 10SM SCT026 SCT110 15/10 A2983 RMK AO2 SLP102 T01500100 $
KVAY 280654Z AUTO 05005KT 10SM FEW120 14/08 A2984 RMK AO2 SLP105 T01440078 TSNO
KBLM 280655Z AUTO 07012G21KT 10SM CLR 15/06 A2987 RMK AO1
KWRI 280655Z AUTO 04010KT 10SM CLR 14/07 A2983 RMK AO2 SLP102 T01430075
KMMU 280655Z AUTO 04004KT 10SM CLR 13/11 A2989 RMK AO2
KWWD 280655Z AUTO 04015G20KT 10SM SCT021 OVC028 A2980 RMK AO1
KNEL 280700Z AUTO 05011G16KT 10SM CLR 15/08 A2985 RMK AO2 SLP105 T01500078 $
KACY 280710Z 03013G24KT 10SM BKN026 BKN120 15/10 A2983 RMK AO2 $
KMMU 280715Z AUTO 04004KT 10SM CLR 13/11 A2989 RMK AO2
KBLM 280715Z AUTO 06013G19KT 10SM CLR 14/06 A2986 RMK AO1
KWWD 280715Z AUTO 03015G23KT 10SM SCT026 SCT070 BKN095 16/11 A2978 RMK AO1
KMMU 280735Z AUTO 03003KT 10SM CLR 13/10 A2989 RMK AO2
KBLM 280735Z AUTO 06011G16KT 10SM CLR 14/06 A2985 RMK AO1
KWWD 280735Z AUTO 03012G21KT 10SM FEW018 SCT070 BKN085 15/12 A2977 RMK AO1
KACY 280749Z 10SM SCT024 OVC110 15/11 A2980 RMK AO2 $
KEWR 280751Z 04009KT 10SM FEW028 OVC150 15/09 A2988 RMK AO2 SLP116 T01500089
KTEB 280751Z 05009G14KT 10SM SCT050 15/07 A2987 RMK AO2 SLP116 T01500067 $
KCDW 280753Z AUTO 05004KT 10SM CLR 14/09 A2989 RMK AO2 SLP126 T01390089 TSNO
KTTN 280753Z AUTO 08008KT 10SM CLR 14/10 A2985 RMK AO2 SLP102 T01440100
KFWN 280753Z AUTO 05005KT 7SM SCT036 13/11 A2990 RMK AO2 SLP125 T01280111
KSMQ 280753Z AUTO VRB05KT 10SM CLR 15/09 A2985 RMK AO2 SLP108 T01500094 TSNO
KVAY 280754Z AUTO 06004KT 10SM BKN110 14/06 A2985 RMK AO2 SLP106 T01440061 TSNO
KMIV 280754Z AUTO 03007KT 10SM -RA OVC090 14/10 A2981 RMK AO2 RAB51 SLP093 P0000 T01390100
K12N 280754Z AUTO 04005KT 13/11 A2990 RMK AO2 SLP123 T01280111 PWINO TSNO
KACY 280754Z 02014G100KT 10SM BKN024 OVC110 15/11 A2980 RMK AO2 SLP091 T01500106 $
KMMU 280755Z AUTO 02004KT 10SM CLR 13/10 A2988 RMK AO2
KBLM 280755Z AUTO 06008KT 10SM CLR 14/06 A2986 RMK AO1
KWWD 280755Z AUTO 04011KT 10SM BKN018 BKN085 15/12 A2978 RMK AO1
KWRI 280755Z AUTO 05010KT 10SM CLR 14/06 A2983 RMK AO2 SLP103 T01420061
KNEL 280800Z AUTO 05010G15KT 10SM CLR 14/07 A2984 RMK AO2 SLP102 T01440067 $
KACY 280810Z 05012KT 10SM SCT022 OVC110 15/11 A2981 RMK AO2 $
KWWD 280815Z AUTO 04016G21KT 10SM SCT020 BKN110 15/11 A2977 RMK AO1
KMMU 280815Z AUTO 06003KT 10SM CLR 13/10 A2989 RMK AO2
KBLM 280815Z AUTO 05011G18KT 10SM CLR 14/06 A2986 RMK AO1
KBLM 280835Z AUTO 04014G19KT 10SM CLR 14/06 A2984 RMK AO1
KMMU 280835Z AUTO 01004KT 10SM SCT043 SCT050 13/10 A2988 RMK AO2
KWWD 280835Z AUTO 03012G23KT 10SM FEW019 FEW080 BKN100 15/11 A2976 RMK AO1
KEWR 280851Z 03011KT 10SM FEW028 OVC150 14/08 A2987 RMK AO2 SLP115 T01440078 56007
KTEB 280851Z 06004KT 10SM CLR 15/06 A2988 RMK AO2 SLP119 T01500061 55004 $
KFWN 280853Z AUTO 05006KT 8SM SCT040 SCT049 13/11 A2990 RMK AO2 SLP124 T01280111 56009
KSMQ 280853Z AUTO 07004KT 10SM CLR 14/08 A2986 RMK AO2 SLP113 T01440078 55003 TSNO
KTTN 280853Z AUTO 06005KT 10SM FEW120 14/09 A2986 RMK AO2 SLP106 T01390089 55002
KCDW 280853Z AUTO 07006KT 10SM SCT046 14/08 A2989 RMK AO2 SLP126 T01390078 56007 TSNO
KMIV 280854Z AUTO 02009KT 10SM -RA OVC090 13/10 A2979 RMK AO2 SLP087 P0000 60000 T01330100 58015
KVAY 280854Z AUTO 03006KT 10SM FEW075 BKN095 OVC110 14/05 A2983 RMK AO2 SLP102 T01440050 56008 TSNO
K12N 280854Z AUTO 04005KT 13/11 A2990 RMK AO2 SLP123 T01280111 57005 PWINO TSNO
KACY 280854Z 10SM BKN022 BKN120 15/10 A2979 RMK AO2 SLP087 T01500100 56015 $
KWRI 280855Z AUTO 04011KT 10SM CLR 14/05 A2982 RMK AO2 SLP100 T01380049 56008
KBLM 280855Z AUTO 05011G19KT 10SM CLR 14/06 A2985 RMK AO1 57007
KWWD 280855Z AUTO 03013G17KT 10SM FEW021 SCT080 BKN100 15/11 A2977 RMK AO1 57017
KMMU 280855Z AUTO 04003KT 10SM SCT050 13/10 A2988 RMK AO2
KNEL 280900Z AUTO 05009G16KT 10SM FEW110 14/07 A2983 RMK AO2 SLP098 T01440067 57010 $
KBLM 280915Z AUTO 04011G20KT 10SM CLR 14/06 A2985 RMK AO1
KMMU 280915Z AUTO 04004KT 10SM BKN048 13/10 A2989 RMK AO2
KWWD 280915Z AUTO 04019G30KT 10SM FEW021 BKN110 A2975 RMK AO1
KBLM 280935Z AUTO 04012G20KT 10SM SCT120 14/07 A2984 RMK AO1
KMMU 280935Z AUTO 04005KT 10SM SCT048 13/09 A2989 RMK AO2
KWWD 280935Z AUTO 04012G25KT 10SM BKN120 15/10 A2976 RMK AO1
KEWR 280951Z 03009KT 10SM FEW028 OVC150 14/06 A2988 RMK AO2 SLP117 T01440061
KTEB 280951Z 04006KT 10SM CLR 14/04 A2987 RMK AO2 SLP115 T01440044 $
KSMQ 280953Z AUTO 01006KT 10SM CLR 14/08 A2985 RMK AO2 SLP109 T01440078 TSNO
KCDW 280953Z AUTO VRB06KT 10SM CLR 14/06 A2989 RMK AO2 SLP125 T01440056 TSNO
KTTN 280953Z AUTO 05008KT 10SM FEW075 BKN095 OVC110 14/08 A2983 RMK AO2 SLP096 T01390083
KFWN 280953Z AUTO 04008KT 10SM FEW047 SCT110 13/11 A2991 RMK AO2 SLP126 T01330106
KACY 280954Z 03017G26KT 10SM BKN024 15/10 A2978 RMK AO2 SLP082 T01500100 $
KMIV 280954Z AUTO 05010KT 10SM FEW075 13/09 A2978 RMK AO2 RAE16 SLP084 P0000 T01330094
KVAY 280954Z AUTO 06006KT 10SM SCT075 BKN095 OVC110 14/04 A2982 RMK AO2 SLP098 T01440039 TSNO
K12N 280954Z AUTO 04005KT 13/11 A2990 RMK AO2 SLP123 T01280111 PWINO TSNO
KWRI 280955Z AUTO 04011KT 10SM CLR 14/05 A2981 RMK AO2 SLP097 T01390047
KWWD 280955Z AUTO 03013G24KT 10SM OVC110 15/10 A2975 RMK AO1
KBLM 280955Z AUTO 04015G18KT 10SM FEW120 14/07 A2984 RMK AO1
KMMU 280955Z AUTO 05004KT 10SM CLR 13/08 A2988 RMK AO2
KNEL 281000Z AUTO 06010G20KT 10SM FEW120 14/07 A2983 RMK AO2 SLP098 T01390067 $
KBLM 281015Z AUTO 05013G20KT 10SM CLR 14/08 A2984 RMK AO1
KWWD 281015Z AUTO 04013G21KT 10SM OVC120 15/10 A2975 RMK AO1
KMMU 281015Z AUTO 05005KT 10SM CLR 13/08 A2988 RMK AO2
KMMU 281035Z AUTO 04008G14KT 10SM CLR 13/07 A2987 RMK AO2
KBLM 281035Z AUTO 04014KT 10SM CLR 14/08 A2983 RMK AO1
KWWD 281035Z AUTO 04017G23KT 10SM FEW022 SCT120 15/10 A2975 RMK AO1
KACY 281040Z 04013G23KT 10SM SCT024 14/10 A2977 RMK AO2 $
KACY 281040Z 04013G23KT 10SM SCT024 14/10 A2977 RMK AO2 $
KACY 281040Z 04013G23KT 10SM SCT024 14/10 A2977 RMK AO2 $
KMMU 281045Z 05008KT 10SM SKC 14/06 A2987
KEWR 281051Z 02012G20KT 10SM BKN130 OVC170 14/06 A2986 RMK AO2 SLP110 T01390056
KTEB 281051Z 04008G15KT 10SM CLR 14/04 A2986 RMK AO2 SLP111 T01440044 $
KTTN 281053Z 05008KT 10SM FEW060 SCT080 OVC100 14/07 A2983 RMK AO2 SLP095 T01390072
KSMQ 281053Z AUTO 04008G17KT 10SM OVC110 14/06 A2983 RMK AO2 SLP103 T01440061 TSNO
KFWN 281053Z AUTO 05005KT 10SM CLR 13/10 A2989 RMK AO2 SLP121 T01330100
KCDW 281053Z AUTO 05008KT 10SM CLR 14/05 A2987 RMK AO2 SLP121 T01390050 TSNO
KMIV 281054Z AUTO 04011G20KT 10SM SCT120 13/09 A2977 RMK AO2 SLP081 T01330089
KVAY 281054Z AUTO 05008KT 10SM FEW100 14/04 A2981 RMK AO2 SLP094 T01390044 TSNO
KACY 281054Z 03017G22KT 10SM FEW024 14/10 A2977 RMK AO2 SLP081 T01440100 $
K12N 281054Z AUTO VRB05KT 13/11 A2989 RMK AO2 SLP119 T01280106 PWINO TSNO
KWWD 281055Z AUTO 04015G24KT 10SM SCT120 A2974 RMK AO1
KWRI 281055Z AUTO 03012KT 10SM BKN150 14/06 A2980 RMK AO2 SLP093 T01360056
KBLM 281055Z AUTO 04012G17KT 10SM CLR 14/08 A2983 RMK AO1
KNEL 281100Z AUTO 05012G19KT 10SM CLR 14/08 A2981 RMK AO2 SLP093 T01390078 $
KBLM 281115Z AUTO 04011G19KT 10SM SCT022 14/09 A2983 RMK AO1
KWWD 281115Z AUTO 04017G26KT 10SM SCT020 BKN120 A2975 RMK AO1
KACY 281117Z 05014G24KT 10SM BKN024 14/10 A2978 RMK AO2 $
KWWD 281135Z AUTO 04016G21KT 10SM BKN022 15/11 A2975 RMK AO1
KBLM 281135Z AUTO 04014G21KT 10SM BKN022 14/09 A2983 RMK AO1
KTEB 281142Z 04009G15KT 10SM BKN028 14/04 A2987 RMK AO2 $
KMMU 281145Z 08008G16KT 10SM OVC110 14/06 A2988
KEWR 281147Z 03010KT 10SM BKN026 OVC140 14/06 A2988 RMK AO2
KEWR 281151Z 03011KT 10SM BKN026 OVC140 14/06 A2988 RMK AO2 SLP117 T01390061 10156 20139 56001
KTEB 281151Z 03009KT 10SM OVC028 14/05 A2988 RMK AO2 SLP117 T01390050 10156 20139 55002 $
KCDW 281153Z AUTO 07010G16KT 10SM FEW120 14/04 A2989 RMK AO2 SLP125 T01390039 10144 20133 55000 TSNO
KTTN 281153Z 06008KT 10SM FEW120 13/06 A2983 RMK AO2 SLP095 T01330061 10144 20133 55010
KSMQ 281153Z AUTO 06007KT 10SM FEW070 BKN095 OVC120 14/06 A2985 RMK AO2 RAB34E47 SLP107 P0000 60000 T01440056 10150 20139 55006 TSNO
KFWN 281153Z AUTO 05009KT 10SM BKN110 13/09 A2989 RMK AO2 SLP122 T01280089 10133 20128 58002
KVAY 281154Z AUTO 04008KT 020V090 10SM CLR 14/06 A2981 RMK AO2 SLP095 T01390056 10150 20139 55006 TSNO
KACY 281154Z 04012G23KT 10SM BKN020 BKN031 14/10 A2978 RMK AO2 SLP085 T01440100 10150 20144 55003
KACY 281154Z 04012G23KT 10SM BKN020 BKN031 14/10 A2978
K12N 281154Z AUTO 04008KT 13/09 A2987 RMK AO2 SLP115 T01280089 10128 20128 58008 PWINO TSNO
KMIV 281154Z AUTO 04012G19KT 10SM FEW024 13/09 A2978 RMK AO2 SLP084 60000 T01330089 10139 20133 55002
KWRI 281155Z AUTO 04011KT 10SM CLR 13/07 A2981 RMK AO2 SLP095 T01330073 10144 20133 55005
KBLM 281155Z AUTO 04012G20KT 10SM OVC022 14/09 A2983 RMK AO1 10150 20140 57007
KWWD 281155Z AUTO 03016G27KT 10SM BKN022 A2975 RMK AO1 10160 20150 57007
KNEL 281200Z AUTO 06011G17KT 10SM BKN024 14/09 A2982 RMK AO2 $
KNEL 281200Z AUTO 06011G17KT 10SM BKN024 14/09 A2982 RMK AO2 $
KNEL 281200Z AUTO 06011G17KT 10SM BKN024 14/09 A2982 RMK AO2 $
KACY 281201Z 04012KT 10SM SCT020 BKN033 14/10 A2979 RMK AO2
KNEL 281206Z AUTO 06012G18KT 10SM BKN024 14/09 A2982 RMK AO2 SLP097 T01390089 10150 20133 58010 $
KACY 281211Z 04012G21KT 10SM BKN020 BKN031 14/10 A2979 RMK AO2
KBLM 281215Z AUTO 04013G21KT 10SM BKN021 OVC027 14/09 A2984 RMK AO1
KWWD 281215Z AUTO 03014G24KT 10SM BKN025 A2975 RMK AO1
KMIV 281217Z AUTO 03011KT 10SM BKN024 13/09 A2979 RMK AO2
KCDW 281224Z AUTO 06011G17KT 10SM BKN026 13/04 A2988 RMK AO2 TSNO
KBLM 281235Z AUTO 04014G20KT 10SM BKN021 OVC027 14/09 A2984 RMK AO1
KWWD 281235Z AUTO 04020G25KT 10SM BKN019 OVC026 16/11 A2975 RMK AO1
KEWR 281236Z 04017G28KT 10SM SCT026 OVC160 14/07 A2986 RMK AO2 PK WND 04028/1228
KNEL 281243Z AUTO 05012G19KT 10SM SCT024 BKN030 14/09 A2982 RMK AO2 $
KMMU 281245Z 06014G20KT 10SM BKN020 BKN120 13/05 A2988
KNEL 281250Z AUTO 05009G19KT 10SM SCT024 BKN029 14/09 A2983 RMK AO2 $
KEWR 281251Z 04011G25KT 10SM SCT026 OVC160 14/07 A2986 RMK AO2 PK WND 04028/1228 SLP112 T01390072
KTEB 281251Z 04012G21KT 10SM FEW028 14/06 A2987 RMK AO2 SLP113 T01390061 $
KCDW 281253Z AUTO 06009G17KT 10SM SCT026 13/04 A2988 RMK AO2 SLP124 T01330044 TSNO
KFWN 281253Z AUTO 04007KT 10SM SCT110 13/06 A2990 RMK AO2 SLP125 T01280061
KTTN 281253Z 07010KT 10SM CLR 13/06 A2984 RMK AO2 SLP098 T01330056
KSMQ 281253Z AUTO 06007KT 10SM FEW120 14/05 A2985 RMK AO2 SLP108 T01390050 TSNO
K12N 281254Z AUTO 04007G14KT 13/08 A2988 RMK AO2 SLP119 T01280083 PWINO TSNO
KACY 281254Z 04016G22KT 10SM OVC018 14/11 A2979 RMK AO2 SLP087 T01440106
KMIV 281254Z AUTO 04011KT 10SM BKN022 14/09 A2979 RMK AO2 SLP087 T01390089
KVAY 281254Z AUTO 05007G14KT 10SM BKN026 14/08 A2983 RMK AO2 SLP101 T01390078 TSNO
KBLM 281255Z AUTO 04014G20KT 10SM BKN021 OVC027 14/09 A2984 RMK AO1
KWWD 281255Z AUTO 03017G29KT 10SM OVC017 A2975 RMK AO1
KWRI 281255Z AUTO 04012KT 10SM FEW025 14/09 A2982 RMK AO2 SLP098 T01350088
KNEL 281300Z AUTO 05009G20KT 10SM BKN021 OVC029 14/09 A2983 RMK AO2 SLP100 T01440094 $
KWRI 281308Z AUTO 04013KT 10SM BKN023 14/09 A2982 RMK AO2 SLP098
KBLM 281315Z AUTO 04013G23KT 10SM BKN019 OVC025 14/09 A2984 RMK AO1
KCDW 281315Z AUTO 06008G20KT 10SM BKN028 13/04 A2989 RMK AO2 TSNO
KWWD 281315Z AUTO 03019G25KT 10SM BKN015 OVC023 15/11 A2975 RMK AO1
KWWD 281335Z AUTO 03015G24KT 10SM SCT017 OVC023 15/11 A2974 RMK AO1
KBLM 281335Z AUTO 04010G20KT 10SM OVC019 14/09 A2984 RMK AO1
KTEB 281339Z 04009KT 10SM BKN029 14/06 A2988 RMK AO2 $
KVAY 281342Z AUTO 04007G15KT 10SM SCT028 14/09 A2983 RMK AO2 TSNO
KMMU 281345Z 06014G19KT 10SM OVC028 13/06 A2989
KEWR 281351Z 04017G22KT 10SM SCT026 BKN031 OVC160 14/08 A2988 RMK AO2 SLP116 T01390078
KTEB 281351Z 05010G17KT 10SM OVC029 14/07 A2988 RMK AO2 SLP117 T01390067 $
KVAY 281352Z AUTO 03009G21KT 10SM BKN028 14/09 A2982 RMK AO2 TSNO
KFWN 281353Z AUTO 04007KT 10SM FEW120 13/05 A2990 RMK AO2 SLP125 T01280050
KTTN 281353Z 07009KT 10SM BKN028 13/07 A2985 RMK AO2 SLP103 T01330067
KCDW 281353Z AUTO 06010G19KT 10SM OVC028 13/05 A2989 RMK AO2 SLP125 T01330050 TSNO
KSMQ 281353Z AUTO 05007G15KT 020V080 10SM CLR 14/06 A2986 RMK AO2 SLP112 T01390061 TSNO
KVAY 281354Z AUTO 04011G17KT 10SM BKN028 14/09 A2982 RMK AO2 SLP098 T01440089 TSNO
KACY 281354Z 04016G24KT 10SM OVC018 15/11 A2976 RMK AO2 SLP078 T01500111
KMIV 281354Z AUTO 04013KT 10SM OVC022 14/10 A2977 RMK AO2 SLP081 T01440100
K12N 281354Z AUTO VRB05KT 13/06 A2989 RMK AO2 SLP122 T01280061 PWINO TSNO
KWRI 281355Z AUTO 04016G22KT 10SM OVC021 14/09 A2980 RMK AO2 CIG 020V025 SLP094 T01410095
KWWD 281355Z AUTO 03016G24KT 10SM BKN017 OVC021 15/11 A2974 RMK AO1
KBLM 281355Z AUTO 05013G21KT 10SM OVC019 14/09 A2984 RMK AO1
KNEL 281400Z AUTO 05013G22KT 10SM OVC019 14/10 A2982 RMK AO2 SLP095 T01440100 $
KEWR 281404Z 04016G22KT 10SM BKN028 OVC160 14/08 A2987 RMK AO2
KWRI 281409Z AUTO 02016G25KT 10SM OVC019 14/10 A2979 RMK AO2 CIG 018V023 SLP090
KBLM 281415Z AUTO 04015G22KT 10SM OVC017 14/10 A2983 RMK AO1
KWWD 281415Z AUTO 04017G29KT 10SM OVC015 15/11 A2973 RMK AO1
KACY 281416Z 04016G27KT 10SM OVC014 14/11 A2976 RMK AO2 PK WND 05027/1407
KWWD 281435Z AUTO 03020G31KT 10SM OVC015 15/11 A2972 RMK AO1
KBLM 281435Z AUTO 04016G24KT 10SM OVC017 14/09 A2981 RMK AO1
KMMU 281445Z 06009G16KT 10SM OVC025 13/07 A2988
KEWR 281451Z 04017G23KT 10SM BKN026 OVC160 14/09 A2986 RMK AO2 SLP109 T01440089 58007
KTEB 281451Z 05010G19KT 10SM OVC029 14/07 A2986 RMK AO2 SLP111 T01440072 58003 $
KCDW 281453Z AUTO 05010G15KT 020V080 10SM OVC028 13/07 A2987 RMK AO2 SLP121 T01330067 58004 TSNO
KSMQ 281453Z AUTO 04012G16KT 10SM BKN032 14/06 A2984 RMK AO2 SLP106 T01390061 58001 TSNO
KFWN 281453Z AUTO 05009G17KT 10SM FEW110 13/04 A2990 RMK AO2 SLP124 T01280044 50001
KTTN 281453Z 07012G19KT 10SM OVC024 13/07 A2981 RMK AO2 SLP090 T01330072 58005
KVAY 281454Z AUTO 04010G20KT 10SM OVC022 14/09 A2980 RMK AO2 SLP091 T01390089 58010 TSNO
KMIV 281454Z AUTO 05015G24KT 10SM OVC020 14/10 A2976 RMK AO2 PK WND 03026/1442 SLP075 T01440100 58009
K12N 281454Z AUTO VRB03KT 13/06 A2989 RMK AO2 SLP120 T01280056 50004 PWINO TSNO
KACY 281454Z 03018G26KT 10SM OVC012 14/11 A2975 RMK AO2 PK WND 04031/1422 SLP074 T01440111 58011
KWWD 281455Z AUTO 03019G30KT 9SM OVC015 15/11 A2972 RMK AO1 57010
KBLM 281455Z AUTO 04018G22KT 10SM OVC017 14/10 A2981 RMK AO1 57007
KWRI 281455Z AUTO 03014G22KT 10SM OVC018 14/10 A2978 RMK AO2 SLP088 T01390098 58007
KNEL 281500Z AUTO 06013G20KT 10SM OVC017 14/10 A2980 RMK AO2 SLP087 T01440100 58001 $
KBLM 281515Z AUTO 04016G22KT 10SM OVC017 14/10 A2980 RMK AO1
KWWD 281515Z AUTO 03017G24KT 10SM OVC015 15/11 A2971 RMK AO1
KBLM 281535Z AUTO 04012G21KT 10SM OVC017 14/10 A2980 RMK AO1
KWWD 281535Z AUTO 03016G22KT 7SM OVC015 15/12 A2971 RMK AO1
KFWN 281544Z AUTO 05011G17KT 10SM OVC028 13/06 A2988 RMK AO2
KMMU 281545Z 06013G20KT 10SM OVC028 14/08 A2986
KEWR 281551Z 04017G26KT 10SM BKN025 OVC130 15/09 A2983 RMK AO2 PK WND 03026/1549 SLP102 T01500089
KTEB 281551Z 03008G14KT 10SM OVC029 15/08 A2984 RMK AO2 SLP105 T01500078 $
KFWN 281553Z AUTO 04009G18KT 10SM OVC028 13/06 A2987 RMK AO2 SLP116 T01280061
KTTN 281553Z 06010G18KT 10SM OVC024 14/08 A2981 RMK AO2 SLP088 T01390078
KCDW 281553Z AUTO 06009G16KT 10SM BKN028 OVC035 14/08 A2985 RMK AO2 PRESFR SLP112 T01390078 TSNO
KMIV 281554Z AUTO 05014G27KT 10SM OVC016 14/11 A2973 RMK AO2 PK WND 04029/1537 RAB07E17 SLP066 P0000 T01440106
KVAY 281554Z AUTO 04010G16KT 10SM OVC022 14/09 A2978 RMK AO2 SLP084 T01440094 TSNO
K12N 281554Z AUTO VRB06KT 13/07 A2986 RMK AO2 SLP113 T01280067 PWINO TSNO
KACY 281554Z 03019G26KT 10SM OVC014 15/11 A2972 RMK AO2 PK WND 05028/1530 SLP064 T01500111
KWWD 281555Z AUTO 03016G24KT 10SM OVC015 15/12 A2970 RMK AO1
KWRI 281555Z AUTO 03013G22KT 10SM OVC019 14/10 A2976 RMK AO2 SLP079 T01410099
KBLM 281555Z AUTO 04014G22KT 10SM OVC017 14/10 A2979 RMK AO1
KNEL 281600Z AUTO 05011G23KT 010V080 10SM OVC017 14/11 A2977 RMK AO2 SLP078 T01440106 $
KBLM 281615Z AUTO 03015G22KT 10SM OVC017 14/10 A2977 RMK AO1
KWWD 281615Z AUTO 03014G27KT 10SM OVC015 15/12 A2968 RMK AO1
KCDW 281617Z AUTO 06009G18KT 10SM BKN030 OVC035 14/08 A2983 RMK AO2 TSNO
KCDW 281631Z AUTO 06014G19KT 10SM OVC028 14/08 A2984 RMK AO2 TSNO
KBLM 281635Z AUTO 03011G19KT 10SM OVC017 14/10 A2976 RMK AO1
KWWD 281635Z AUTO 04017G26KT 9SM OVC015 15/11 A2969 RMK AO1
KMMU 281645Z 06012G17KT 10SM OVC028 14/09 A2983
KACY 281651Z 04016G22KT 1 3/4SM -RA BR OVC014 14/12 A2970 RMK AO2 PK WND 04031/1614 RAB50 P0000
KEWR 281651Z 04018G24KT 10SM OVC024 15/09 A2980 RMK AO2 SLP090 T01500094
KTEB 281651Z 05006KT 10SM OVC027 15/08 A2981 RMK AO2 SLP093 T01500083 $
KACY 281651Z 04016G22KT 1 3/4SM -RA BR OVC014 14/12 A2970 RMK AO2 PK WND 04031/1614 RAB50 P0000
KSMQ 281653Z AUTO 04010G19KT 10SM OVC030 14/08 A2977 RMK AO2 SLP082 T01440083 TSNO
KCDW 281653Z AUTO 05008G18KT 10SM OVC026 14/08 A2983 RMK AO2 SLP106 T01390078 TSNO
KFWN 281653Z AUTO 04008G17KT 10SM OVC028 13/07 A2985 RMK AO2 SLP107 T01280072
KTTN 281653Z 07015KT 10SM OVC024 14/08 A2975 RMK AO2 SLP067 T01390083
KMIV 281654Z AUTO 03016G23KT 10SM OVC016 14/11 A2971 RMK AO2 SLP059 T01440106
KVAY 281654Z AUTO 04011G19KT 020V080 10SM OVC022 14/09 A2973 RMK AO2 SLP067 T01440094 TSNO
K12N 281654Z AUTO VRB04KT 13/07 A2984 RMK AO2 SLP104 T01280072 PWINO TSNO
KACY 281654Z 03015G22KT 1 1/2SM -RA BR OVC012 14/12 A2970 RMK AO2 PK WND 04031/1614 RAB50 SLP057 P0000 T01390122
KWRI 281655Z AUTO 03014G21KT 10SM OVC020 14/10 A2971 RMK AO2 PK WND 03026/1628 SLP063 T01430099
KWWD 281655Z AUTO 03016G20KT 2 1/2SM OVC015 14/12 A2968 RMK AO1
KBLM 281655Z AUTO 03013G23KT 10SM OVC017 14/10 A2975 RMK AO1
KNEL 281700Z AUTO 05010G18KT 360V070 10SM OVC019 15/10 A2972 RMK AO2 SLP062 T01500100 $
KACY 281705Z 03012G23KT 1 1/2SM -RA BR BKN007 OVC012 14/12 A2970 RMK AO2 CIG 006V010 P0001
KBLM 281715Z AUTO 04014G21KT 10SM OVC017 14/10 A2973 RMK AO1
KWWD 281715Z AUTO 02013G18KT 4SM BKN010 OVC015 14/12 A2967 RMK AO1 P0001
KBLM 281735Z AUTO 04013G25KT 10SM OVC017 14/10 A2972 RMK AO1
KWWD 281735Z AUTO 02013G21KT 3SM BKN010 OVC015 14/12 A2966 RMK AO1 P0002
KSMQ 281739Z AUTO 04014G23KT 10SM OVC028 15/08 A2974 RMK AO2 TSNO
KMMU 281745Z 05013G21KT 10SM OVC028 15/09 A2978
KTEB 281751Z 03008KT 10SM OVC029 15/08 A2977 RMK AO2 SLP079 T01500083 10156 20133 58031 $
KEWR 281751Z 04017G24KT 10SM BKN026 OVC130 15/09 A2976 RMK AO2 SLP078 T01500094 10150 20133 58031
KSMQ 281753Z AUTO 04009G19KT 10SM OVC028 15/08 A2974 RMK AO2 SLP071 T01500083 10150 20139 58035 TSNO
KCDW 281753Z AUTO 06012G21KT 10SM OVC028 14/08 A2977 RMK AO2 SLP088 T01440078 10144 20128 58033 TSNO
KFWN 281753Z AUTO 04012G18KT 10SM OVC028 13/08 A2980 RMK AO2 SLP091 T01330078 10133 20122 58032
KTTN 281753Z 07015G24KT 10SM OVC024 14/09 A2974 RMK AO2 SLP063 T01440089 10144 20128 58026
KVAY 281754Z AUTO 05009KT 020V090 10SM OVC024 14/09 A2973 RMK AO2 SLP068 T01440094 10144 20139 55023 TSNO
KACY 281754Z 03015G22KT 2SM -RA BR BKN007 OVC014 13/12 A2969 RMK AO2 SLP052 P0005 60005 T01330122 10150 20133 56022
K12N 281754Z AUTO 04007G14KT 350V050 13/08 A2979 RMK AO2 SLP087 T01280078 10128 20122 58033 PWINO TSNO
KMIV 281754Z AUTO 03014G20KT 8SM OVC016 14/11 A2969 RMK AO2 RAB04E50 SLP052 P0001 60001 T01390111 10144 20133 56023
KWRI 281755Z AUTO 05018G21KT 10SM OVC022 15/10 A2971 RMK AO2 PK WND 03028/1725 SLP061 T01470101 10147 20133 56027
KWWD 281755Z AUTO 01013G22KT 5SM BKN008 OVC015 14/12 A2965 RMK AO1 P0002 60002 57024
KBLM 281755Z AUTO 05014G22KT 10SM OVC017 14/10 A2973 RMK AO1 10140 20140 57027
KNEL 281800Z AUTO 05009G19KT 10SM OVC019 14/11 A2972 RMK AO2 SLP062 T01440106 10150 20139 58033 $
KACY 281809Z 03013G21KT 1 1/2SM RA BR BKN007 OVC014 13/12 A2968 RMK AO2 CIG 005V011 P0002
KACY 281809Z 03013G21KT 1 1/2SM RA BR BKN007 OVC014 13/12 A2968 RMK AO2 CIG 005V011 P0002
KACY 281809Z 03013G21KT 1 1/2SM RA BR BKN007 OVC014 13/12 A2968 RMK AO2 CIG 005V011 P0002
KWWD 281815Z AUTO 02013G20KT 4SM BKN008 OVC015 14/12 A2964 RMK AO1 P0001
KBLM 281815Z AUTO 05014G23KT 3SM BKN015 OVC020 14/11 A2973 RMK AO1
KSMQ 281818Z AUTO 05012G18KT 10SM OVC030 15/08 A2973 RMK AO2 TSNO
KMIV 281818Z AUTO 03011G18KT 10SM -RA BKN014 OVC020 13/12 A2968 RMK AO2 RAB01 P0000
KWRI 281821Z AUTO 03016KT 10SM OVC019 14/10 A2970 RMK AO2 CIG 014V022 SLP060
KACY 281824Z 03014G24KT 2 1/2SM -RA BR BKN007 OVC014 13/12 A2965 RMK AO2 PRESFR P0004
KFWN 281829Z AUTO 04008G19KT 10SM OVC030 14/08 A2978 RMK AO2
KNEL 281830Z AUTO 05009G17KT 1 3/4SM -RA BR SCT011 OVC018 13/12 A2972 RMK AO2 RAB18 P0000 $
KACY 281831Z 03018G27KT 3SM -RA BR BKN009 OVC014 13/12 A2965 RMK AO2 PK WND 03027/1827 P0005
KWWD 281835Z AUTO 02014G20KT 3SM BKN008 OVC015 14/12 A2963 RMK AO1 P0003
KBLM 281835Z AUTO 04015G23KT 1 1/2SM SCT010 OVC015 13/11 A2973 RMK AO1 P0001
KACY 281843Z 03018G24KT 4SM -RA BR SCT007 OVC014 13/12 A2965 RMK AO2 PK WND 03027/1827 P0006
KMMU 281845Z 06014G29KT 10SM OVC028 15/09 A2976
KNEL 281846Z AUTO 02007KT 1 1/4SM -RA BR SCT009 BKN015 OVC020 13/12 A2971 RMK AO2 RAB18 P0000 $
KACY 281850Z 03016G26KT 6SM -RA BR BKN009 OVC016 13/12 A2965 RMK AO2 PK WND 03027/1827 P0006
KACY 281850Z 03016G26KT 6SM -RA BR BKN009 OVC016 13/12 A2965 RMK AO2 PK WND 03027/1827 P0006
KEWR 281851Z 04016KT 10SM OVC026 16/09 A2975 RMK AO2 PK WND 03026/1758 SLP074 T01560094
KWRI 281851Z AUTO 04016G25KT 10SM SCT018 OVC025 14/11 A2969 RMK AO2 CIG 017 RWY24 SLP057
KTEB 281851Z 02009G18KT 10SM OVC027 15/08 A2975 RMK AO2 SLP074 T01500083 $
KFWN 281853Z AUTO 05015G23KT 10SM OVC028 14/08 A2978 RMK AO2 SLP084 T01390083
KWRI 281853Z AUTO 04015G25KT 10SM BKN018 OVC025 14/11 A2969 RMK AO2 BKN V SCT SLP056
KSMQ 281853Z AUTO 07010G20KT 030V090 10SM OVC030 15/09 A2974 RMK AO2 SLP072 T01500089 TSNO
KWRI 281853Z AUTO 04015G25KT 10SM BKN018 OVC025 14/11 A2969 RMK AO2 BKN V SCT SLP056
KNEL 281853Z AUTO 04006G14KT 1 1/2SM -RA BR SCT009 OVC014 13/12 A2971 RMK AO2 RAB18 P0000 $
KWRI 281853Z AUTO 04015G25KT 10SM BKN018 OVC025 14/11 A2969 RMK AO2 BKN V SCT SLP056
KWRI 281853Z AUTO 04015G25KT 10SM BKN018 OVC025 14/11 A2969 RMK AO2 BKN V SCT SLP056
KCDW 281853Z AUTO 05009G16KT 020V080 10SM OVC026 14/08 A2977 RMK AO2 SLP085 T01440083 TSNO
KWRI 281853Z AUTO 04015G25KT 10SM BKN018 OVC025 14/11 A2969
KTTN 281853Z 06009G21KT 10SM OVC024 14/09 A2973 RMK AO2 SLP063 T01440089
KACY 281854Z 03016G26KT 4SM -RA BR BKN009 OVC014 13/12 A2965
KACY 281854Z 03016G26KT 4SM -RA BR BKN009 OVC014 13/12 A2965 RMK AO2 PK WND 03027/1827 SLP039 P0006 T01330122
K12N 281854Z AUTO 03008G15KT 350V060 13/08 A2977 RMK AO2 SLP082 T01330083 PWINO TSNO
KVAY 281854Z AUTO 03009KT 10SM -RA OVC022 14/11 A2971 RMK AO2 RAB38 SLP059 P0000 T01390106 TSNO
KMIV 281854Z AUTO 03011G18KT 9SM -RA 13/12 A2967 RMK AO2 RAB44 SLP046 P0003 T01330117 $
KWWD 281855Z AUTO 02017KT 2 1/2SM BKN008 OVC015 14/12 A2962 RMK AO1 P0004
KBLM 281855Z AUTO 03011G16KT 1 3/4SM SCT006 OVC013 13/12 A2972 RMK AO1 P0002
KWRI 281855Z AUTO 03013G24KT 10SM BKN017 OVC025 14/11 A2969 RMK AO2 SLP056 T01380106
KACY 281902Z 03016G26KT 1 1/2SM BR BKN009 OVC014 13/12 A2965 RMK AO2 PK WND 03026/1858 SFC VIS 3 RAE01 CIG 006V011 P0000
KWRI 281914Z AUTO 03018G22KT 10SM -RA BKN015 BKN022 OVC030 13/11 A2968 RMK AO2 RAB1914 SLP052
KWRI 281914Z AUTO 03018G22KT 10SM -RA BKN015 BKN022 OVC030 13/11 A2968 RMK AO2 RAB1914 SLP052
KBLM 281915Z AUTO 03011G21KT 4SM SCT006 BKN010 OVC020 13/12 A2971 RMK AO1
KWWD 281915Z AUTO 02014G22KT 2 1/2SM BKN008 OVC015 14/12 A2961 RMK AO1 P0001
KWRI 281916Z AUTO 02016G22KT 10SM -RA BKN014 BKN022 OVC029 13/11 A2968 RMK AO2 RAB1914 SLP053
KMIV 281918Z AUTO 02010G16KT 10SM -RA SCT015 OVC021 13/12 A2966 RMK AO2 P0000 $
KWWD 281935Z AUTO 02015G28KT 2 1/2SM BKN008 OVC015 14/12 A2960 RMK AO1 P0003
KBLM 281935Z AUTO 04016KT 5SM SCT008 OVC015 13/12 A2971 RMK AO1
KNEL 281937Z AUTO 04008KT 4SM BR OVC009 13/12 A2968 RMK AO2 RAE07 P0000 $
KMMU 281945Z 05009G25KT 10SM OVC024 14/09 A2977
KSMQ 281945Z AUTO 03007G15KT 10SM OVC028 14/09 A2974 RMK AO2 TSNO
KWRI 281949Z AUTO 03016G23KT 10SM OVC011 13/11 A2968 RMK AO2 RAB1914E1949 SLP052
KTEB 281951Z 04009G15KT 10SM OVC027 15/08 A2975 RMK AO2 SLP073 T01500083 $
KEWR 281951Z 03015G23KT 10SM OVC024 15/09 A2975 RMK AO2 SLP072 T01500094
KFWN 281953Z AUTO 04010KT 10SM OVC028 14/08 A2980 RMK AO2 SLP090 T01390078
KTTN 281953Z 04011KT 10SM BKN022 OVC026 14/09 A2971 RMK AO2 SLP056 T01390094
KCDW 281953Z AUTO 05010G17KT 10SM OVC026 14/08 A2976 RMK AO2 SLP083 T01440083 TSNO
KSMQ 281953Z AUTO 04010G16KT 10SM OVC028 14/09 A2974 RMK AO2 SLP070 T01440094 TSNO
KACY 281954Z 03015G23KT 1 1/2SM -RA BR BKN007 OVC015 13/12 A2964 RMK AO2 PK WND 02026/1943 SLP037 P0003 T01330122
KACY 281954Z 03015G23KT 1 1/2SM -RA BR BKN007 OVC015 13/12 A2964
K12N 281954Z AUTO 04007KT 13/08 A2979 RMK AO2 SLP085 T01330083 PWINO TSNO
KACY 281954Z 03015G23KT 1 1/2SM -RA BR BKN007 OVC015 13/12 A2964 RMK AO2 PK WND 02026/1943 SLP037 P0003 T01330122
KACY 281954Z 03015G23KT 1 1/2SM -RA BR BKN007 OVC015 13/12 A2964 RMK AO2 PK WND 02026/1943 SLP037 P0003 T01330122
KACY 281954Z 03015G23KT 1 1/2SM -RA BR BKN007 OVC015 13/12 A2964 RMK AO2 PK WND 02026/1943 SLP037 P0003 T01330122
KACY 281954Z 03015G23KT 1 1/2SM -RA BR BKN007 OVC015 13/12 A2964 RMK AO2 PK WND 02026/1943 SLP037 P0003 T01330122
KACY 281954Z 03015G23KT 1 1/2SM -RA BR BKN007 OVC015 13/12 A2964 RMK AO2 PK WND 02026/1943 SLP037 P0003 T01330122
KACY 281954Z 03015G23KT 1 1/2SM -RA BR BKN007 OVC015 13/12 A2964 RMK AO2 PK WND 02026/1943 SLP037 P0003 T01330122
KMIV 281954Z AUTO 03015G23KT 10SM OVC017 13/12 A2965 RMK AO2 RAE45 SLP038 P0000 T01330117 $
KVAY 281954Z AUTO 01009KT 7SM -RA BKN020 BKN028 OVC050 13/11 A2969 RMK AO2 SLP054 P0007 T01330111 TSNO
KBLM 281955Z AUTO 03011KT 4SM SCT008 OVC017 13/12 A2970 RMK AO1
KWRI 281955Z AUTO 02013G20KT 10SM OVC011 13/11 A2968
KWRI 281955Z AUTO 02013G20KT 10SM OVC011 13/11 A2968 RMK AO2 RAB1914E1949 CIG 008V015 SLP054 P0000 T01310112
KWWD 281955Z AUTO 02013G23KT 3SM SCT008 OVC015 14/12 A2960 RMK AO1 P0004
KWRI 281957Z AUTO 02013KT 10SM OVC010 13/11 A2969 RMK AO2 CIG 008V013 SLP054
KNEL 282000Z AUTO 03007G14KT 360V060 2SM -RA BR BKN009 OVC012 13/12 A2969 RMK AO2 RAE1907B1947 CIG 006V010 P0000 $
KWRI 282002Z AUTO 02014KT 9SM OVC009 13/11 A2968 RMK AO2 OVC V BKN SLP053
KACY 282002Z 02017G23KT 1SM RA BR BKN007 OVC015 13/12 A2964 RMK AO2 TWR VIS 1 1/2 P0002
KWRI 282002Z AUTO 02014KT 9SM OVC009 13/11 A2968 RMK AO2 OVC V BKN SLP053
KWRI 282004Z AUTO 02016KT 8SM -RA OVC009 13/11 A2968 RMK AO2 RAB2004 OVC V BKN SLP053
KNEL 282006Z AUTO 03007KT 2 1/2SM -RA BR BKN009 OVC012 13/12 A2969 RMK AO2 RAE1907B1947 CIG 006V010 SLP053 P0000 T01280122 $
KNEL 282006Z AUTO 03007KT 2 1/2SM -RA BR BKN009 OVC012 13/12 A2969 RMK AO2 RAE1907B1947 CIG 006V010 SLP053 P0000 T01280122 $
KNEL 282006Z AUTO 03007KT 2 1/2SM -RA BR BKN009 OVC012 13/12 A2969 RMK AO2 RAE1907B1947 CIG 006V010 SLP053 P0000 T01280122 $
KNEL 282006Z AUTO 03007KT 2 1/2SM -RA BR BKN009 OVC012 13/12 A2969 RMK AO2 RAE1907B1947 CIG 006V010 SLP053 P0000 T01280122 $
KNEL 282006Z AUTO 03007KT 2 1/2SM -RA BR BKN009 OVC012 13/12 A2969 RMK AO2 RAE1907B1947 CIG 006V010 SLP053 P0000 T01280122 $
KNEL 282006Z AUTO 03007KT 2 1/2SM -RA BR BKN009 OVC012 13/12 A2969 RMK AO2 RAE1907B1947 CIG 006V010 SLP053 P0000 T01280122 $
KNEL 282006Z AUTO 03007KT 2 1/2SM -RA BR BKN009 OVC012 13/12 A2969 RMK AO2 RAE1907B1947 CIG 006V010 SLP053 P0000 T01280122 $
KNEL 282006Z AUTO 03007KT 2 1/2SM -RA BR BKN009 OVC012 13/12 A2969 RMK AO2 RAE1907B1947 CIG 006V010 SLP053 P0000 T01280122 $
KNEL 282006Z AUTO 03007KT 2 1/2SM -RA BR BKN009 OVC012 13/12 A2969 RMK AO2 RAE1907B1947 CIG 006V010 SLP053 P0000 T01280122 $
KMIV 282011Z AUTO 03014G23KT 6SM -RA BR BKN013 OVC018 13/12 A2964 RMK AO2 RAB1956 P0000 $
KWWD 282015Z AUTO 02016G20KT 4SM SCT008 OVC015 13/12 A2959 RMK AO1 P0003
KBLM 282015Z AUTO 03016G21KT 5SM BKN010 OVC017 13/11 A2970 RMK AO1 P0001
KWRI 282017Z AUTO 01017G22KT 9SM -DZ OVC010 13/11 A2968 RMK AO2 RAB2004E2014DZB2014 SLP051
KNEL 282018Z AUTO VRB05KT 1 1/4SM -RA BR BKN007 OVC012 13/12 A2969 RMK AO2 CIG 005V011 P0000 $
KWRI 282019Z AUTO 02017G22KT 9SM -DZ BKN009 OVC014 13/11 A2968 RMK AO2 RAB2004E2014DZB2014 BKN V OVC SLP051
KWRI 282030Z AUTO 01016KT 7SM -RA BKN007 OVC012 13/11 A2968 RMK AO2 RAB2004DZB2014E2025 CIG 006V010 SLP051
KNEL 282032Z AUTO 01006KT 2 1/2SM -RA BR BKN007 OVC012 13/12 A2968 RMK AO2 CIG 005V010 P0000 $
KBLM 282035Z AUTO 03015G23KT 5SM BKN010 OVC017 13/11 A2969 RMK AO1 P0001
KWWD 282035Z AUTO 02015G23KT 2 1/2SM BKN008 OVC015 13/12 A2960 RMK AO1 P0007
KWRI 282036Z AUTO 02016KT 5SM -RA BR OVC010 13/11 A2967 RMK AO2 RAB2004DZB2014E2025 OVC V BKN SLP050
KWRI 282036Z AUTO 02016KT 5SM -RA BR OVC010 13/11 A2967 RMK AO2 RAB2004DZB2014E2025 OVC V BKN SLP050
KWRI 282036Z AUTO 02016KT 5SM -RA BR OVC010 13/11 A2967 RMK AO2 RAB2004DZB2014E2025 OVC V BKN SLP050
KWRI 282036Z AUTO 02016KT 5SM -RA BR OVC010 13/11 A2967
KWRI 282036Z AUTO 02016KT 5SM -RA BR OVC010 13/11 A2967 RMK AO2 RAB2004DZB2014E2025 OVC V BKN SLP050
KACY 282037Z 02014G23KT 1 1/2SM -RA BR BKN007 OVC011 13/12 A2963 RMK AO2 SFC VIS 1 3/4 P0008
KWRI 282037Z AUTO 02016KT 5SM -RA BR BKN008 OVC013 13/11 A2967 RMK AO2 RAB2004DZB2014E2025 SLP049
KMMU 282045Z 06011G20KT 10SM OVC026 14/09 A2975
KNEL 282051Z AUTO VRB06KT 4SM -RA BR BKN007 OVC011 13/12 A2968 RMK AO2 CIG 005V009 P0000 $
KNEL 282051Z AUTO VRB06KT 4SM -RA BR BKN007 OVC011 13/12 A2968 RMK AO2 CIG 005V009 P0000 $
KNEL 282051Z AUTO VRB06KT 4SM -RA BR BKN007 OVC011 13/12 A2968 RMK AO2 CIG 005V009 P0000 $
KNEL 282051Z AUTO VRB06KT 4SM -RA BR BKN007 OVC011 13/12 A2968 RMK AO2 CIG 005V009 P0000 $
KNEL 282051Z AUTO VRB06KT 4SM -RA BR BKN007 OVC011 13/12 A2968 RMK AO2 CIG 005V009 P0000 $
KEWR 282051Z 04015G22KT 10SM OVC024 15/09 A2973 RMK AO2 SLP067 T01500094 58011
KTEB 282051Z 03014G24KT 10SM OVC031 15/08 A2973 RMK AO2 SLP068 T01500083 56011 $
KNEL 282051Z AUTO VRB06KT 4SM -RA BR BKN007 OVC011 13/12 A2968 RMK AO2 CIG 005V009 P0000 $
KNEL 282051Z AUTO VRB06KT 4SM -RA BR BKN007 OVC011 13/12 A2968 RMK AO2 CIG 005V009 P0000 $
KFWN 282053Z AUTO 04011G18KT 10SM OVC028 13/08 A2979 RMK AO2 SLP087 T01330078 50003
KCDW 282053Z AUTO 05010G18KT 10SM OVC028 14/08 A2975 RMK AO2 SLP080 T01440083 58008 TSNO
KTTN 282053Z 05012G18KT 10SM SCT022 BKN027 OVC039 14/09 A2970 RMK AO2 SLP051 T01390094 58012
KSMQ 282053Z AUTO 02007KT 10SM OVC028 14/09 A2972 RMK AO2 SLP065 T01440094 58006 TSNO
KMIV 282054Z AUTO 02015G22KT 10SM -RA OVC013 13/11 A2964 RMK AO2 RAB1956 SLP037 P0000 60003 T01280111 $
KVAY 282054Z AUTO 03014G21KT 9SM -RA BKN018 OVC022 13/11 A2968 RMK AO2 RAE09B47 SLP049 P0000 60007 T01330106 56019 TSNO
K12N 282054Z AUTO 04010G14KT 13/08 A2977 RMK AO2 SLP081 T01330083 56005 PWINO TSNO
KACY 282054Z 03017G22KT 1 1/4SM RA BR BKN007 OVC012 13/12 A2963 RMK AO2 TWR VIS 1 1/2 SLP033 P0011 60020 T01330122 58007
KWWD 282055Z AUTO 01015G22KT 6SM SCT008 OVC017 13/12 A2959 RMK AO1 P0010 60018 57020
KBLM 282055Z AUTO 03012G20KT 4SM BKN008 OVC015 13/11 A2969 RMK AO1 P0001 60003 57014
KWRI 282055Z AUTO 02013G20KT 9SM -RA BKN007 OVC012 13/11 A2967 RMK AO2 RAB2004DZB2014E2025 SLP049 P0000 60000 T01260113 58012
KNEL 282100Z AUTO VRB06KT 2 1/2SM -RA BR OVC009 13/12 A2968 RMK AO2 CIG 005V012 P0000 $
KWRI 282107Z AUTO 02014KT 8SM -RA OVC008 13/11 A2967 RMK AO2 OVC V BKN SLP050
KSMQ 282108Z AUTO 04012KT 10SM OVC030 15/09 A2972 RMK AO2 TSNO
KNEL 282110Z AUTO 03006KT 1 1/2SM -RA BR BKN007 OVC011 13/12 A2968 RMK AO2 CIG 006V009 P0000 $
KTEB 282112Z 03009G17KT 10SM OVC028 15/08 A2974 RMK AO2 $
KBLM 282115Z AUTO 04016G23KT 2 1/2SM BKN008 OVC015 13/11 A2969 RMK AO1 VIS 2V4
KWWD 282115Z AUTO 01015G21KT 9SM BKN008 OVC015 13/12 A2958 RMK AO1 P0001
KWRI 282116Z AUTO 01014KT 10SM OVC008 13/11 A2966 RMK AO2 RAE2116 CIG 007V010 SLP046
KWRI 282116Z AUTO 01014KT 10SM OVC008 13/11 A2966
KWRI 282116Z AUTO 01014KT 10SM OVC008 13/11 A2966 RMK AO2 RAE2116 CIG 007V010 SLP046
KWRI 282116Z AUTO 01014KT 10SM OVC008 13/11 A2966 RMK AO2 RAE2116 CIG 007V010 SLP046
KWRI 282116Z AUTO 01014KT 10SM OVC008 13/11 A2966 RMK AO2 RAE2116 CIG 007V010 SLP046
KWRI 282117Z AUTO 01015KT 10SM OVC007 13/11 A2966 RMK AO2 RAE2116 CIG 007V010 SLP046
KWRI 282120Z AUTO 01016KT 9SM -RA OVC007 13/11 A2966 RMK AO2 CIG 006V010 SLP045
KACY 282130Z 02015G24KT 1 3/4SM RA BR SCT007 OVC011 13/12 A2961 RMK AO2 PK WND 04026/2119 SFC VIS 2 P0010
KBLM 282135Z AUTO 04016G21KT 5SM BKN006 OVC014 13/12 A2968 RMK AO1 P0001
KWWD 282135Z AUTO 02013G20KT 9SM BKN010 OVC015 13/12 A2958 RMK AO1 P0003
KVAY 282136Z AUTO 02012G23KT 4SM -RA BR BKN014 BKN019 OVC031 13/11 A2968 RMK AO2 P0003 TSNO
KACY 282137Z 02019G26KT 1 3/4SM RA BR BKN007 OVC013 13/12 A2961 RMK AO2 PK WND 01026/2131 SFC VIS 2 1/2 P0011
KVAY 282144Z AUTO 02009G17KT 8SM -RA BKN015 OVC019 12/11 A2968 RMK AO2 P0003 TSNO
KMMU 282145Z 05013G23KT 10SM OVC026 14/09 A2975
KNEL 282149Z AUTO VRB06G15KT 2SM -RA BR OVC009 13/12 A2966 RMK AO2 CIG 005V013 P0000 $
KTEB 282151Z 03009G16KT 10SM OVC028 14/09 A2974 RMK AO2 SLP071 T01440089 $
KEWR 282151Z 04017G24KT 10SM -DZ BKN023 OVC030 14/10 A2974 RMK AO2 DZB41 SLP069 P0000 T01440100
KSMQ 282153Z AUTO 04011G23KT 10SM OVC030 15/09 A2971 RMK AO2 SLP060 T01500089 TSNO
KTTN 282153Z 06010G17KT 10SM -RA OVC020 13/09 A2970 RMK AO2 RAB52 SLP053 P0000 T01330094
KCDW 282153Z AUTO 05011G22KT 10SM OVC026 14/08 A2976 RMK AO2 SLP083 T01440083 TSNO
KFWN 282153Z AUTO 05012G19KT 10SM OVC026 13/08 A2979 RMK AO2 SLP087 T01330083
KVAY 282154Z AUTO 03013G18KT 10SM -RA OVC013 12/11 A2967 RMK AO2 SLP048 P0003 T01220106 TSNO
KMIV 282154Z AUTO 02015G25KT 6SM -RA BR BKN011 OVC017 13/12 A2961 RMK AO2 SLP027 P0006 T01280117 $
K12N 282154Z AUTO 04008G16KT 320V060 13/08 A2977 RMK AO2 SLP082 T01280083 PWINO TSNO
KACY 282154Z 03016G23KT 1 3/4SM -RA BR OVC009 13/12 A2962 RMK AO2 PK WND 01026/2140 SFC VIS 6 CIG 006V012 SLP028 P0013 T01330117
KWWD 282155Z AUTO 02020G26KT 7SM SCT010 OVC015 13/12 A2958 RMK AO1 P0008
KWRI 282155Z AUTO 01014KT 4SM -RA BR BKN007 OVC011 13/11 A2965 RMK AO2 SLP042 P0000 T01260115
KBLM 282155Z AUTO 03013G22KT 4SM BKN008 OVC014 13/12 A2968 RMK AO1 P0001
KNEL 282200Z AUTO 05008G14KT 2SM -RA BR BKN009 OVC012 13/12 A2967 RMK AO2 CIG 005V010 SLP045 P0000 T01280122 $
KWRI 282208Z AUTO 02013KT 8SM R06/5500VP6000FT -RA OVC008 13/12 A2965 RMK AO2 OVC V BKN SLP043
KWRI 282214Z AUTO 02014G19KT 9SM R06/5500VP6000FT OVC008 13/12 A2965 RMK AO2 RAE2214 OVC V BKN SLP043
KWWD 282215Z AUTO 02018G27KT 7SM SCT010 OVC017 13/12 A2957 RMK AO1 P0004
KNEL 282215Z AUTO 04006G15KT 1 1/4SM -RA BR BKN007 OVC012 13/12 A2967 RMK AO2 CIG 005V011 P0000 $
KBLM 282215Z AUTO 04015G21KT 10SM FEW008 BKN015 OVC021 13/12 A2968 RMK AO1
KWRI 282222Z AUTO 02016G19KT 7SM R06/5000V5500FT OVC008 13/12 A2966 RMK AO2 RAE2214 OVC V BKN SLP044
KWRI 282222Z AUTO 02016G19KT 7SM R06/5000V5500FT OVC008 13/12 A2966 RMK AO2 RAE2214 OVC V BKN SLP044
KWRI 282225Z AUTO 02016G23KT 6SM R06/4500V5500FT -RA BR BKN006 OVC010 13/12 A2966 RMK AO2 CIG 005V009 SLP044
KWRI 282225Z AUTO 02016G23KT 6SM R06/4500V5500FT -RA BR BKN006 OVC010 13/12 A2966 RMK AO2 CIG 005V009 SLP044
KWRI 282227Z AUTO 02015G23KT 5SM R06/4000V5500FT -RA BR OVC008 13/12 A2966 RMK AO2 CIG 005V010 OVC V BKN SLP044
KWRI 282227Z AUTO 02015G23KT 5SM R06/4000V5500FT -RA BR OVC008 13/12 A2966 RMK AO2 CIG 005V010 OVC V BKN SLP044
KWRI 282229Z AUTO 03015G23KT 4SM R06/4000V5500FT -RA BR BKN006 OVC010 13/12 A2966 RMK AO2 CIG 004V009 SLP044
KNEL 282231Z AUTO 04010G16KT 020V090 3SM -RA BR SCT007 OVC012 13/12 A2966 RMK AO2 P0000 $
KWRI 282232Z AUTO 02012G23KT 4SM R06/4000V5000FT -RA BR BKN006 OVC010 13/12 A2965 RMK AO2 CIG 004V009 SLP044
KWRI 282232Z AUTO 02012G23KT 4SM R06/4000V5000FT -RA BR BKN006 OVC010 13/12 A2965 RMK AO2 CIG 004V009 SLP044
KWRI 282232Z AUTO 02012G23KT 4SM R06/4000V5000FT -RA BR BKN006 OVC010 13/12 A2965 RMK AO2 CIG 004V009 SLP044
KWRI 282232Z AUTO 02012G23KT 4SM R06/4000V5000FT -RA BR BKN006 OVC010 13/12 A2965 RMK AO2 CIG 004V009 SLP044
KWRI 282232Z AUTO 02012G23KT 4SM R06/4000V5000FT -RA BR BKN006 OVC010 13/12 A2965
KWRI 282233Z AUTO 03014G23KT 3SM R06/4000V4500FT -RA BR BKN006 OVC010 13/12 A2965 RMK AO2 CIG 004V009 SLP044
KWRI 282233Z AUTO 03014G23KT 3SM R06/4000V4500FT -RA BR BKN006 OVC010 13/12 A2965 RMK AO2 CIG 004V009 SLP044
KWRI 282235Z AUTO 02016G21KT 3SM R06/4000V4500FT -RA BR OVC008 13/12 A2965 RMK AO2 CIG 004V011 SLP043
KWRI 282235Z AUTO 02016G21KT 3SM R06/4000V4500FT -RA BR OVC008 13/12 A2965 RMK AO2 CIG 004V011 SLP043
KWRI 282235Z AUTO 02016G21KT 3SM R06/4000V4500FT -RA BR OVC008 13/12 A2965 RMK AO2 CIG 004V011 SLP043
KWWD 282235Z AUTO 02016G23KT 8SM SCT008 OVC017 13/12 A2957 RMK AO1 P0012
KBLM 282235Z AUTO 03013G22KT 10SM OVC019 14/11 A2968 RMK AO1
KWRI 282236Z AUTO 02014G21KT 3SM R06/4000V4500FT -RA BR OVC007 13/12 A2965
KWRI 282236Z AUTO 02014G21KT 3SM R06/4000V4500FT -RA BR OVC007 13/12 A2965 RMK AO2 CIG 004V010 SLP044
KWRI 282236Z AUTO 02014G21KT 3SM R06/4000V4500FT -RA BR OVC007 13/12 A2965 RMK AO2 CIG 004V010 SLP044
KWRI 282236Z AUTO 02014G21KT 3SM R06/4000V4500FT -RA BR OVC007 13/12 A2965 RMK AO2 CIG 004V010 SLP044
KWRI 282236Z AUTO 02014G21KT 3SM R06/4000V4500FT -RA BR OVC007 13/12 A2965 RMK AO2 CIG 004V010 SLP044
KWRI 282238Z AUTO 02014G21KT 4SM R06/4000V5000FT -RA BR BKN007 OVC012 13/12 A2965 RMK AO2 CIG 004V010 BKN V OVC SLP043
KWRI 282238Z AUTO 02014G21KT 4SM R06/4000V5000FT -RA BR BKN007 OVC012 13/12 A2965 RMK AO2 CIG 004V010 BKN V OVC SLP043
KWRI 282242Z AUTO 02016G21KT 5SM R06/4000V5000FT -RA BR BKN006 OVC011 13/12 A2965 RMK AO2 CIG 004V009 SLP043
KWRI 282242Z AUTO 02016G21KT 5SM R06/4000V5000FT -RA BR BKN006 OVC011 13/12 A2965 RMK AO2 CIG 004V009 SLP043
KMMU 282245Z 05013G25KT 10SM OVC024 14/07 A2974
KTEB 282251Z 02012G17KT 10SM OVC028 14/09 A2972 RMK AO2 SLP063 T01440089 $
KEWR 282251Z 02018KT 10SM OVC023 14/10 A2972 RMK AO2 DZE02 SLP064 P0000 T01440100
KWRI 282252Z AUTO 02016G26KT 6SM R06/5000V5500FT -RA BR BKN006 OVC011 13/12 A2965 RMK AO2 PK WND 01026/2247 CIG 004V009 SLP041
KSMQ 282253Z AUTO 03008G22KT 360V060 10SM OVC030 14/09 A2971 RMK AO2 SLP060 T01440089 TSNO
KTTN 282253Z 05009G19KT 10SM OVC026 13/09 A2968 RMK AO2 RAE52 SLP044 P0002 T01330094
KCDW 282253Z AUTO 04013G17KT 10SM OVC026 14/08 A2974 RMK AO2 PK WND 07028/2220 SLP074 T01390083 TSNO
KFWN 282253Z AUTO 04010G16KT 10SM OVC026 13/08 A2977 RMK AO2 SLP082 T01330078
K12N 282254Z AUTO 03009G19KT 12/09 A2976 RMK AO2 SLP076 T01220089 PWINO TSNO
KVAY 282254Z AUTO 03010KT 4SM -RA BR BKN013 OVC020 12/11 A2966 RMK AO2 SLP044 P0002 T01220111 TSNO
KMIV 282254Z AUTO 02014G23KT 10SM -RA OVC011 13/11 A2961 RMK AO2 SLP027 P0001 T01280111 $
KACY 282254Z 03018G25KT 1 3/4SM -RA BR BKN009 OVC012 13/12 A2961 RMK AO2 PK WND 04030/2215 SFC VIS 4 CIG 006V011 SLP026 P0010 T01330122
KWRI 282255Z AUTO 02012G26KT 7SM R06/5000VP6000FT -RA OVC006 13/12 A2964
KWRI 282255Z AUTO 02012G26KT 7SM R06/5000VP6000FT -RA OVC006 13/12 A2964 RMK AO2 PK WND 01026/2247 CIG 004V010 OVC V BKN SLP040 P0001 T01270116
KBLM 282255Z AUTO 04013G21KT 10SM OVC019 14/11 A2967 RMK AO1
KWWD 282255Z AUTO 02016G23KT 8SM SCT010 OVC017 13/12 A2956 RMK AO1 P0017
KWRI 282256Z AUTO 02012G26KT 7SM R06/5000VP6000FT -RA OVC008 13/12 A2964 RMK AO2 CIG 004V010 OVC V BKN SLP040
KNEL 282300Z AUTO 04010G16KT 3SM BR SCT009 BKN013 OVC021 13/12 A2965 RMK AO2 RAE2253 P0000 $
KVAY 282302Z AUTO 03009KT 4SM -RA BR BKN015 OVC020 12/11 A2967 RMK AO2 P0001 TSNO
KWRI 282306Z AUTO 02013KT 10SM BKN008 OVC014 13/12 A2964 RMK AO2 RAE2306 CIG 006V011 SLP040
KWRI 282306Z AUTO 02013KT 10SM BKN008 OVC014 13/12 A2964 RMK AO2 RAE2306 CIG 006V011 SLP040
KNEL 282307Z AUTO 05009G16KT 3SM BR SCT009 BKN014 OVC021 13/12 A2966 RMK AO2 RAE2253 SLP041 P0000 T01280122 $
KNEL 282307Z AUTO 05009G16KT 3SM BR SCT009 BKN014 OVC021 13/12 A2966 RMK AO2 RAE2253 SLP041 P0000 T01280122 $
KNEL 282307Z AUTO 05009G16KT 3SM BR SCT009 BKN014 OVC021 13/12 A2966 RMK AO2 RAE2253 SLP041 P0000 T01280122 $
KNEL 282307Z AUTO 05009G16KT 3SM BR SCT009 BKN014 OVC021 13/12 A2966 RMK AO2 RAE2253 SLP041 P0000 T01280122 $
KNEL 282307Z AUTO 05009G16KT 3SM BR SCT009 BKN014 OVC021 13/12 A2966 RMK AO2 RAE2253 SLP041 P0000 T01280122 $
KWRI 282310Z AUTO 02014KT 10SM OVC010 13/12 A2965 RMK AO2 RAE2306 CIG 006V012 OVC V BKN SLP041
KWRI 282310Z AUTO 02014KT 10SM OVC010 13/12 A2965 RMK AO2 RAE2306 CIG 006V012 OVC V BKN SLP041
KSMQ 282311Z AUTO 03012G20KT 10SM OVC028 14/09 A2970 RMK AO2 TSNO
KWRI 282312Z AUTO 02013KT 10SM R06/5500VP6000FT OVC009 13/12 A2965 RMK AO2 RAE2306 CIG 006V012 OVC V BKN SLP041
KWWD 282315Z AUTO 02014G25KT 9SM SCT012 OVC017 13/12 A2956 RMK AO1 P0006
KBLM 282315Z AUTO 05022G31KT 10SM OVC021 14/11 A2967 RMK AO1
KWRI 282317Z AUTO 02010KT 8SM R06/5000VP6000FT -RA BKN008 OVC012 13/12 A2965 RMK AO2 SLP041
KWRI 282317Z AUTO 02010KT 8SM R06/5000VP6000FT -RA BKN008 OVC012 13/12 A2965 RMK AO2 SLP041
KVAY 282319Z AUTO 02009KT 4SM -RA BR BKN012 OVC019 12/11 A2967 RMK AO2 P0001 TSNO
KWRI 282321Z AUTO 01011KT 7SM R06/5000V5500FT -RA BKN008 OVC013 13/12 A2965
KWRI 282321Z AUTO 01011KT 7SM R06/5000V5500FT -RA BKN008 OVC013 13/12 A2965 RMK AO2 SLP041
KNEL 282324Z AUTO 04005G15KT 2 1/2SM -RA BR BKN013 OVC019 13/12 A2966 RMK AO2 RAB18 P0000 $
KWRI 282327Z AUTO 02014KT 7SM R06/5000V5500FT -RA BKN010 OVC017 13/12 A2965 RMK AO2 BKN V OVC SLP041
KWRI 282327Z AUTO 02014KT 7SM R06/5000V5500FT -RA BKN010 OVC017 13/12 A2965 RMK AO2 BKN V OVC SLP041
KWRI 282327Z AUTO 02014KT 7SM R06/5000V5500FT -RA BKN010 OVC017 13/12 A2965 RMK AO2 BKN V OVC SLP041
KWRI 282329Z AUTO 02015G20KT 8SM R06/5500VP6000FT BKN008 OVC012 13/12 A2965 RMK AO2 RAE2329 OVC V BKN SLP040
KWRI 282329Z AUTO 02015G20KT 8SM R06/5500VP6000FT BKN008 OVC012 13/12 A2965 RMK AO2 RAE2329 OVC V BKN SLP040
KWRI 282331Z AUTO 02015G20KT 8SM R06/5500VP6000FT OVC011 13/12 A2964 RMK AO2 RAE2329 OVC V BKN SLP040
KWRI 282332Z AUTO 02015G22KT 9SM R06/5500VP6000FT OVC010 13/12 A2964 RMK AO2 RAE2329 OVC V BKN SLP040
KFWN 282333Z AUTO 04010G17KT 10SM OVC030 13/08 A2976 RMK AO2
KBLM 282335Z AUTO 04019G23KT 10SM OVC021 14/11 A2967 RMK AO1
KWWD 282335Z AUTO 02018G25KT 10SM SCT010 OVC017 13/12 A2955 RMK AO1 P0013
KWRI 282337Z AUTO 02017G22KT 10SM R06/5500VP6000FT BKN008 OVC013 13/12 A2964 RMK AO2 RAE2329 SLP040
KWRI 282337Z AUTO 02017G22KT 10SM R06/5500VP6000FT BKN008 OVC013 13/12 A2964 RMK AO2 RAE2329 SLP040
KWRI 282337Z AUTO 02017G22KT 10SM R06/5500VP6000FT BKN008 OVC013 13/12 A2964 RMK AO2 RAE2329 SLP040
KWRI 282339Z AUTO 02012G22KT 9SM R06/5000VP6000FT -RA BKN008 OVC013 13/12 A2964 RMK AO2 SLP040
KWRI 282342Z AUTO 02015G22KT 8SM R06/5000VP6000FT -RA OVC011 13/12 A2964 RMK AO2 SLP040
KWRI 282342Z AUTO 02015G22KT 8SM R06/5000VP6000FT -RA OVC011 13/12 A2964 RMK AO2 SLP040
KWRI 282342Z AUTO 02015G22KT 8SM R06/5000VP6000FT -RA OVC011 13/12 A2964 RMK AO2 SLP040
KWRI 282344Z AUTO 02015KT 8SM R06/5000VP6000FT -RA SCT008 OVC013 13/12 A2964 RMK AO2 SLP039
KMMU 282345Z 05012G22KT 7SM OVC025 14/09 A2973
KWRI 282351Z AUTO 03016G24KT 9SM R06/5500VP6000FT OVC011 13/11 A2964 RMK AO2 RAE2351 SLP038
KEWR 282351Z 04015G26KT 10SM OVC026 14/09 A2971 RMK AO2 PK WND 03026/2347 SLP059 60000 T01440094 10156 20144 58007
KTEB 282351Z 03011G19KT 10SM OVC031 14/08 A2972 RMK AO2 SLP063 T01440083 10156 20144 58005 $
KFWN 282353Z AUTO 05012G25KT 10SM BKN026 OVC032 13/08 A2976 RMK AO2 SLP079 T01330078 10139 20128 58008
KCDW 282353Z AUTO 05011G20KT 10SM OVC028 14/08 A2973 RMK AO2 PK WND 07026/2334 SLP073 T01390083 10144 20139 58007 TSNO
KSMQ 282353Z AUTO 03009G19KT 10SM OVC030 14/09 A2970 RMK AO2 SLP057 T01440089 10150 20144 56008 TSNO
KTTN 282353Z 05011G18KT 10SM -RA BKN019 OVC024 13/10 A2968 RMK AO2 RAB43 SLP044 P0000 60002 T01280100 10144 20128 58007
K12N 282354Z AUTO 04008G17KT 13/08 A2975 RMK AO2 SLP073 T01280083 10133 20122 58009 PWINO TSNO
KVAY 282354Z AUTO 02013G19KT 9SM BKN013 OVC019 13/11 A2966 RMK AO2 RAE25 SLP042 P0001 60013 T01280111 10150 20122 58007 TSNO
KMIV 282354Z AUTO 01014G22KT 4SM RA BR BKN009 OVC014 13/12 A2959 RMK AO2 PK WND 03028/2318 SLP020 P0012 60022 T01280117 10139 20128 56017 $
KACY 282354Z 03020G27KT 1 3/4SM -RA BR OVC009 13/12 A2959 RMK AO2 PK WND 03030/2336 SFC VIS 4 CIG 007V013 SLP018 P0009 60052 T01330117 10139 20133 58016
KBLM 282355Z AUTO 04017G25KT 10SM OVC021 14/11 A2966 RMK AO1 60004 10140 20130 401500130 57010
KWWD 282355Z AUTO 02019G27KT 10SM BKN012 OVC017 14/12 A2954 RMK AO1 P0021 60064 10140 20130 57017
KWRI 282355Z AUTO 03017G24KT 10SM R06/5500VP6000FT BKN011 OVC017 13/11 A2964 RMK AO2 RAE2351 BKN V OVC SLP038 P0000 60001 T01280114 10146 20125 56011
KWRI 290006Z AUTO 02016KT 10SM OVC010 13/11 A2963 RMK AO2 CIG 006V013 OVC V BKN SLP037
KWRI 290009Z AUTO 02017KT 10SM OVC012 13/11 A2963 RMK AO2 CIG 008V016 SLP036
KSMQ 290014Z AUTO 05008G14KT 360V080 10SM OVC028 14/09 A2970 RMK AO2 TSNO
KBLM 290015Z AUTO 03018G24KT 10SM OVC021 14/11 A2966 RMK AO1
KWWD 290015Z AUTO 03020G30KT 10SM SCT010 OVC017 14/12 A2954 RMK AO1 P0006
KCDW 290016Z AUTO 06009G19KT 10SM OVC032 14/08 A2973 RMK AO2 TSNO
KSMQ 290033Z AUTO 03009G22KT 10SM OVC030 14/09 A2969 RMK AO2 TSNO
KBLM 290035Z AUTO 04015G25KT 10SM OVC021 14/10 A2965 RMK AO1
KWWD 290035Z AUTO 02020G29KT 10SM SCT010 OVC017 14/12 A2953 RMK AO1 P0011
KWRI 290037Z AUTO 02015G21KT 10SM SCT011 OVC022 13/11 A2962 RMK AO2 CIG 011 RWY24 SLP031
KACY 290039Z 03016G27KT 1 3/4SM -RA BR BKN008 OVC013 13/12 A2958 RMK AO2 PK WND 04033/0020 SFC VIS 2 1/2 CIG 005V009 P0002
KMMU 290045Z 05010G16KT 7SM OVC028 14/09 A2972
KTEB 290051Z 04013G19KT 10SM OVC033 14/08 A2971 RMK AO2 SLP059 T01440083 $
KEWR 290051Z 04020G26KT 10SM OVC029 14/09 A2970 RMK AO2 PK WND 02028/0014 SLP057 T01440089
KTTN 290053Z 05012G20KT 10SM BKN021 BKN027 OVC033 13/09 A2965 RMK AO2 PK WND 05027/0037 RAE2355 SLP034 P0000 T01330094
KCDW 290053Z AUTO 04009G15KT 10SM OVC030 14/08 A2972 RMK AO2 SLP070 T01390083 TSNO
KSMQ 290053Z AUTO 05012G18KT 10SM OVC030 14/09 A2968 RMK AO2 SLP052 T01440089 TSNO
KFWN 290053Z AUTO 03011G18KT 10SM OVC026 13/08 A2975 RMK AO2 PK WND 02026/0005 SLP073 T01280078
KVAY 290054Z AUTO 02012G18KT 10SM BKN014 BKN020 OVC025 13/11 A2963 RMK AO2 SLP034 T01280111 TSNO
KACY 290054Z 03018G25KT 1 3/4SM -RA BR BKN008 OVC012 13/12 A2957 RMK AO2 PK WND 04033/0020 SFC VIS 3 SLP012 P0003 T01330122
KMIV 290054Z AUTO 03015G22KT 4SM RA BR BKN009 OVC014 13/12 A2957 RMK AO2 PK WND 01030/0031 CIG 006V011 SLP013 P0013 T01280117 $
K12N 290054Z AUTO 05009G18KT 13/08 A2974 RMK AO2 SLP071 T01280083 PWINO TSNO
KWWD 290055Z AUTO 03021G32KT 8SM BKN010 OVC017 14/12 A2953 RMK AO1 P0015
KWRI 290055Z AUTO 02013G22KT 10SM OVC022 13/11 A2961 RMK AO2 CIG 017V026 SLP030 T01330109
KBLM 290055Z AUTO 04019G30KT 10SM BKN021 OVC029 14/10 A2964 RMK AO1
KNEL 290100Z AUTO 05013G20KT 10SM OVC022 14/11 A2962 RMK AO2 SLP030 T01390106 $
KVAY 290106Z AUTO 02010G19KT 10SM BKN017 OVC024 13/11 A2963 RMK AO2 TSNO
KACY 290113Z 03022G34KT 1 3/4SM -RA BR BKN010 OVC015 13/12 A2957 RMK AO2 PK WND 03034/0104 SFC VIS 2 1/2 CIG 006V011 P0000
KBLM 290115Z AUTO 03015G25KT 10SM BKN023 BKN029 OVC041 14/09 A2963 RMK AO1
KWWD 290115Z AUTO 03018G35KT 5SM BKN010 OVC017 14/12 A2953 RMK AO1 P0004
KCDW 290133Z AUTO 06012G21KT 10SM OVC028 14/08 A2971 RMK AO2 TSNO
KBLM 290135Z AUTO 04020G25KT 10SM BKN023 OVC029 14/09 A2963 RMK AO1
KWWD 290135Z AUTO 03023G32KT 9SM BKN013 OVC018 14/12 A2954 RMK AO1 P0008
KACY 290145Z 03017G27KT 1 3/4SM RA BR SCT010 OVC015 13/12 A2958 RMK AO2 PK WND 03034/0104 SFC VIS 4 P0006
KMMU 290145Z 05012G17KT 7SM OVC025 14/09 A2970
KEWR 290151Z 03017G30KT 10SM OVC029 14/08 A2968 RMK AO2 PK WND 04030/0146 SLP050 T01440083
KTEB 290151Z 05013G25KT 10SM BKN031 OVC041 14/08 A2968 RMK AO2 SLP050 T01440078 $
KTTN 290153Z AUTO 06018G24KT 10SM SCT026 OVC035 14/09 A2964 RMK AO2 SLP030 T01390089
KSMQ 290153Z AUTO VRB05G19KT 10SM OVC034 14/08 A2966 RMK AO2 SLP044 T01440083 TSNO
KFWN 290153Z AUTO 03009G21KT 10SM OVC028 13/08 A2973 RMK AO2 SLP067 T01280078
KCDW 290153Z AUTO 05011G20KT 10SM BKN028 OVC036 14/08 A2970 RMK AO2 SLP064 T01390078 TSNO
K12N 290154Z AUTO 04008G17KT 13/08 A2972 RMK AO2 SLP064 T01280083 PWINO TSNO
KACY 290154Z 03018G28KT 1 3/4SM RA BR SCT010 OVC015 13/12 A2958
KVAY 290154Z AUTO 04010G18KT 10SM OVC028 14/10 A2963 RMK AO2 SLP032 T01390100 TSNO
KACY 290154Z 03018G28KT 1 3/4SM RA BR SCT010 OVC015 13/12 A2958 RMK AO2 PK WND 03034/0104 SFC VIS 2 1/2 SLP017 P0007 T01330117
KMIV 290154Z AUTO 03016G24KT 4SM RA BR OVC012 13/12 A2958 RMK AO2 PK WND 03027/0105 SLP017 P0005 T01280117 $
KBLM 290155Z AUTO 04018G25KT 10SM BKN023 BKN030 OVC045 14/09 A2964 RMK AO1
KWRI 290155Z AUTO 03019G25KT 10SM OVC026 14/10 A2961 RMK AO2 PK WND 02027/0128 CIG 024V030 SLP028 T01370098
KWWD 290155Z AUTO 02015G27KT 5SM SCT013 OVC018 14/12 A2953 RMK AO1 P0015
KACY 290159Z 03017G28KT 1 3/4SM -RA BR FEW008 OVC014 13/12 A2958 RMK AO2 SFC VIS 2 P0001
KCDW 290204Z AUTO 05009G19KT 10SM OVC030 14/08 A2970 RMK AO2 TSNO
KVAY 290211Z AUTO 04013G21KT 10SM OVC030 14/09 A2962 RMK AO2 TSNO
KACY 290214Z 03015G30KT 1 3/4SM -RA BR FEW010 BKN016 OVC025 13/11 A2956 RMK AO2 PK WND 03030/0209 SFC VIS 4 PRESFR P0003
KWWD 290215Z AUTO 03018G29KT 10SM BKN011 OVC018 13/12 A2952 RMK AO1 P0002
KBLM 290215Z AUTO 04016G27KT 10SM SCT025 BKN030 OVC046 14/09 A2962 RMK AO1
KEWR 290226Z 04022G33KT 10SM OVC032 14/08 A2968 RMK AO2 PK WND 04033/0224
KFWN 290233Z AUTO 04010G17KT 10SM OVC032 13/08 A2972 RMK AO2
KBLM 290235Z AUTO 05015G30KT 10SM FEW025 BKN032 OVC042 14/09 A2963 RMK AO1
KWWD 290235Z AUTO 03023G32KT 10SM BKN013 BKN020 OVC026 13/11 A2951 RMK AO1 P0004
KTTN 290241Z AUTO 06012G22KT 10SM BKN029 OVC037 13/08 A2963 RMK AO2 PK WND 06026/0156
KTEB 290251Z 05013G24KT 10SM OVC031 14/07 A2968 RMK AO2 SLP049 T01440072 56014 $
KEWR 290251Z 04013G31KT 10SM OVC032 14/08 A2967 RMK AO2 PK WND 04033/0224 SLP047 T01440083 58012
KFWN 290253Z AUTO 04012G19KT 10SM BKN030 OVC036 13/08 A2971 RMK AO2 SLP061 T01280078 58017
KCDW 290253Z AUTO 05011G20KT 10SM BKN030 OVC037 13/07 A2969 RMK AO2 SLP058 T01330072 58015 TSNO
KTTN 290253Z AUTO 07012G28KT 10SM SCT029 BKN037 14/08 A2964 RMK AO2 PK WND 06028/0246 SLP030 60000 T01390083 56004
KSMQ 290253Z AUTO 05010G18KT 10SM BKN034 OVC041 14/08 A2965 RMK AO2 SLP041 T01440083 56015 TSNO
K12N 290254Z AUTO VRB06KT 12/08 A2969 RMK AO2 SLP055 T01220083 58018 PWINO TSNO
KVAY 290254Z AUTO 04012G21KT 10SM BKN033 OVC042 14/09 A2961 RMK AO2 SLP027 T01390089 56015 TSNO
KMIV 290254Z AUTO 04015G24KT 6SM RA BR BKN014 OVC021 13/11 A2956 RMK AO2 SLP009 P0008 60026 T01280111 58010 $
KACY 290254Z 03016G28KT 10SM OVC020 13/11 A2955 RMK AO2 PK WND 04030/0244 RAE20 SLP006 P0003 60013 T01330106 58011
KWRI 290255Z AUTO 02018G26KT 10SM OVC028 14/09 A2960 RMK AO2 PK WND 04029/0233 CIG 025V030 SLP026 T01370091 56012
KWWD 290255Z AUTO 02021G30KT 8SM SCT013 OVC020 13/11 A2950 RMK AO1 P0008 60038 57014
KMMU 290255Z AUTO 05009G18KT 10SM OVC030 13/09 A2968 RMK AO2
KBLM 290255Z AUTO 04021G29KT 10SM BKN030 OVC036 14/09 A2962 RMK AO1 57014
KNEL 290300Z AUTO 05015G27KT 10SM OVC028 14/09 A2959 RMK AO2 PK WND 06027/0255 PRESFR SLP019 60000 T01390089 56014 $
KWRI 290312Z AUTO 03021G24KT 10SM BKN030 OVC039 14/09 A2957 RMK AO2 PK WND 03026/0258 SLP016
KBLM 290315Z AUTO 04018G27KT 10SM FEW028 BKN035 OVC045 13/09 A2962 RMK AO1
KMMU 290315Z AUTO 05011G24KT 10SM OVC028 13/09 A2968 RMK AO2
KWWD 290315Z AUTO 02018G28KT 10SM SCT011 OVC018 13/11 A2949 RMK AO1 P0006
KWRI 290315Z AUTO 02019G24KT 10SM BKN029 OVC041 14/09 A2957 RMK AO2 PK WND 03026/0258 CIG 026V030 SLP016
KNEL 290316Z AUTO 05010G25KT 10SM OVC030 14/09 A2959 RMK AO2 $
KWRI 290320Z AUTO 02023G28KT 10SM BKN031 OVC041 14/09 A2958 RMK AO2 PK WND 01028/0319 SLP017
KWRI 290320Z AUTO 02023G28KT 10SM BKN031 OVC041 14/09 A2958 RMK AO2 PK WND 01028/0319 SLP017
KWRI 290321Z AUTO 02020G28KT 10SM BKN029 OVC041 14/09 A2958 RMK AO2 PK WND 01028/0319 CIG 027V030 SLP017
KWRI 290321Z AUTO 02020G28KT 10SM BKN029 OVC041 14/09 A2958 RMK AO2 PK WND 01028/0319 CIG 027V030 SLP017
KWRI 290321Z AUTO 02020G28KT 10SM BKN029 OVC041 14/09 A2958 RMK AO2 PK WND 01028/0319 CIG 027V030 SLP017
KWRI 290321Z AUTO 02020G28KT 10SM BKN029 OVC041 14/09 A2958 RMK AO2 PK WND 01028/0319 CIG 027V030 SLP017
KWRI 290322Z AUTO 03018G28KT 10SM BKN031 OVC041 14/09 A2958
KWRI 290322Z AUTO 03018G28KT 10SM BKN031 OVC041 14/09 A2958 RMK AO2 PK WND 01028/0319 SLP017
KWRI 290322Z AUTO 03018G28KT 10SM BKN031 OVC041 14/09 A2958 RMK AO2 PK WND 01028/0319 SLP017
KMIV 290323Z AUTO 02016G26KT 10SM BKN016 OVC024 12/11 A2954 RMK AO2 PK WND 03026/0320 RAE18 P0001 $
KCDW 290330Z AUTO 06012G25KT 10SM OVC028 13/07 A2969 RMK AO2 PK WND 07026/0316 TSNO
KMMU 290335Z AUTO 05009G20KT 10SM OVC028 13/09 A2968 RMK AO2
KBLM 290335Z AUTO 05017G25KT 10SM BKN027 BKN033 OVC045 13/08 A2960 RMK AO1
KWWD 290335Z AUTO 03021G31KT 10SM BKN018 OVC023 13/11 A2949 RMK AO1 P0008
KFWN 290338Z AUTO 04012G22KT 10SM BKN028 OVC036 12/07 A2970 RMK AO2
KWRI 290338Z AUTO 03017G25KT 10SM BKN029 BKN036 OVC042 14/09 A2959 RMK AO2 PK WND 01028/0319 CIG 027V030 SLP020
KWRI 290339Z AUTO 02019G25KT 10SM BKN031 OVC042 14/09 A2958 RMK AO2 PK WND 01028/0319 SLP020
KVAY 290340Z AUTO 05010G22KT 010V070 10SM BKN028 OVC038 14/09 A2960 RMK AO2 PK WND 04028/0306 TSNO
KWRI 290343Z AUTO 03017G24KT 10SM -RA BKN029 BKN034 OVC042 14/09 A2958 RMK AO2 PK WND 01028/0319 RAB0343 CIG 027V030 SLP018
KNEL 290346Z AUTO 06013G23KT 10SM OVC028 14/09 A2959 RMK AO2 $
KEWR 290351Z 04018G25KT 10SM OVC030 14/08 A2966 RMK AO2 PK WND 04026/0334 SLP044 T01390078
KTEB 290351Z 03008G18KT 10SM SCT028 OVC037 13/08 A2967 RMK AO2 PK WND 05026/0307 SLP046 T01330078 $
KWRI 290352Z AUTO 03015G24KT 10SM OVC028 13/09 A2958 RMK AO2 PK WND 01028/0319 RAB0343E0352 CIG 026V030 SLP018
KWRI 290352Z AUTO 03015G24KT 10SM OVC028 13/09 A2958
KWRI 290352Z AUTO 03015G24KT 10SM OVC028 13/09 A2958 RMK AO2 PK WND 01028/0319 RAB0343E0352 CIG 026V030 SLP018
KWRI 290352Z AUTO 03015G24KT 10SM OVC028 13/09 A2958 RMK AO2 PK WND 01028/0319 RAB0343E0352 CIG 026V030 SLP018
KWRI 290352Z AUTO 03015G24KT 10SM OVC028 13/09 A2958 RMK AO2 PK WND 01028/0319 RAB0343E0352 CIG 026V030 SLP018
KSMQ 290353Z AUTO 05011G18KT 10SM OVC034 14/08 A2965 RMK AO2 SLP039 T01390078 TSNO
KCDW 290353Z AUTO 05012G23KT 10SM BKN025 OVC033 13/08 A2968 RMK AO2 PK WND 07026/0316 SLP057 T01280078 TSNO
KFWN 290353Z AUTO 04013G19KT 10SM OVC028 12/07 A2970 RMK AO2 SLP056 T01220072
KTTN 290353Z AUTO 07021G30KT 10SM BKN033 OVC042 14/08 A2962 RMK AO2 PK WND 07030/0352 SLP023 T01390078
KACY 290354Z 03019G30KT 10SM OVC022 13/10 A2953 RMK AO2 PK WND 03031/0324 RAB0256E15B31E48 SLP998 P0001 T01280100
KMIV 290354Z AUTO 03015G32KT 10SM -RA FEW019 OVC025 13/10 A2954 RMK AO2 PK WND 02032/0347 SLP001 P0002 T01280100 $
KVAY 290354Z AUTO 03013G25KT 10SM SCT028 BKN038 OVC044 14/09 A2960 RMK AO2 PK WND 04028/0306 SLP022 T01390089 TSNO
K12N 290354Z AUTO 05007G14KT 12/07 A2969 RMK AO2 SLP053 T01220072 PWINO TSNO
KWWD 290355Z AUTO 02020G27KT 10SM BKN014 OVC021 13/11 A2948 RMK AO1 P0012
KBLM 290355Z AUTO 03020G32KT 10SM SCT027 OVC045 14/08 A2959 RMK AO1
KWRI 290355Z AUTO 02019G24KT 10SM OVC028 13/09 A2958 RMK AO2 PK WND 01028/0319 RAB0343E0352 CIG 026V030 SLP016 P0000 T01340088
KMMU 290355Z AUTO 04013G18KT 10SM BKN026 OVC036 13/09 A2967 RMK AO2
KNEL 290400Z AUTO 05014G21KT 10SM OVC028 14/09 A2959 RMK AO2 PK WND 05027/0349 SLP017 T01390089 $
KMMU 290415Z AUTO 04012G22KT 10SM SCT025 OVC034 12/09 A2967 RMK AO2
KBLM 290415Z AUTO 04020G31KT 10SM SCT029 BKN034 OVC045 13/07 A2959 RMK AO1
KWWD 290415Z AUTO 02020G27KT 10SM SCT016 OVC023 13/11 A2946 RMK AO1 P0004
KCDW 290427Z AUTO 04010G15KT 10SM OVC030 13/07 A2967 RMK AO2 TSNO
KMMU 290435Z AUTO 03009G16KT 10SM BKN025 OVC032 12/08 A2966 RMK AO2
KWWD 290435Z AUTO 03023G30KT 9SM SCT014 OVC021 13/10 A2945 RMK AO1 P0006
KMIV 290435Z AUTO 03020G28KT 9SM -RA FEW027 SCT050 OVC100 12/10 A2950 RMK AO2 PK WND 02028/0434 P0004 $
KBLM 290435Z AUTO 03018G26KT 10SM SCT029 BKN033 OVC040 13/07 A2958 RMK AO1
KEWR 290444Z 02019G24KT 10SM OVC028 13/08 A2963 RMK AO2 PK WND 03028/0354 DZB23E36 P0000
KTEB 290451Z 02010G24KT 10SM OVC032 13/07 A2963 RMK AO2 SLP034 T01330072 401560133 $
KEWR 290451Z 03016G24KT 10SM OVC028 13/08 A2963 RMK AO2 PK WND 03028/0354 DZB23E36 SLP033 P0000 T01330083 401560133
KFWN 290453Z AUTO 04011G17KT 10SM OVC028 12/07 A2969 RMK AO2 SLP053 T01220067 401390122
KCDW 290453Z AUTO 05010G20KT 10SM OVC030 13/07 A2965 RMK AO2 SLP046 T01280067 401500128 TSNO
KSMQ 290453Z AUTO 04015G19KT 10SM FEW030 OVC037 13/08 A2962 RMK AO2 SLP029 T01330078 401500133 TSNO
KTTN 290453Z AUTO 05016G21KT 10SM OVC031 13/08 A2959 RMK AO2 PK WND 07026/0354 RAB15E26 SLP015 P0000 T01330078 401440128
K12N 290454Z AUTO 04010G15KT 12/07 A2968 RMK AO2 SLP050 T01220072 401330122 PWINO TSNO $
KACY 290454Z 02022G29KT 9SM -RA BKN022 OVC026 12/10 A2949 RMK AO2 PK WND 05034/0411 RAB07 SLP985 P0006 T01220100 401500122
KMIV 290454Z AUTO 03019G26KT 7SM -RA FEW029 SCT070 OVC100 12/09 A2950 RMK AO2 PK WND 02028/0434 SLP986 P0007 T01220094 401440122 $
KVAY 290454Z AUTO 02014G26KT 10SM OVC028 14/08 A2957 RMK AO2 PK WND 03026/0448 SLP013 P0001 T01390083 401500122 TSNO
KWRI 290455Z AUTO 02019G24KT 10SM OVC025 13/09 A2955 RMK AO2 PK WND 02032/0402 SLP008 T01330088 401470125
KWWD 290455Z AUTO 03019G28KT 10SM BKN018 OVC025 12/10 A2944 RMK AO1 P0007
KBLM 290455Z AUTO 04017G23KT 10SM BKN022 BKN027 OVC034 13/08 A2959 RMK AO1
KMMU 290455Z AUTO 03013G19KT 10SM OVC027 12/08 A2964 RMK AO2
KNEL 290500Z AUTO 04009G28KT 360V060 10SM BKN026 OVC031 13/09 A2956 RMK AO2 PK WND 03028/0457 SLP009 T01330089 401330133 $
KTTN 290504Z AUTO 06014G21KT 10SM BKN029 OVC036 13/08 A2960 RMK AO2
KTEB 290507Z 03015G26KT 10SM BKN029 OVC035 13/07 A2963 RMK AO2 PK WND 02026/0500 $
KCDW 290509Z AUTO 04010G18KT 10SM OVC028 13/07 A2964 RMK AO2 TSNO
KWWD 290515Z AUTO 02020G32KT 10SM BKN016 OVC022 12/10 A2944 RMK AO1 P0001
KMMU 290515Z AUTO 03014G20KT 10SM OVC027 12/08 A2964 RMK AO2
KBLM 290515Z AUTO 02022G28KT 10SM OVC022 13/09 A2957 RMK AO1
KWWD 290535Z AUTO 02020G28KT 10SM BKN017 OVC023 12/10 A2942 RMK AO1 P0003
KBLM 290535Z AUTO 03015G28KT 10SM BKN018 OVC025 13/09 A2956 RMK AO1
KMMU 290535Z AUTO 04010G21KT 10SM OVC027 12/08 A2962 RMK AO2
KMIV 290541Z AUTO 02018G23KT 9SM -RA BKN027 BKN055 OVC090 12/10 A2948 RMK AO2 PK WND 01028/0522 P0005 $
KCDW 290541Z AUTO 04009G16KT 10SM OVC030 13/07 A2963 RMK AO2 TSNO
KEWR 290551Z 02020G27KT 10SM OVC027 13/08 A2961 RMK AO2 PK WND 02027/0551 SLP025 60000 T01280083 10144 20128 58022
KTEB 290551Z 02010G21KT 10SM BKN027 OVC033 13/07 A2960 RMK AO2 PK WND 02026/0500 SLP025 T01280072 10144 20128 58024 $
KCDW 290553Z AUTO 05009G17KT 10SM OVC030 13/07 A2962 RMK AO2 SLP036 T01280067 10139 20128 58022 TSNO
KFWN 290553Z AUTO 03014G22KT 10SM OVC026 12/07 A2965 RMK AO2 SLP041 T01170067 10133 20117 58020
KTTN 290553Z AUTO 04015G27KT 10SM OVC025 13/08 A2956 RMK AO2 PK WND 06027/0549 SLP005 60000 T01280078 10139 20122 58025
KSMQ 290553Z AUTO 03010G22KT 10SM OVC031 13/07 A2959 RMK AO2 SLP021 T01330072 10144 20133 58020 TSNO
KVAY 290554Z AUTO 03014G28KT 10SM OVC026 13/08 A2954 RMK AO2 PK WND 03028/0554 SLP003 60001 T01330083 10139 20128 58019 TSNO
K12N 290554Z AUTO 04007G19KT 12/07 A2964 RMK AO2 SLP037 T01170072 10128 20117 58017 PWINO TSNO $
KACY 290554Z 02021G27KT 5SM -RA BR BKN016 OVC025 12/10 A2946 RMK AO2 PK WND 03034/0540 SLP974 P0006 60026 T01170100 10133 20117 58032
KMIV 290554Z AUTO 02015G24KT 9SM -RA BKN027 BKN060 OVC100 12/10 A2947 RMK AO2 PK WND 01028/0522 SLP976 P0006 60041 T01170100 10128 20117 58033 $
KWRI 290555Z AUTO 01019G30KT 10SM OVC020 13/09 A2952 RMK AO2 PK WND 02030/0544 CIG 019V024 SLP999 60000 T01270088 10138 20127 57026
KBLM 290555Z AUTO 02017G24KT 10SM BKN018 OVC025 12/09 A2954 RMK AO1 10140 20120 57027
KWRI 290555Z AUTO 01019G30KT 10SM OVC020 13/09 A2952 RMK AO2 PK WND 02030/0544 CIG 019V024 SLP999 60000 T01270088 10138 20127 57026
KWWD 290555Z AUTO 02021G26KT 10SM OVC017 12/09 A2941 RMK AO1 P0008 60065 10140 20120 57030
KMMU 290555Z AUTO 02009G18KT 10SM OVC027 12/08 A2961 RMK AO2
KWRI 290555Z AUTO 01019G30KT 10SM OVC020 13/09 A2952
KWRI 290555Z AUTO 01019G30KT 10SM OVC020 13/09 A2952 RMK AO2 PK WND 02030/0544 CIG 019V024 SLP999 60000 T01270088 10138 20127 57026
KWRI 290555Z AUTO 01019G30KT 10SM OVC020 13/09 A2952 RMK AO2 PK WND 02030/0544 CIG 019V024 SLP999 60000 T01270088 10138 20127 57026
KWRI 290556Z AUTO 02019G24KT 10SM -RA OVC020 13/09 A2952 RMK AO2 RAB0556 CIG 019V024 SLP999
KNEL 290600Z AUTO 05012G25KT 10SM OVC020 13/09 A2952 RMK AO2 PK WND 03027/0546 SLP996 T01280089 10 NO CARRIER RING CONNECT 1200 WBCMTRNAK ALL TTAA00 KNAK 290654 METAR KNAK 290654Z AUTO 01011KT 5SM -RA SCT022 BKN050 OVC090 14/ A2949 RMK AO2 SLP987 P0009 T
KNEL 290600Z AUTO 05012G25KT 10SM OVC020 13/09 A2952 RMK AO2 PK WND 03027/0546 SLP996 T01280089 10 NO CARRIER RING CONNECT 1200 WBCMTRNAK ALL TTAA00 KNAK 290654 METAR KNAK 290654Z AUTO 01011KT 5SM -RA SCT022 BKN050 OVC090 14/ A2949 RMK AO2 SLP987 P0009 T
KWRI 290605Z AUTO 03018G26KT 10SM OVC020 13/09 A2952 RMK AO2 PK WND 04026/0557 RAB0556E0605 CIG 019V023 SLP997
KWWD 290615Z AUTO 01017G30KT 9SM SCT014 OVC019 12/09 A2941 RMK AO1 P0010
KMMU 290615Z AUTO 03014G19KT 10SM OVC027 12/08 A2960 RMK AO2
KBLM 290615Z AUTO 03017G26KT 8SM BKN018 OVC025 12/09 A2953 RMK AO1
KACY 290619Z 02018G31KT 5SM RA BR BKN014 BKN021 OVC027 12/10 A2944 RMK AO2 PK WND 04031/0617 P0005
KCDW 290624Z AUTO 05008G20KT 10SM OVC028 12/07 A2961 RMK AO2 TSNO
KBLM 290635Z AUTO 03015G25KT 7SM BKN016 OVC022 12/07 A2952 RMK AO1
KWWD 290635Z AUTO 01023G30KT 9SM BKN014 OVC021 12/09 A2938 RMK AO1 P0019
KMMU 290635Z AUTO 04011G16KT 10SM OVC027 12/08 A2961 RMK AO2
KWRI 290636Z AUTO 02020G28KT 10SM -RA OVC021 13/09 A2950 RMK AO2 PK WND 02030/0619 RAB0556E0605B0636 CIG 020V025 SLP991
KEWR 290651Z 02020G29KT 10SM OVC022 13/08 A2958 RMK AO2 PK WND 01029/0649 DZB25E48 SLP016 P0000 T01280083
KTEB 290651Z 02012G21KT 10SM OVC027 13/07 A2958 RMK AO2 SLP015 T01280072 $
KSMQ 290653Z AUTO 03013G23KT 10SM OVC031 13/07 A2956 RMK AO2 SLP010 T01330072 TSNO
KFWN 290653Z AUTO 03014G23KT 10SM OVC024 12/07 A2962 RMK AO2 SLP030 T01170067
KCDW 290653Z AUTO 04007G15KT 350V080 10SM OVC028 13/07 A2960 RMK AO2 SLP027 T01280067 TSNO
KTTN 290653Z AUTO 06017G27KT 10SM OVC025 13/07 A2954 RMK AO2 PK WND 04027/0649 SLP996 T01280072
K12N 290654Z AUTO VRB06G17KT 12/07 A2963 RMK AO2 SLP033 T01170067 PWINO TSNO $
KACY 290654Z 01020G25KT 5SM RA BR BKN013 BKN020 OVC027 11/10 A2942 RMK AO2 PK WND 36031/0643 SLP963 P0015 T01110100
KVAY 290654Z AUTO 02014G27KT 9SM -RA OVC024 13/08 A2949 RMK AO2 PK WND 04030/0603 RAB13 SLP987 P0000 T01280083 TSNO
KMIV 290654Z AUTO 02014G25KT 5SM RA BR BKN019 BKN049 OVC095 12/10 A2944 RMK AO2 PK WND 02026/0635 SLP968 P0005 T01170100 $
KMMU 290655Z AUTO 02011G19KT 10SM OVC027 12/08 A2959 RMK AO2
KWWD 290655Z AUTO 01024G34KT 9SM BKN012 BKN019 OVC050 12/09 A2938 RMK AO1 P0029
KWRI 290655Z AUTO 02023G29KT 10SM -RA OVC021 12/09 A2948 RMK AO2 PK WND 02030/0636 RAB0556E0605B0636 SLP985 P0000 T01190090
KBLM 290655Z AUTO 02018G29KT 350V050 5SM SCT012 OVC018 11/09 A2951 RMK AO1
KNEL 290700Z AUTO 03008G23KT 010V080 6SM -RA BR OVC021 12/10 A2948 RMK AO2 PK WND 04027/0611 RAB0616 SLP982 P0000 T01170100 $
KMMU 290715Z AUTO 02012G21KT 10SM OVC027 12/08 A2958 RMK AO2
KWWD 290715Z AUTO 01022G28KT 10SM SCT012 BKN019 OVC055 12/09 A2937 RMK AO1 P0008
KBLM 290715Z AUTO 02016G26KT 5SM SCT012 OVC018 11/09 A2949 RMK AO1
KVAY 290723Z AUTO 02018G25KT 5SM -RA FEW026 BKN055 OVC085 12/09 A2948 RMK AO2 PK WND 03030/0704 P0005 TSNO
KMMU 290735Z AUTO 02009G16KT 10SM OVC027 12/08 A2957 RMK AO2
KWWD 290735Z AUTO 36018G28KT 9SM SCT014 OVC019 11/09 A2935 RMK AO1 P0017
KBLM 290735Z AUTO 02021G26KT 10SM BKN015 OVC019 11/09 A2947 RMK AO1
KEWR 290751Z 02020G32KT 10SM BKN025 OVC029 13/08 A2954 RMK AO2 PK WND 36032/0744 SLP003 T01280083
KTEB 290751Z 02010G23KT 10SM OVC027 13/07 A2954 RMK AO2 SLP003 T01330072 $
KWRI 290752Z AUTO 36018G32KT 10SM OVC020 12/09 A2944 RMK AO2 PK WND 36032/0752 RAE0752 CIG 019V024 PRESFR SLP969
KWRI 290752Z AUTO 36018G32KT 10SM OVC020 12/09 A2944 RMK AO2 PK WND 36032/0752 RAE0752 CIG 019V024 PRESFR SLP969
KSMQ 290753Z AUTO 02013G22KT 10SM OVC031 13/07 A2952 RMK AO2 SLP997 T01330072 TSNO
KCDW 290753Z AUTO 05009G21KT 020V080 10SM OVC026 13/07 A2956 RMK AO2 SLP015 T01280072 TSNO
KFWN 290753Z AUTO 03011G17KT 10SM OVC024 12/07 A2961 RMK AO2 SLP028 T01170067
KTTN 290753Z AUTO 05014G26KT 10SM OVC027 12/07 A2950 RMK AO2 PK WND 05027/0728 SLP983 T01220072
KACY 290754Z 01022G30KT 7SM -RA BKN012 OVC018 11/09 A2936 RMK AO2 PK WND 01032/0709 SLP941 P0014 T01110094
K12N 290754Z AUTO 03008G15KT 350V050 11/07 A2959 RMK AO2 SLP021 T01110072 PWINO TSNO $
KVAY 290754Z AUTO 02017G24KT 10SM -RA FEW026 SCT055 OVC075 12/08 A2946 RMK AO2 PK WND 03030/0704 SLP975 P0007 T01170083 TSNO
KMIV 290754Z AUTO 01016G22KT 7SM -RA BKN014 BKN050 OVC075 11/10 A2939 RMK AO2 PK WND 02027/0738 SLP952 P0010 T01110100 $
KMMU 290755Z AUTO 02009G21KT 10SM OVC027 12/08 A2956 RMK AO2
KWRI 290755Z AUTO 36024G32KT 10SM BKN020 OVC036 12/09 A2942
KWRI 290755Z AUTO 36024G32KT 10SM BKN020 OVC036 12/09 A2942 RMK AO2 PK WND 36032/0752 RAE0752 CIG 019V023 BKN V OVC PRESFR SLP966 P0001 T01150086
KBLM 290755Z AUTO 01017G26KT 10SM BKN013 OVC020 11/09 A2945 RMK AO1
KWWD 290755Z AUTO 36019G27KT 9SM BKN016 OVC023 11/09 A2933 RMK AO1 P0027
KWRI 290757Z AUTO 36019G32KT 10SM -RA BKN020 OVC036 12/09 A2942 RMK AO2 RAB0757 BKN V OVC PRESFR SLP963
KNEL 290800Z AUTO 03009G27KT 4SM -RA BR OVC017 11/09 A2943 RMK AO2 PK WND 01027/0755 RAE0712B0739 SLP966 T01110094 PNO $
KWRI 290808Z AUTO 01022G31KT 8SM R06/5500FT RA OVC020 11/09 A2941 RMK AO2 PK WND 36031/0807 RAB0757 OVC V BKN SLP962
KWRI 290812Z AUTO 01020G31KT 8SM R06/5500VP6000FT +RA OVC020 11/09 A2942 RMK AO2 PK WND 36031/0807 RAB0757 OVC V BKN SLP963
KBLM 290815Z AUTO 01017G31KT 10SM BKN014 OVC020 11/09 A2943 RMK AO1
KWWD 290815Z AUTO 36018G33KT 9SM SCT013 BKN019 OVC025 11/09 A2931 RMK AO1 P0007
KMMU 290815Z AUTO 02014G17KT 10SM OVC025 12/08 A2954 RMK AO2
KACY 290817Z 01020G33KT 4SM RA BR SCT011 OVC016 11/09 A2933 RMK AO2 PK WND 02033/0815 P0008
KACY 290821Z 36019G33KT 4SM RA BR FEW009 OVC013 11/09 A2932 RMK AO2 PK WND 02033/0815 PRESFR P0009
KACY 290821Z 36019G33KT 4SM RA BR FEW009 OVC013 11/09 A2932 RMK AO2 PK WND 02033/0815 PRESFR P0009
KACY 290821Z 36019G33KT 4SM RA BR FEW009 OVC013 11/09 A2932 RMK AO2 PK WND 02033/0815 PRESFR P0009
KACY 290821Z 36019G33KT 4SM RA BR FEW009 OVC013 11/09 A2932
KACY 290821Z 36019G33KT 4SM RA BR FEW009 OVC013 11/09 A2932 RMK AO2 PK WND 02033/0815 PRESFR P0009
KACY 290821Z 36019G33KT 4SM RA BR FEW009 OVC013 11/09 A2932
KWRI 290821Z AUTO 01023G30KT 10SM RA BKN019 11/09 A2941 RMK AO2 PK WND 36031/0807 RAB0757 BKN V OVC SLP961
KACY 290821Z 36019G33KT 4SM RA BR FEW009 OVC013 11/09 A2932 RMK AO2 PK WND 02033/0815 PRESFR P0009
KMIV 290828Z AUTO 01016G26KT 6SM RA BR BKN015 BKN050 OVC080 11/09 A2937 RMK AO2 PK WND 36026/0823 P0008 $
KACY 290831Z 01019G29KT 4SM +RA BR BKN015 OVC022 11/09 A2932 RMK AO2 PK WND 02033/0815 P0014
KMMU 290835Z AUTO 02014G19KT 10SM OVC025 12/08 A2952 RMK AO2
KWWD 290835Z AUTO 35016G31KT 5SM SCT013 OVC019 11/09 A2930 RMK AO1 P0025
KBLM 290835Z AUTO 01021G29KT 10SM BKN016 OVC022 12/09 A2942 RMK AO1
KWRI 290845Z AUTO 01020G26KT 10SM -RA OVC021 11/09 A2939 RMK AO2 PK WND 36031/0807 RAB0757 CIG 014V025 SLP954
KWRI 290845Z AUTO 01020G26KT 10SM -RA OVC021 11/09 A2939 RMK AO2 PK WND 36031/0807 RAB0757 CIG 014V025 SLP954
KWRI 290846Z AUTO 01020G26KT 10SM OVC021 11/09 A2939
KWRI 290846Z AUTO 01020G26KT 10SM OVC021 11/09 A2939 RMK AO2 PK WND 36031/0807 RAB0757E0846 CIG 014V025 SLP954
KWRI 290846Z AUTO 01020G26KT 10SM OVC021 11/09 A2939 RMK AO2 PK WND 36031/0807 RAB0757E0846 CIG 014V025 SLP954
KWRI 290846Z AUTO 01020G26KT 10SM OVC021 11/09 A2939 RMK AO2 PK WND 36031/0807 RAB0757E0846 CIG 014V025 SLP954
KWRI 290846Z AUTO 01020G26KT 10SM OVC021 11/09 A2939 RMK AO2 PK WND 36031/0807 RAB0757E0846 CIG 014V025 SLP954
KWRI 290847Z AUTO 36021G28KT 10SM BKN019 OVC024 11/09 A2939 RMK AO2 PK WND 36031/0807 RAB0757E0846 CIG 014V023 SLP953
KWRI 290849Z AUTO 36019G28KT 10SM OVC021 11/09 A2939 RMK AO2 PK WND 36031/0807 RAB0757E0846 CIG 014V024 SLP952
KTEB 290851Z 02018G24KT 8SM DZ OVC026 13/08 A2949 RMK AO2 PK WND 01027/0814 DZB39 SLP984 P0000 60000 T01280083 58040 $
KEWR 290851Z 01024G34KT 10SM OVC024 13/08 A2947 RMK AO2 PK WND 02034/0846 RAB07E34 SLP979 P0000 60000 T01280083 58046
KSMQ 290853Z AUTO 03014G30KT 10SM BKN030 BKN035 OVC110 13/08 A2947
KCDW 290853Z AUTO 04012G19KT 10SM OVC024 12/07 A2951 RMK AO2 SLP998 T01220072 58038 TSNO
KSMQ 290853Z AUTO 03014G30KT 10SM BKN030 BKN035 OVC110 13/08 A2947 RMK AO2 PK WND 04030/0844 SLP981 T01330078 58040 TSNO
KFWN 290853Z AUTO 03019G26KT 10SM OVC022 12/07 A2956 RMK AO2 PK WND 03026/0852 PRESFR SLP009 T01170072 58032
KTTN 290853Z AUTO 04014G23KT 10SM -RA BKN027 BKN047 OVC095 12/08 A2944 RMK AO2 PK WND 06029/0835 RAB39 SLP964 P0000 60000 T01220078 58041
KACY 290854Z AUTO 01021G33KT 3SM +RA BR BKN013 OVC021 11/09 A2931 RMK AO2 PK WND 01033/0849 SLP924 P0024 60053 T01060089 58050 TSNO
KVAY 290854Z AUTO 01018G27KT 10SM -RA SCT026 BKN035 OVC090 12/08 A2941 RMK AO2 PK WND 36029/0812 SLP957 P0006 60013 T01170083 58046 TSNO
K12N 290854Z AUTO 03011G20KT 11/08 A2954 RMK AO2 SLP001 T01110078 58035 PWINO TSNO $
KMIV 290854Z AUTO 36014KT 4SM +RA BR BKN017 BKN028 OVC075 11/09 A2937 RMK AO2 PK WND 03027/0830 SLP944 P0016 60031 T01060094 58032 $
KWWD 290855Z AUTO 35015G26KT 7SM SCT011 OVC019 11/09 A2929 RMK AO1 P0037 60093 57041
KWRI 290855Z AUTO 36023G33KT 10SM OVC020 11/09 A2938 RMK AO2 PK WND 36033/0852 RAB0757E0846 CIG 018V026 SLP951 P0003 60004 T01130088 58049
KBLM 290855Z AUTO 02023G31KT 10SM BKN016 OVC022 12/09 A2939 RMK AO1 57051
KMMU 290855Z AUTO 02013G19KT 10SM -RA OVC023 12/09 A2950 RMK AO2
KNEL 290900Z AUTO 01011G26KT 350V050 10SM BKN019 OVC025 12/09 A2937 RMK AO2 PK WND 01026/0858 RAE0826 PRESFR SLP943 6//// T01170094 58043 PNO $
KSMQ 290901Z AUTO 36010G23KT 10SM OVC028 13/08 A2946 RMK AO2 PRESFR TSNO
KVAY 290903Z AUTO 01016G25KT 10SM BKN026 BKN045 OVC090 12/08 A2939 RMK AO2 RAE00 P0000 TSNO
KWRI 290905Z AUTO 01024G29KT 10SM BKN019 OVC024 11/09 A2937 RMK AO2 PK WND 36029/0904 CIG 017V023 BKN V OVC PRESFR SLP946
KACY 290909Z AUTO 36021G32KT 2 1/2SM +RA BR OVC013 11/09 A2930 RMK AO2 PK WND 01032/0902 P0011 TSNO
KWRI 290911Z AUTO 01022G32KT 10SM OVC020 12/09 A2936 RMK AO2 PK WND 36032/0905 CIG 017V024 SLP944
KMMU 290915Z AUTO 02010G21KT 10SM OVC023 12/09 A2948 RMK AO2
KBLM 290915Z AUTO 01021G30KT 10SM OVC016 12/09 A2937 RMK AO1
KWWD 290915Z AUTO 35018G26KT 7SM BKN017 OVC022 11/09 A2928 RMK AO1 P0012
KMIV 290920Z AUTO 35016G26KT 3SM +RA BR FEW013 SCT018 OVC034 11/09 A2934 RMK AO2 PK WND 35026/0913 PRESFR P0013 $
KWRI 290922Z AUTO 01023G37KT 10SM -RA BKN020 12/09 A2934 RMK AO2 PK WND 02037/0914 RAB0922 CIG 017V025 PRESFR SLP938
KMIV 290929Z AUTO 36016G23KT 3SM +RA BR BKN016 BKN026 OVC034 11/09 A2934 RMK AO2 PK WND 35026/0913 P0017 $
KWWD 290935Z AUTO 34019G30KT 5SM SCT010 OVC015 11/09 A2928 RMK AO1 P0028
KMMU 290935Z AUTO 02016G21KT 10SM BKN025 OVC030 12/09 A2947 RMK AO2
KBLM 290935Z AUTO 01020G34KT 10SM OVC016 12/09 A2936 RMK AO1
KSMQ 290949Z AUTO 01014G23KT 350V060 10SM OVC030 13/08 A2943 RMK AO2 PK WND 04026/0937 TSNO
KTEB 290951Z 01013G23KT 10SM BKN022 BKN031 OVC040 13/08 A2943 RMK AO2 PK WND 36029/0900 DZE16 SLP966 P0000 T01280083 $
KEWR 290951Z 02024G33KT 10SM FEW020 BKN025 OVC032 13/09 A2943 RMK AO2 PK WND 36039/0935 SLP965 T01330089
KACY 290952Z AUTO 36020G31KT 4SM RA BR FEW010 BKN013 OVC020 11/09 A2926 RMK AO2 PK WND 01032/0902 P0041 TSNO
KACY 290952Z AUTO 36020G31KT 4SM RA BR FEW010 BKN013 OVC020 11/09 A2926 RMK AO2 PK WND 01032/0902 P0041 TSNO
KCDW 290953Z AUTO 02009G21KT 10SM OVC026 13/08 A2945 RMK AO2 PRESFR SLP977 T01280078 TSNO
KTTN 290953Z 04017G28KT 10SM OVC025 13/08 A2939 RMK AO2 PK WND 05028/0951 RAE01 SLP946 P0000 T01280078
KFWN 290953Z AUTO 03011G24KT 10SM OVC022 12/07 A2952 RMK AO2 PK WND 03028/0936 SLP997 T01220072
KSMQ 290953Z AUTO 02011G23KT 10SM OVC032 13/08 A2941 RMK AO2 PK WND 04026/0937 PRESFR SLP960 T01330078 TSNO
KVAY 290954Z AUTO 01016G30KT 9SM -RA SCT026 BKN050 OVC100 12/08 A2936 RMK AO2 PK WND 35034/0926 RAE00B37 SLP941 P0002 T01220083 TSNO
K12N 290954Z AUTO 03011G24KT 11/08 A2951 RMK AO2 SLP991 T01110078 PWINO TSNO $
KMIV 290954Z AUTO 35014G25KT 3SM +RA BR BKN017 OVC024 11/09 A2933 RMK AO2 PK WND 35026/0913 SLP929 P0025 T01060094 $
KACY 290954Z AUTO 36022G31KT 4SM RA BR FEW010 OVC016 11/09 A2926 RMK AO2 PK WND 01032/0902 SLP907 P0042 T01060094 TSNO
KBLM 290955Z AUTO 02019G28KT 8SM BKN016 OVC024 12/08 A2934 RMK AO1 P0002
KWWD 290955Z AUTO 34015G26KT 6SM SCT010 OVC015 11/09 A2925 RMK AO1 P0043
KWRI 290955Z AUTO 01023G31KT 9SM R06/5500VP6000FT RA BKN020 BKN026 OVC034 12/09 A2932
KWRI 290955Z AUTO 01023G31KT 9SM R06/5500VP6000FT RA BKN020 BKN026 OVC034 12/09 A2932 RMK AO2 PK WND 02037/0914 RAB0922 BKN020 V SCT SLP929 P0002 T01150093
KMMU 290955Z AUTO 02012G28KT 10SM OVC023 12/09 A2945 RMK AO2
KNEL 291000Z AUTO 01012G29KT 330V040 2 1/2SM RA BR BKN019 OVC031 12/10 A2931 RMK AO2 PK WND 02031/0915 RAB0905 PNO $
KVAY 291001Z AUTO 01017G27KT 8SM RA BKN026 BKN042 OVC100 12/09 A2936 RMK AO2 PK WND 02027/1001 P0001 TSNO
KWRI 291004Z AUTO 01021G32KT 7SM R06/5000V5500FT +RA SCT019 BKN025 OVC031 12/09 A2932 RMK AO2 PK WND 02032/0956 SLP931
KWRI 291004Z AUTO 01021G32KT 7SM R06/5000V5500FT +RA SCT019 BKN025 OVC031 12/09 A2932 RMK AO2 PK WND 02032/0956 SLP931
KWRI 291004Z AUTO 01021G32KT 7SM R06/5000V5500FT +RA SCT019 BKN025 OVC031 12/09 A2932 RMK AO2 PK WND 02032/0956 SLP931
KMIV 291005Z AUTO 35017G27KT 2SM +RA BR OVC017 11/09 A2932 RMK AO2 PK WND 01027/1005 P0010 $
KWRI 291006Z AUTO 36022G32KT 6SM R06/5000V5500FT +RA BR BKN019 BKN025 OVC030 12/09 A2932 RMK AO2 PK WND 02032/0956 BKN019 V SCT SLP930
KWRI 291006Z AUTO 36022G32KT 6SM R06/5000V5500FT +RA BR BKN019 BKN025 OVC030 12/09 A2932 RMK AO2 PK WND 02032/0956 BKN019 V SCT SLP930
KNEL 291008Z AUTO 02010G24KT 340V050 3SM -RA BR BKN019 BKN027 OVC033 12/10 A2931 RMK AO2 PK WND 02031/0915 RAB0905 PNO $
KWRI 291009Z AUTO 36021G30KT 7SM R06/5000V5500FT +RA SCT018 BKN024 OVC030 11/09 A2932 RMK AO2 PK WND 02032/0956 CIG 019 RWY24 SLP929
KWRI 291009Z AUTO 36021G30KT 7SM R06/5000V5500FT +RA SCT018 BKN024 OVC030 11/09 A2932 RMK AO2 PK WND 02032/0956 CIG 019 RWY24 SLP929
KWRI 291009Z AUTO 36021G30KT 7SM R06/5000V5500FT +RA SCT018 BKN024 OVC030 11/09 A2932
KWRI 291009Z AUTO 36021G30KT 7SM R06/5000V5500FT +RA SCT018 BKN024 OVC030 11/09 A2932 RMK AO2 PK WND 02032/0956 CIG 019 RWY24 SLP929
KWRI 291009Z AUTO 36021G30KT 7SM R06/5000V5500FT +RA SCT018 BKN024 OVC030 11/09 A2932 RMK AO2 PK WND 02032/0956 CIG 019 RWY24 SLP929
KACY 291010Z AUTO 36023G29KT 2 1/2SM +RA BR SCT010 BKN015 OVC020 11/09 A2924 RMK AO2 PK WND 34029/1005 P0006 TSNO
KACY 291010Z AUTO 36023G29KT 2 1/2SM +RA BR SCT010 BKN015 OVC020 11/09 A2924 RMK AO2 PK WND 34029/1005 P0006 TSNO
KWRI 291010Z AUTO 36020G30KT 7SM R06/5000V5500FT +RA BKN018 OVC030 11/09 A2932 RMK AO2 PK WND 02032/0956 SLP929
KACY 291010Z AUTO 36023G29KT 2 1/2SM +RA BR SCT010 BKN015 OVC020 11/09 A2924 RMK AO2 PK WND 34029/1005 P0006 TSNO
KACY 291010Z AUTO 36023G29KT 2 1/2SM +RA BR SCT010 BKN015 OVC020 11/09 A2924 RMK AO2 PK WND 34029/1005 P0006 TSNO
KWWD 291015Z AUTO 35011G26KT 320V020 7SM BKN008 OVC015 11/09 A2923 RMK AO1 P0006
KBLM 291015Z AUTO 01023G35KT 9SM BKN018 OVC026 12/08 A2932 RMK AO1 P0003
KMMU 291015Z AUTO 02016G23KT 10SM OVC023 12/09 A2944 RMK AO2
KACY 291018Z AUTO 36024G32KT 2 1/2SM +RA BR BKN010 OVC018 11/09 A2924 RMK AO2 PK WND 35032/1011 P0011 TSNO
KWRI 291028Z AUTO 36023G30KT 6SM R06/5000FT +RA BR BKN017 OVC028 11/10 A2930 RMK AO2 PK WND 02032/0956 SLP925
KWRI 291028Z AUTO 36023G30KT 6SM R06/5000FT +RA BR BKN017 OVC028 11/10 A2930 RMK AO2 PK WND 02032/0956 SLP925
KMIV 291030Z AUTO 34016G24KT 1 3/4SM +RA BR FEW021 OVC032 11/09 A2929 RMK AO2 PK WND 01027/1005 P0035 $
KWRI 291030Z AUTO 36022G30KT 6SM R06/5000V5500FT +RA BR BKN017 OVC028 11/10 A2930 RMK AO2 PK WND 02032/0956 SLP924
KWRI 291030Z AUTO 36022G30KT 6SM R06/5000V5500FT +RA BR BKN017 OVC028 11/10 A2930 RMK AO2 PK WND 02032/0956 SLP924
KSMQ 291032Z AUTO 02019G25KT 10SM OVC028 13/08 A2941 RMK AO2 PK WND 02030/1011 TSNO
KWRI 291032Z AUTO 36023G30KT 6SM R06/5000VP6000FT RA BR BKN018 OVC028 11/10 A2930 RMK AO2 PK WND 02032/0956 SLP923
KBLM 291035Z AUTO 01024G32KT 10SM BKN016 OVC022 12/06 A2930 RMK AO1 P0009
KMMU 291035Z AUTO 02013G25KT 330V060 10SM OVC021 12/09 A2942 RMK AO2
KWWD 291035Z AUTO 35014G23KT 7SM OVC008 11/09 A2923 RMK AO1 P0016
KMMU 291045Z 05013G31KT 10SM OVC021 12/08 A2943
KWRI 291048Z AUTO 36017G28KT 9SM R06/5500VP6000FT +RA BKN021 OVC028 11/10 A2929 RMK AO2 PK WND 02032/0956 SLP920
KWRI 291048Z AUTO 36017G28KT 9SM R06/5500VP6000FT +RA BKN021 OVC028 11/10 A2929 RMK AO2 PK WND 02032/0956 SLP920
KWRI 291050Z AUTO 35023G28KT 9SM R06/5500VP6000FT +RA BKN018 OVC026 11/10 A2929 RMK AO2 PK WND 02032/0956 SLP920
KWRI 291050Z AUTO 35023G28KT 9SM R06/5500VP6000FT +RA BKN018 OVC026 11/10 A2929
KWRI 291050Z AUTO 35023G28KT 9SM R06/5500VP6000FT +RA BKN018 OVC026 11/10 A2929 RMK AO2 PK WND 02032/0956 SLP920
KWRI 291050Z AUTO 35023G28KT 9SM R06/5500VP6000FT +RA BKN018 OVC026 11/10 A2929 RMK AO2 PK WND 02032/0956 SLP920
KEWR 291051Z 02024G33KT 8SM -RA FEW018 BKN023 OVC030 12/10 A2940 RMK AO2 PK WND 01038/1011 RAB26 SLP953 CIG 021V026 P0000 T01220100
KWRI 291051Z AUTO 35022G27KT 8SM R06/5000V5500FT +RA BKN018 OVC024 11/10 A2929
KMIV 291051Z AUTO 34018G24KT 2SM +RA BR FEW012 OVC032 11/09 A2926 RMK AO2 PK WND 35029/1036 PRESFR P0053 $
KWRI 291051Z AUTO 35022G27KT 8SM R06/5000V5500FT +RA BKN018 OVC024 11/10 A2929 RMK AO2 PK WND 02032/0956 BKN V SCT SLP920
KWRI 291051Z AUTO 35022G27KT 8SM R06/5000V5500FT +RA BKN018 OVC024 11/10 A2929 RMK AO2 PK WND 02032/0956 BKN V SCT SLP920
KWRI 291051Z AUTO 35022G27KT 8SM R06/5000V5500FT +RA BKN018 OVC024 11/10 A2929 RMK AO2 PK WND 02032/0956 BKN V SCT SLP920
KWRI 291051Z AUTO 35022G27KT 8SM R06/5000V5500FT +RA BKN018 OVC024 11/10 A2929 RMK AO2 PK WND 02032/0956 BKN V SCT SLP920
KTEB 291051Z 02015G24KT 10SM BKN020 OVC028 13/09 A2940 RMK AO2 PK WND 01031/1025 SLP956 T01280089 $
KWRI 291052Z AUTO 35021G27KT 8SM R06/5000V5500FT +RA BKN021 OVC028 11/10 A2929 RMK AO2 PK WND 02032/0956 SLP920
KWRI 291052Z AUTO 35021G27KT 8SM R06/5000V5500FT +RA BKN021 OVC028 11/10 A2929 RMK AO2 PK WND 02032/0956 SLP920
KCDW 291053Z AUTO 02010G20KT 10SM OVC022 12/08 A2943 RMK AO2 SLP971 T01220078 TSNO
KFWN 291053Z AUTO 03014G27KT 10SM OVC024 12/07 A2949 RMK AO2 PK WND 04029/1038 SLP984 T01220072
KSMQ 291053Z AUTO 02011G22KT 10SM OVC028 13/08 A2939 RMK AO2 PK WND 02030/1011 SLP954 T01330083 TSNO
KTTN 291053Z 03019G28KT 10SM -RA BKN025 OVC043 13/08 A2934 RMK AO2 PK WND 03031/1039 RAB22 SLP930 P0001 T01280083
KVAY 291054Z AUTO 36019G26KT 4SM +RA BR BKN024 OVC029 12/09 A2932 RMK AO2 PK WND 36028/1004 SLP928 P0021 T01170094 TSNO
KMIV 291054Z AUTO 34017G25KT 2SM +RA BR FEW012 OVC032 11/09 A2926 RMK AO2 PK WND 35029/1036 PRESFR SLP906 P0056 T01060094 $
KACY 291054Z 01021G35KT 3SM +RA BR BKN010 OVC017 11/09 A2921 RMK AO2 PK WND 01035/1049 SLP892 P0029 T01110094
K12N 291054Z AUTO 03015G24KT 12/08 A2946 RMK AO2 PK WND 04026/1038 SLP977 T01170078 PWINO TSNO $
KWRI 291055Z AUTO 36020G27KT 7SM R06/5000V5500FT +RA OVC021 11/10 A2929
KWWD 291055Z AUTO 35015G26KT 5SM OVC008 11/09 A2922 RMK AO1 P0027
KWRI 291055Z AUTO 36020G27KT 7SM R06/5000V5500FT +RA OVC021 11/10 A2929 RMK AO2 PK WND 02032/0956 SLP920 P0011 T01140097
KBLM 291055Z AUTO 01026G33KT 350V050 10SM SCT014 OVC020 12/07 A2929 RMK AO1 P0015
KWRI 291057Z AUTO 36019G27KT 7SM R06/5000V5500FT +RA BKN018 OVC025 11/10 A2929 RMK AO2 SLP918
KWRI 291100Z AUTO 36019G27KT 6SM R06/5000FT +RA BR BKN018 OVC025 11/10 A2928 RMK AO2 PK WND 01026/1057 SLP917
KNEL 291100Z AUTO 02010G25KT 340V060 2 1/2SM +RA BR BKN016 OVC024 12/11 A2927 RMK AO2 PK WND 02031/0915 RAB10091005 PNO $
KWRI 291106Z AUTO 35021G29KT 5SM R06/4500V5000FT +RA BR FEW006 BKN017 OVC023 11/10 A2927 RMK AO2 PK WND 35029/1102 SLP914
KNEL 291106Z AUTO 02011G25KT 340V040 2 1/2SM RA BR BKN016 OVC025 12/11 A2926 RMK AO2 PK WND 02031/0915 RAB10091005 SLP908 T01170106 PNO $
KMIV 291107Z AUTO 33020G31KT 2 1/2SM +RA BR FEW010 SCT015 OVC026 11/09 A2924 RMK AO2 PK WND 33031/1102 P0009 $
KACY 291108Z 01021G29KT 2 1/2SM +RA BR BKN010 OVC017 11/09 A2921 RMK AO2 PK WND 02029/1107 P0008
KWRI 291111Z AUTO 36018G29KT 5SM R06/4500FT +RA BR FEW005 BKN016 OVC022 11/10 A2927 RMK AO2 PK WND 35029/1102 SLP913
KWRI 291115Z AUTO 36021G29KT 5SM R06/4500V5000FT +RA BR FEW004 BKN015 OVC021 11/10 A2927 RMK AO2 PK WND 36029/1113 SLP913
KWRI 291115Z AUTO 36021G29KT 5SM R06/4500V5000FT +RA BR FEW004 BKN015 OVC021 11/10 A2927 RMK AO2 PK WND 36029/1113 SLP913
KWRI 291115Z AUTO 36021G29KT 5SM R06/4500V5000FT +RA BR FEW004 BKN015 OVC021 11/10 A2927
KWRI 291115Z AUTO 36021G29KT 5SM R06/4500V5000FT +RA BR FEW004 BKN015 OVC021 11/10 A2927 RMK AO2 PK WND 36029/1113 SLP913
KBLM 291115Z AUTO 02025G37KT 8SM SCT012 BKN020 OVC026 12/07 A2927 RMK AO1 P0006
KWWD 291115Z AUTO 34013G21KT 5SM BKN008 OVC015 11/09 A2921 RMK AO1 P0007
KWRI 291115Z AUTO 36021G29KT 5SM R06/4500V5000FT +RA BR FEW004 BKN015 OVC021 11/10 A2927 RMK AO2 PK WND 36029/1113 SLP913
KWRI 291117Z AUTO 36022G29KT 5SM R06/4500V5000FT +RA BR BKN014 OVC021 11/10 A2927 RMK AO2 PK WND 36029/1115 SLP912
KNEL 291119Z AUTO 01010G24KT 2 1/2SM RA BR BKN014 BKN018 OVC023 12/11 A2926 RMK AO2 PNO $
KMIV 291124Z AUTO 35019G30KT 2 1/2SM +RA BR BKN010 BKN017 OVC022 11/09 A2923 RMK AO2 PK WND 33031/1102 P0019 $
KMIV 291130Z AUTO 34016G30KT 2 1/2SM +RA BR BKN009 BKN014 OVC020 11/09 A2924 RMK AO2 PK WND 33031/1102 P0022 $
KWRI 291131Z AUTO 36022G30KT 5SM R06/4500VP6000FT +RA BR BKN012 OVC020 11/10 A2926 RMK AO2 PK WND 35030/1127 BKN V OVC SLP909
KACY 291134Z 36019G26KT 3SM +RA BR OVC010 11/10 A2919 RMK AO2 PK WND 36031/1116 P0022
KWWD 291135Z AUTO 34011G22KT 5SM SCT008 OVC017 11/09 A2920 RMK AO1 P0012
KBLM 291135Z AUTO 02023G34KT 7SM SCT010 OVC019 12/08 A2926 RMK AO1 P0011
KMIV 291137Z AUTO 34019G30KT 2 1/2SM +RA BR BKN012 OVC016 11/09 A2923 RMK AO2 PK WND 33031/1102 P0025 $
KNEL 291140Z AUTO 02012G20KT 350V050 3SM +RA BR BKN012 OVC020 12/11 A2924 RMK AO2 PNO $
KMMU 291145Z 04013G30KT 10SM OVC024 13/09 A2942
KWRI 291146Z AUTO 36019G29KT 3SM +RA BR FEW003 OVC011 11/10 A2925 RMK AO2 PK WND 36031/1133 VIS 2 RWY24 OVC V BKN SLP907
KWRI 291146Z AUTO 36019G29KT 3SM +RA BR FEW003 OVC011 11/10 A2925 RMK AO2 PK WND 36031/1133 VIS 2 RWY24 OVC V BKN SLP907
KWRI 291146Z AUTO 36019G29KT 3SM +RA BR FEW003 OVC011 11/10 A2925 RMK AO2 PK WND 36031/1133 VIS 2 RWY24 OVC V BKN SLP907
KWRI 291146Z AUTO 36019G29KT 3SM +RA BR FEW003 OVC011 11/10 A2925 RMK AO2 PK WND 36031/1133 VIS 2 RWY24 OVC V BKN SLP907
KWRI 291146Z AUTO 36019G29KT 3SM +RA BR FEW003 OVC011 11/10 A2925
KWRI 291148Z AUTO 01016G29KT 2 1/2SM +RA BR FEW003 OVC011 11/10 A2925 RMK AO2 PK WND 36031/1133 VIS 1 3/4 RWY24 SLP908
KTEB 291151Z 01015G29KT 10SM -RA SCT024 OVC032 13/08 A2937
KEWR 291151Z 01029G37KT 5SM -RA BR SCT018 BKN023 OVC031 12/10 A2935 RMK AO2 PK WND 01038/1129 PRESFR SLP938 P0006 60006 70006 T01220100 10133 20122 58041
KTEB 291151Z 01015G29KT 10SM -RA SCT024 OVC032 13/08 A2937 RMK AO2 PK WND 01029/1146 RAB39 PRESFR SLP944 P0000 60000 T01330083 10133 20128 56040 $
KNEL 291153Z AUTO 02013G23KT 350V060 1 3/4SM RA BR BKN013 BKN017 OVC025 12/11 A2924 RMK AO2 PNO $
KFWN 291153Z AUTO 03016G30KT 10SM OVC024 13/07 A2948 RMK AO2 PK WND 03030/1145 SLP982 T01280072 10128 20117 56026
KCDW 291153Z AUTO 02010G19KT 10SM BKN024 OVC028 12/08 A2941 RMK AO2 SLP965 T01220078 10128 20122 56033 TSNO
KSMQ 291153Z AUTO 36016G23KT 6SM -RA BR SCT026 OVC033 12/09 A2935 RMK AO2 PK WND 04029/1115 RAB19 SLP938 P0007 60007 70007 T01170094 10139 20117 58026 TSNO
KTTN 291153Z 03019G28KT 5SM RA OVC023 12/09 A2930 RMK AO2 PK WND 06035/1105 SLP916 P0011 60012 70014 T01170089 10128 20117 56047
K12N 291154Z AUTO 04015G26KT 350V050 12/08 A2945 RMK AO2 PK WND 05028/1141 SLP973 T01220078 10122 20111 56027 PWINO TSNO $
KMIV 291154Z AUTO 34016G27KT 2SM +RA BR BKN013 OVC019 11/09 A2922 RMK AO2 PK WND 33031/1102 SLP893 P0034 60146 70210 T01060094 10117 20106 56036 $
KVAY 291154Z AUTO 36020G31KT 3SM +RA BR BKN017 OVC022 12/10 A2927 RMK AO2 PK WND 36031/1151 SLP912 P0024 60060 70074 T01170100 10133 20111 58028 TSNO
KACY 291154Z 36017G30KT 3SM -RA BR BKN010 OVC015 11/10 A2919 RMK AO2 PK WND 36031/1116 SLP882 P0025 60149 70232 T01110100 10111 20106 58024
KACY 291154Z 36017G30KT 3SM -RA BR BKN010 OVC015 11/10 A2919
KBLM 291155Z AUTO 02025G33KT 3SM SCT010 OVC017 12/07 A2924 RMK AO1 P0015 60032 70036 10120 20110 57051
KWRI 291155Z AUTO 36019G26KT 2 1/2SM +RA BR SCT003 OVC011 11/10 A2924
KWWD 291155Z AUTO 34013G23KT 3SM SCT008 OVC017 11/09 A2919 RMK AO1 P0017 60180 70311 10120 20110 57034
KWRI 291155Z AUTO 36019G26KT 2 1/2SM +RA BR SCT003 OVC011 11/10 A2924 RMK AO2 PK WND 36031/1133 VIS 1 3/4 RWY24 SLP905 P0025 60042 70043 T01140101 10127 20110 56046
KTEB 291158Z 02018G27KT 10SM -RA BKN027 OVC033 13/09 A2936 RMK AO2 PK WND 02027/1157 P0000 $
KMIV 291159Z AUTO 35017G27KT 2SM +RA BR BKN009 BKN013 OVC019 11/09 A2922 RMK AO2 PK WND 35027/1155 P0002 $
KWRI 291200Z AUTO 36020G25KT 3SM +RA BR SCT003 OVC010 11/10 A2924 RMK AO2 VIS 1 3/4 RWY24 SLP903
KNEL 291200Z AUTO 02012G26KT 350V060 1 1/2SM +RA BR BKN011 BKN018 OVC023 12/11 A2923 RMK AO2 PK WND 01026/1158 SLP896 6//// 7//// T01220111 10122 20111 58016 PNO $
KWRI 291200Z AUTO 36020G25KT 3SM +RA BR SCT003 OVC010 11/10 A2924 RMK AO2 VIS 1 3/4 RWY24 SLP903
KACY 291203Z 36019G27KT 2SM -RA BR OVC012 11/10 A2918 RMK AO2 PK WND 36027/1201 VIS 1 1/2V3 P0002
KWRI 291204Z AUTO 35019G29KT 260V010 2 1/2SM +RA BR SCT003 BKN010 OVC026 11/10 A2923 RMK AO2 PK WND 35029/1204 VIS 1 1/2 RWY24 PRESFR SLP901
KVAY 291205Z AUTO 36023G30KT 2SM +RA BR BKN013 OVC020 11/10 A2926 RMK AO2 PK WND 36030/1204 P0007 TSNO
KMIV 291212Z AUTO 35020G29KT 3SM -RA BR SCT009 BKN013 OVC020 11/09 A2922 RMK AO2 PK WND 02029/1211 P0004 $
KWRI 291212Z AUTO 36018G29KT 2SM +RA BR BKN003 BKN010 OVC023 11/10 A2923 RMK AO2 PK WND 35029/1204 VIS 1 1/4 RWY24 SLP901
KWRI 291212Z AUTO 36018G29KT 2SM +RA BR BKN003 BKN010 OVC023 11/10 A2923 RMK AO2 PK WND 35029/1204 VIS 1 1/4 RWY24 SLP901
KWRI 291212Z AUTO 36018G29KT 2SM +RA BR BKN003 BKN010 OVC023 11/10 A2923 RMK AO2 PK WND 35029/1204 VIS 1 1/4 RWY24 SLP901
KWRI 291213Z AUTO 36020G29KT 1 3/4SM +RA BR BKN003 BKN009 OVC022 11/10 A2924 RMK AO2 PK WND 35029/1204 SLP902
KBLM 291215Z AUTO 02019G32KT 3SM SCT010 OVC017 12/06 A2923 RMK AO1 P0005
KWWD 291215Z AUTO 34016G23KT 2 1/2SM SCT008 OVC017 11/09 A2918 RMK AO1 P0005
KMIV 291215Z AUTO 34020G29KT 2 1/2SM -RA BR BKN009 BKN013 OVC018 11/09 A2921 RMK AO2 PK WND 36029/1213 P0005
KACY 291216Z 36018G27KT 1 1/2SM +RA BR BKN010 OVC016 12/10 A2917 RMK AO2 PK WND 36027/1207 P0004
KWRI 291219Z AUTO 36020G30KT 2SM +RA BR BKN003 BKN009 OVC022 11/10 A2922 RMK AO2 PK WND 36030/1218 VIS 1 1/4 RWY24 BKN009 V OVC SLP897
KMIV 291223Z AUTO 36017G26KT 1 3/4SM RA BR BKN011 OVC018 11/10 A2921 RMK AO2 PK WND 36029/1213 VIS 1 1/2V2 1/2 P0006
KWRI 291223Z AUTO 36023G30KT 2 1/2SM +RA BR SCT003 BKN009 OVC022 11/10 A2922 RMK AO2 PK WND 36030/1221 VIS 1 1/2 RWY24 BKN V OVC SLP895
KMMU 291225Z 03018G29KT 4SM -RA OVC024 12/09 A2936 RMK PRESFR RAB20
KWRI 291228Z AUTO 01019G30KT 3SM +RA BR SCT003 BKN009 OVC022 11/10 A2922
KWRI 291228Z AUTO 01019G30KT 3SM +RA BR SCT003 BKN009 OVC022 11/10 A2922 RMK AO2 PK WND 36030/1221 VIS 1 3/4 RWY24 SLP897
KWRI 291228Z AUTO 01019G30KT 3SM +RA BR SCT003 BKN009 OVC022 11/10 A2922 RMK AO2 PK WND 36030/1221 VIS 1 3/4 RWY24 SLP897
KWRI 291228Z AUTO 01019G30KT 3SM +RA BR SCT003 BKN009 OVC022 11/10 A2922 RMK AO2 PK WND 36030/1221 VIS 1 3/4 RWY24 SLP897
KWRI 291231Z AUTO 36021G30KT 2 1/2SM +RA BR SCT003 BKN009 OVC022 11/10 A2922 RMK AO2 PK WND 36030/1221 VIS 1 3/4 RWY24 SLP895
KWRI 291231Z AUTO 36021G30KT 2 1/2SM +RA BR SCT003 BKN009 OVC022 11/10 A2922 RMK AO2 PK WND 36030/1221 VIS 1 3/4 RWY24 SLP895
KWRI 291231Z AUTO 36021G30KT 2 1/2SM +RA BR SCT003 BKN009 OVC022 11/10 A2922 RMK AO2 PK WND 36030/1221 VIS 1 3/4 RWY24 SLP895
KVAY 291232Z AUTO 36020G27KT 1 3/4SM +RA BR BKN013 OVC018 12/10 A2924 RMK AO2 PK WND 34031/1214 P0021 TSNO
KWRI 291232Z AUTO 36022G27KT 3SM +RA BR SCT003 BKN010 OVC022 11/10 A2921 RMK AO2 PK WND 36030/1221 VIS 1 3/4 RWY24 SLP894
KWRI 291232Z AUTO 36022G27KT 3SM +RA BR SCT003 BKN010 OVC022 11/10 A2921 RMK AO2 PK WND 36030/1221 VIS 1 3/4 RWY24 SLP894
KWRI 291232Z AUTO 36022G27KT 3SM +RA BR SCT003 BKN010 OVC022 11/10 A2921 RMK AO2 PK WND 36030/1221 VIS 1 3/4 RWY24 SLP894
KWRI 291232Z AUTO 36022G27KT 3SM +RA BR SCT003 BKN010 OVC022 11/10 A2921
KWRI 291233Z AUTO 36024G29KT 2 1/2SM +RA BR SCT003 BKN010 OVC021 11/10 A2921 RMK AO2 PK WND 36030/1221 VIS 1 3/4 RWY24 SLP893
KWRI 291233Z AUTO 36024G29KT 2 1/2SM +RA BR SCT003 BKN010 OVC021 11/10 A2921 RMK AO2 PK WND 36030/1221 VIS 1 3/4 RWY24 SLP893
KWWD 291235Z AUTO 34012G22KT 5SM SCT008 OVC015 11/09 A2915 RMK AO1 P0015
KBLM 291235Z AUTO 02023G34KT 3SM SCT010 OVC017 12/11 A2922 RMK AO1 P0009
KWRI 291235Z AUTO 35021G29KT 3SM +RA BR FEW003 BKN010 OVC020 11/10 A2920 RMK AO2 PK WND 36030/1221 VIS 1 3/4 RWY24 PRESFR SLP890
KMIV 291236Z AUTO 35017G26KT 1 1/2SM -RA BR BKN009 OVC015 11/10 A2919 RMK AO2 PK WND 36029/1213 P0008
KWRI 291239Z AUTO 36022G29KT 2 1/2SM +RA BR FEW003 BKN009 OVC024 11/10 A2920 RMK AO2 PK WND 36030/1221 VIS 1 1/2 RWY24 SLP891
KVAY 291240Z AUTO 36019G33KT 2SM +RA BR SCT013 OVC018 12/10 A2923 RMK AO2 PK WND 36033/1233 PRESFR P0025 TSNO
KTTN 291243Z 02016G28KT 2SM +RA BR BKN017 OVC023 12/09 A2926 RMK AO2 PK WND 03029/1229 PRESFR P0017
KMIV 291246Z AUTO 35018G32KT 2SM +RA BR BKN009 OVC017 11/10 A2918 RMK AO2 PK WND 36032/1243 VIS 1 3/4V3 PRESFR P0012
KACY 291249Z 36020G28KT 1 1/4SM +RA BR BKN008 OVC014 12/11 A2913 RMK AO2 PK WND 36028/1249 PRESFR P0019
KVAY 291249Z AUTO 36018G26KT 3SM -RA BR BKN014 OVC018 12/10 A2922 RMK AO2 PK WND 36033/1233 P0026 TSNO
KACY 291249Z 36020G28KT 1 1/4SM +RA BR BKN008 OVC014 12/11 A2913 RMK AO2 PK WND 36028/1249 PRESFR P0019
KSMQ 291250Z AUTO 01017G25KT 2SM RA BR FEW028 BKN075 OVC090 12/09 A2929 RMK AO2 PK WND 03034/1200 PRESFR P0011 TSNO
KMMU 291251Z 04021G36KT 2 1/2SM RA OVC025 12/09 A2932 RMK PRESFR
KEWR 291251Z 01027G43KT 4SM -RA BR SCT018 BKN023 OVC031 12/11 A2928 RMK AO2 PK WND 36045/1224 SLP915 P0006 T01220106
KTEB 291251Z 01017G28KT 5SM -RA SCT024 BKN031 OVC039 13/09 A2930 RMK AO2 PK WND 02031/1227 SLP921 P0000 T01330089 $
KTTN 291253Z 02020G31KT 2SM +RA BR SCT014 BKN021 OVC028 12/09 A2925 RMK AO2 PK WND 01031/1245 PRESFR SLP899 P0022 T01170094
KCDW 291253Z AUTO 02013G23KT 3SM RA BKN022 OVC028 12/08 A2932 RMK AO2 RAB28 PRESFR SLP934 P0002 T01170083 TSNO
KFWN 291253Z AUTO 03016G30KT 10SM OVC024 13/08 A2943 RMK AO2 PK WND 03032/1234 SLP967 T01280078
KSMQ 291253Z AUTO 01017G27KT 2SM RA BR FEW028 BKN080 OVC095 12/09 A2928 RMK AO2 PK WND 03034/1200 PRESFR SLP916 P0012 T01170094 TSNO
KACY 291254Z 36016G28KT 1SM +RA BR SCT008 OVC014 12/11 A2912 RMK AO2 PK WND 36028/1250 SLP861 P0023 T01170106
KMIV 291254Z AUTO 35017G31KT 3SM RA BR OVC013 11/10 A2917 RMK AO2 PK WND 36032/1243 PRESFR SLP877 P0013 T01110100
KVAY 291254Z AUTO 36019G30KT 3SM -RA BR BKN012 OVC018 12/10 A2921 RMK AO2 PK WND 36033/1233 PRESFR SLP891 P0027 T01170100 TSNO
KACY 291254Z 36016G28KT 1SM +RA BR SCT008 OVC014 12/11 A2912
K12N 291254Z AUTO 03014G34KT 12/08 A2940 RMK AO2 PK WND 04034/1249 SLP955 T01220078 PWINO TSNO
KACY 291254Z 36016G28KT 1SM +RA BR SCT008 OVC014 12/11 A2912 RMK AO2 PK WND 36028/1250 SLP861 P0023 T01170106
KWRI 291255Z AUTO 01021G30KT 2 1/2SM +RA BR FEW004 BKN009 OVC020 11/11 A2919
KWWD 291255Z AUTO 34017G26KT 5SM SCT008 OVC015 11/09 A2911 RMK AO1 P0024
KBLM 291255Z AUTO 01023G30KT 3SM FEW011 OVC019 12/10 A2919 RMK AO1 P0015
KWRI 291255Z AUTO 01021G30KT 2 1/2SM +RA BR FEW004 BKN009 OVC020 11/11 A2919 RMK AO2 PK WND 01030/1253 VIS 1 1/2 RWY24 BKN V OVC SLP885 P0027 T01120107
KVAY 291300Z AUTO 01018G30KT 1 3/4SM +RA BR BKN012 OVC018 12/10 A2921 RMK AO2 PK WND 36030/1258 P0002 TSNO
KNEL 291300Z AUTO 02008G20KT 330V080 1 1/2SM RA BR BKN010 OVC016 12/11 A2918 RMK AO2 PK WND 01033/1247 SLP879 T01220111 PNO $
KWRI 291302Z AUTO 36023G30KT 2SM +RA BR SCT004 BKN010 OVC019 11/11 A2917 RMK AO2 PK WND 35030/1258 BKN V OVC PRESFR SLP880
KWRI 291302Z AUTO 36023G30KT 2SM +RA BR SCT004 BKN010 OVC019 11/11 A2917 RMK AO2 PK WND 35030/1258 BKN V OVC PRESFR SLP880
KWRI 291302Z AUTO 36023G30KT 2SM +RA BR SCT004 BKN010 OVC019 11/11 A2917 RMK AO2 PK WND 35030/1258 BKN V OVC PRESFR SLP880
KACY 291302Z 36017G29KT 1 1/2SM +RA BR BKN010 OVC016 12/11 A2911 RMK AO2 PK WND 36029/1259 P0003
KWRI 291303Z AUTO 35023G30KT 2SM +RA BR BKN007 BKN010 OVC019 11/11 A2917 RMK AO2 PK WND 35030/1258 BKN010 V OVC PRESFR SLP880
KWRI 291303Z AUTO 35023G30KT 2SM +RA BR BKN007 BKN010 OVC019 11/11 A2917 RMK AO2 PK WND 35030/1258 BKN010 V OVC PRESFR SLP880
KTTN 291304Z 02022G31KT 3SM RA BR SCT014 SCT021 OVC030 12/09 A2924 RMK AO2 PK WND 04032/1254 PRESFR P0002
KMIV 291305Z AUTO 35023G30KT 2SM +RA BR OVC012 11/10 A2916 RMK AO2 PK WND 36030/1301 P0004
KACY 291311Z 36019G26KT 1 3/4SM RA BR BKN008 OVC014 12/11 A2910 RMK AO2 PK WND 36029/1259 PRESFR P0006
KACY 291311Z 36019G26KT 1 3/4SM RA BR BKN008 OVC014 12/11 A2910 RMK AO2 PK WND 36029/1259 PRESFR P0006
KTTN 291311Z 02022G31KT 2 1/2SM RA BR FEW014 OVC027 12/09 A2923 RMK AO2 PK WND 04032/1254 PRESFR P0004
KMIV 291313Z AUTO 35019G32KT 1 1/2SM +RA BR BKN012 OVC016 11/10 A2914 RMK AO2 PK WND 35032/1310 PRESFR P0007
KCDW 291314Z AUTO 03012G32KT 1 3/4SM RA BR BKN022 OVC028 12/09 A2930 RMK AO2 PK WND 02032/1308 P0004 TSNO $
KBLM 291315Z AUTO 02023G33KT 4SM SCT009 OVC016 12/11 A2917 RMK AO1 P0007
KWWD 291315Z AUTO 35017G27KT 4SM SCT008 OVC015 12/10 A2908 RMK AO1 P0009
KACY 291316Z 36020G33KT 1 1/4SM +RA BR BKN011 OVC016 12/11 A2909 RMK AO2 PK WND 36033/1314 PRESFR P0007
KTEB 291316Z 02017G35KT 4SM -RA SCT023 OVC027 13/10 A2928 RMK AO2 PK WND 03035/1314 P0002 $
KWRI 291321Z AUTO 36023G30KT 2SM +RA BR SCT004 BKN009 OVC018 11/11 A2915 RMK AO2 PK WND 01031/1303 PRESFR SLP873
KWRI 291321Z AUTO 36023G30KT 2SM +RA BR SCT004 BKN009 OVC018 11/11 A2915 RMK AO2 PK WND 01031/1303 PRESFR SLP873
KWRI 291321Z AUTO 36023G30KT 2SM +RA BR SCT004 BKN009 OVC018 11/11 A2915
KWRI 291321Z AUTO 36023G30KT 2SM +RA BR SCT004 BKN009 OVC018 11/11 A2915 RMK AO2 PK WND 01031/1303 PRESFR SLP873
KWRI 291321Z AUTO 36023G30KT 2SM +RA BR SCT004 BKN009 OVC018 11/11 A2915 RMK AO2 PK WND 01031/1303 PRESFR SLP873
KSMQ 291321Z AUTO 01016G23KT 1 3/4SM BR SCT026 OVC032 12/10 A2926 RMK AO2 PK WND 02027/1302 RAE17 P0007 TSNO
KWRI 291322Z AUTO 36024G29KT 2SM +RA BR BKN007 BKN011 OVC018 11/11 A2915 RMK AO2 PK WND 01031/1303 VIS 1 1/4 RWY24 SLP874
KSMQ 291328Z AUTO 02013G25KT 2 1/2SM BR BKN026 OVC032 12/10 A2925 RMK AO2 PK WND 02027/1302 RAE17 P0008 TSNO
KWRI 291329Z AUTO 36019G30KT 330V070 2SM +RA BR BKN008 OVC018 11/11 A2915 RMK AO2 PK WND 01031/1303 BKN V OVC SLP871
KCDW 291329Z AUTO 04012G21KT 3SM -RA OVC021 12/ A2930 RMK AO2 PK WND 02032/1308 P0007 TSNO $
KTTN 291332Z 03019G30KT 1 3/4SM +RA BR FEW013 SCT018 OVC023 12/09 A2921 RMK AO2 PK WND 04032/1254 P0010
KWWD 291335Z AUTO 34014G26KT 4SM BKN008 OVC015 12/10 A2906 RMK AO1 P0017
KBLM 291335Z AUTO 02020G33KT 2 1/2SM SCT009 OVC016 12/11 A2915 RMK AO1 P0012
KWRI 291336Z AUTO 36022G30KT 2 1/2SM +RA BR BKN007 OVC016 11/11 A2914 RMK AO2 PK WND 01031/1303 VIS 1 3/4 RWY24 PRESFR SLP868
KWRI 291336Z AUTO 36022G30KT 2 1/2SM +RA BR BKN007 OVC016 11/11 A2914 RMK AO2 PK WND 01031/1303 VIS 1 3/4 RWY24 PRESFR SLP868
KWRI 291336Z AUTO 36022G30KT 2 1/2SM +RA BR BKN007 OVC016 11/11 A2914 RMK AO2 PK WND 01031/1303 VIS 1 3/4 RWY24 PRESFR SLP868
KWRI 291340Z AUTO 36020G30KT 2 1/2SM +RA BR BKN006 OVC010 11/11 A2913 RMK AO2 PK WND 01031/1303 VIS 1 3/4 RWY24 OVC V BKN SLP867
KWRI 291340Z AUTO 36020G30KT 2 1/2SM +RA BR BKN006 OVC010 11/11 A2913
KWRI 291340Z AUTO 36020G30KT 2 1/2SM +RA BR BKN006 OVC010 11/11 A2913 RMK AO2 PK WND 01031/1303 VIS 1 3/4 RWY24 OVC V BKN SLP867
KWRI 291343Z AUTO 36022G31KT 2 1/2SM +RA BR BKN005 BKN010 OVC016 11/11 A2913 RMK AO2 PK WND 35031/1340 VIS 1 3/4 RWY24 BKN010 V OVC PRESFR SLP865
KTTN 291343Z 03022G29KT 2 1/2SM RA BR SCT013 OVC020 12/09 A2919 RMK AO2 PK WND 04032/1254 PRESFR P0012
KSMQ 291345Z AUTO 01014G24KT 1 1/4SM BR FEW019 OVC025 12/10 A2923 RMK AO2 PK WND 02027/1302 RAE17 P0012 TSNO
KMMU 291345Z 04018G30KT 2 1/2SM RA BKN015 OVC019 11/10 A2927
KCDW 291349Z AUTO 04010G21KT 020V080 2 1/2SM -RA BKN020 OVC025 12/ A2928 RMK AO2 PK WND 02032/1308 P0009 TSNO $
KWRI 291349Z AUTO 36020G33KT 2 1/2SM +RA BR BKN006 OVC010 11/11 A2912 RMK AO2 PK WND 35033/1343 VIS 1 3/4 RWY24 OVC V BKN SLP863
KWRI 291349Z AUTO 36020G33KT 2 1/2SM +RA BR BKN006 OVC010 11/11 A2912 RMK AO2 PK WND 35033/1343 VIS 1 3/4 RWY24 OVC V BKN SLP863
KWRI 291349Z AUTO 36020G33KT 2 1/2SM +RA BR BKN006 OVC010 11/11 A2912 RMK AO2 PK WND 35033/1343 VIS 1 3/4 RWY24 OVC V BKN SLP863
KWRI 291349Z AUTO 36020G33KT 2 1/2SM +RA BR BKN006 OVC010 11/11 A2912 RMK AO2 PK WND 35033/1343 VIS 1 3/4 RWY24 OVC V BKN SLP863
KWRI 291349Z AUTO 36020G33KT 2 1/2SM +RA BR BKN006 OVC010 11/11 A2912
KWRI 291350Z AUTO 36023G33KT 2 1/2SM +RA BR OVC008 11/11 A2912 RMK AO2 PK WND 35033/1343 VIS 1 3/4 RWY24 OVC V BKN PRESFR SLP862
KWRI 291350Z AUTO 36023G33KT 2 1/2SM +RA BR OVC008 11/11 A2912 RMK AO2 PK WND 35033/1343 VIS 1 3/4 RWY24 OVC V BKN PRESFR SLP862
KWRI 291350Z AUTO 36023G33KT 2 1/2SM +RA BR OVC008 11/11 A2912 RMK AO2 PK WND 35033/1343 VIS 1 3/4 RWY24 OVC V BKN PRESFR SLP862
KMIV 291350Z AUTO 35020G28KT 1 1/4SM +RA BR FEW009 OVC015 11/10 A2909 RMK AO2 PK WND 35032/1310 P0019
KWRI 291351Z AUTO 36023G33KT 2 1/2SM +RA BR OVC007 11/11 A2912
KEWR 291351Z 01028G33KT 9SM -RA SCT016 BKN023 OVC030 13/11 A2922 RMK AO2 PK WND 01040/1317 SLP895 CIG 021V026 P0003 T01280111
KWRI 291351Z AUTO 36023G33KT 2 1/2SM +RA BR OVC007 11/11 A2912 RMK AO2 PK WND 35033/1343 VIS 1 3/4 RWY24 OVC V BKN SLP863
KWRI 291351Z AUTO 36023G33KT 2 1/2SM +RA BR OVC007 11/11 A2912 RMK AO2 PK WND 35033/1343 VIS 1 3/4 RWY24 OVC V BKN SLP863
KWRI 291351Z AUTO 36023G33KT 2 1/2SM +RA BR OVC007 11/11 A2912 RMK AO2 PK WND 35033/1343 VIS 1 3/4 RWY24 OVC V BKN SLP863
KTEB 291351Z 01018G31KT 10SM FEW023 BKN029 OVC035 14/10 A2923 RMK AO2 PK WND 01037/1323 RAE50 SLP899 P0002 T01390100
KWRI 291351Z AUTO 36023G33KT 2 1/2SM +RA BR OVC007 11/11 A2912 RMK AO2 PK WND 35033/1343 VIS 1 3/4 RWY24 OVC V BKN SLP863
KWRI 291352Z AUTO 36020G33KT 2 1/2SM +RA BR BKN006 OVC010 11/11 A2912 RMK AO2 PK WND 35033/1343 VIS 1 3/4 RWY24 SLP863
KWRI 291352Z AUTO 36020G33KT 2 1/2SM +RA BR BKN006 OVC010 11/11 A2912 RMK AO2 PK WND 35033/1343 VIS 1 3/4 RWY24 SLP863
KWRI 291352Z AUTO 36020G33KT 2 1/2SM +RA BR BKN006 OVC010 11/11 A2912
KWRI 291352Z AUTO 36020G33KT 2 1/2SM +RA BR BKN006 OVC010 11/11 A2912 RMK AO2 PK WND 35033/1343 VIS 1 3/4 RWY24 SLP863
KSMQ 291353Z AUTO 01015G23KT 1 3/4SM BR FEW017 OVC025 12/10 A2923 RMK AO2 PK WND 02027/1302 RAE17 SLP897 P0014 T01170100 TSNO
KSMQ 291353Z AUTO 01015G23KT 1 3/4SM BR FEW017 OVC025 12/10 A2923
KCDW 291353Z AUTO 04009G21KT 4SM -RA BKN020 OVC025 12/ A2927 RMK AO2 PK WND 02032/1308 SLP917 P0009 T0117 TSNO $
KFWN 291353Z AUTO 03016G26KT 10SM OVC024 12/08 A2935 RMK AO2 PK WND 03029/1310 RAB29E51 SLP939 P0000 T01220083
KTTN 291353Z 03017G33KT 2SM RA BR BKN013 OVC020 12/09 A2918 RMK AO2 PK WND 02033/1353 PRESFR SLP874 P0015 T01170094
KVAY 291354Z AUTO 01021G30KT 1 1/2SM -RA BR BKN012 OVC018 12/10 A2914 RMK AO2 PK WND 36033/1335 PRESFR SLP868 P0021 T01170100 TSNO
K12N 291354Z AUTO 03015G29KT 350V060 11/09 A2932 RMK AO2 PK WND 35033/1314 SLP927 P0004 T01110089 PWINO TSNO
KMIV 291354Z AUTO 35020G28KT 1 1/4SM +RA BR SCT009 OVC015 11/10 A2909 RMK AO2 PK WND 35032/1310 SLP850 P0020 T01110100
KACY 291354Z 01022G32KT 1 1/4SM RA BR BKN009 OVC013 12/11 A2904 RMK AO2 PK WND 36033/1314 SLP833 P0022 T01220106
KWRI 291355Z AUTO 36019G29KT 2 1/2SM +RA BR BKN006 OVC010 11/11 A2912 RMK AO2 PK WND 35033/1343 VIS 1 1/2 RWY24 SLP861 P0016 T01130110
KBLM 291355Z AUTO 02021G37KT 2SM BKN009 OVC016 12/11 A2913 RMK AO1 P0015
KWWD 291355Z AUTO 34014G27KT 3SM BKN008 OVC015 12/10 A2904 RMK AO1 P0022
KWRI 291355Z AUTO 36019G29KT 2 1/2SM +RA BR BKN006 OVC010 11/11 A2912
KWRI 291356Z AUTO 36018G29KT 2 1/2SM +RA BR BKN005 OVC009 11/11 A2912 RMK AO2 VIS 1 1/2 RWY24 SLP861
KNEL 291400Z AUTO 04013G27KT 010V070 1 1/2SM RA BR BKN010 OVC017 13/12 A2911 RMK AO2 PK WND 02028/1318 SLP855 T01280117 PNO $
KSMQ 291401Z AUTO 01013G27KT 2 1/2SM -RA BR SCT019 OVC024 12/10 A2922 RMK AO2 PK WND 02027/1358 RAB1354 P0001 TSNO
KWRI 291403Z AUTO 36021G25KT 2 1/2SM +RA BR BKN004 OVC009 11/11 A2911 RMK AO2 VIS 1 1/2 RWY24 SLP858
KSMQ 291409Z AUTO 01014G25KT 3SM -RA BR SCT018 OVC025 12/10 A2921 RMK AO2 PK WND 02027/1358 RAB1354 P0001 TSNO
KACY 291414Z 01020G32KT 1 1/4SM RA BR OVC012 12/11 A2902 RMK AO2 PK WND 36032/1412 P0008
KBLM 291415Z AUTO 02024G34KT 2SM OVC009 13/11 A2911 RMK AO1 P0004
KWWD 291415Z AUTO 35014G25KT 2 1/2SM BKN008 OVC015 12/10 A2902 RMK AO1 P0005
KMIV 291416Z AUTO 35020G28KT 1 1/4SM +RA BR OVC012 11/11 A2907 RMK AO2 PK WND 33033/1406 P0006
KTTN 291416Z 03019G28KT 2SM +RA BR OVC016 12/10 A2916 RMK AO2 PK WND 02032/1402 P0004
KSMQ 291417Z AUTO 02015G25KT 2SM -RA BR SCT018 BKN025 OVC033 12/11 A2919 RMK AO2 PK WND 02027/1358 RAB1354 PRESFR P0002 TSNO
KMIV 291418Z AUTO 35021G28KT 1 1/4SM -RA BR SCT010 OVC015 11/10 A2906 RMK AO2 PK WND 33033/1406 PRESFR P0006
KTTN 291423Z 03022G31KT 1 3/4SM RA BR BKN016 OVC023 12/10 A2915 RMK AO2 PK WND 02032/1402 PRESFR P0006
KWRI 291426Z AUTO 01021G32KT 3SM +RA BR BKN004 OVC010 12/11 A2908 RMK AO2 PK WND 35032/1420 VIS 2 RWY24 SLP850
KWRI 291430Z AUTO 01019G32KT 350V080 3SM +RA BR BKN006 OVC011 12/11 A2907 RMK AO2 PK WND 35032/1420 VIS 2 RWY24 SLP847
KWRI 291430Z AUTO 01019G32KT 350V080 3SM +RA BR BKN006 OVC011 12/11 A2907 RMK AO2 PK WND 35032/1420 VIS 2 RWY24 SLP847
KMIV 291431Z AUTO 35017G25KT 1 3/4SM RA BR FEW009 OVC014 11/11 A2905 RMK AO2 PK WND 33033/1406 PRESFR P0009
KWRI 291432Z AUTO 36025G31KT 2 1/2SM +RA BR BKN006 OVC011 12/11 A2907 RMK AO2 PK WND 35032/1420 VIS 1 3/4 RWY24 OVC V BKN PRESFR SLP846
KSMQ 291433Z AUTO 02014G27KT 1 3/4SM -RA BR BKN021 OVC027 12/11 A2918 RMK AO2 PK WND 03027/1425 RAB1354 P0005 TSNO
KVAY 291435Z AUTO 01021G30KT 2SM -RA BR BKN008 OVC015 12/11 A2910 RMK AO2 PK WND 02033/1417 RAE1357B16 PRESFR P0009 TSNO
KBLM 291435Z AUTO 02024G39KT 1 3/4SM OVC009 13/12 A2908 RMK AO1 P0006
KWWD 291435Z AUTO 34013G22KT 2 1/2SM BKN008 OVC017 12/10 A2900 RMK AO1 P0012
KTTN 291437Z 03015G27KT 1 3/4SM RA BR OVC014 12/10 A2914 RMK AO2 PK WND 02032/1402 P0009
KVAY 291439Z AUTO 01021G30KT 1 3/4SM RA BR BKN010 OVC015 12/11 A2909 RMK AO2 PK WND 02033/1417 RAE1357B16 P0010 TSNO
KSMQ 291441Z AUTO 02015G26KT 2 1/2SM -RA BR BKN019 OVC026 12/11 A2917 RMK AO2 PK WND 03027/1425 RAB1354 P0006 TSNO
KMMU 291445Z 04019G36KT 3SM -RA BR OVC017 12/10 A2919 RMK PRESFR
KACY 291448Z 01017G33KT 1 1/2SM +RA BR BKN010 OVC017 13/11 A2897 RMK AO2 PK WND 02034/1425 P0021
KACY 291448Z 01017G33KT 1 1/2SM +RA BR BKN010 OVC017 13/11 A2897 RMK AO2 PK WND 02034/1425 P0021
KTEB 291451Z 02017G34KT 10SM -RA BKN025 OVC033 14/10 A2917 RMK AO2 PK WND 03036/1423 RAB1355 SLP878 P0000 60002 T01440100 56066
KEWR 291451Z 03026G37KT 8SM -RA FEW015 BKN020 OVC029 14/12 A2916 RMK AO2 PK WND 02043/1428 RAE35B51 SLP873 CIG 018V023 P0000 60009 T01440117 56065
KSMQ 291451Z AUTO 01018G28KT 4SM -RA BR BKN021 OVC027 13/11 A2915 RMK AO2 PK WND 02028/1450 RAB1354 PRESFR P0006 TSNO
KFWN 291453Z AUTO 03016G29KT 9SM -RA OVC022 13/09 A2929 RMK AO2 PK WND 02036/1422 RAB03 PRESFR SLP918 P0000 60000 T01280089 58062
KSMQ 291453Z AUTO 02019G28KT 4SM -RA BR BKN021 OVC027 13/11 A2916 RMK AO2 PK WND 02028/1450 RAB1354 SLP873 P0006 60032 T01280106 55043 TSNO
KTTN 291453Z 03019G27KT 2SM -RA BR FEW008 OVC015 12/10 A2912 RMK AO2 PK WND 02032/1402 SLP853 P0011 60048 T01170100 58063
KCDW 291453Z AUTO 03010G25KT 350V070 9SM -RA BKN020 OVC028 13/ A2920 RMK AO2 PK WND 06027/1439 SLP894 P0000 60011 T0128 58039 TSNO $
KMIV 291454Z AUTO 35017G33KT 1 1/4SM RA BR BKN010 OVC015 11/11 A2903 RMK AO2 PK WND 36033/1447 PRESFR SLP827 P0016 60049 T01110106 58065
KVAY 291454Z AUTO 01017G31KT 1 1/2SM BR BKN010 OVC015 12/11 A2907 RMK AO2 PK WND 02033/1417 RAE1357B16E48 SLP845 P0013 60061 T01170106 58068 TSNO
KACY 291454Z 36020G30KT 1 1/2SM RA BR OVC012 13/11 A2896 RMK AO2 PK WND 02034/1425 PRESFR SLP807 P0023 60068 T01280111 58075
K12N 291454Z AUTO 03014G30KT 12/09 A2926 RMK AO2 PK WND 04030/1449 PRESFR SLP907 P0005 60009 T01170094 58065 PWINO TSNO
KWRI 291455Z AUTO 01020G30KT 350V060 2 1/2SM +RA BR OVC006 12/12 A2904
KWRI 291455Z AUTO 01020G30KT 350V060 2 1/2SM +RA BR OVC006 12/12 A2904 RMK AO2 PK WND 35032/1420 PRESFR SLP836 P0010 60053 T01220119 58068
KWWD 291455Z AUTO 34013G22KT 2 1/2SM BKN008 OVC015 12/10 A2897 RMK AO1 P0019 60065 57075
KBLM 291455Z AUTO 03021G33KT 2SM BKN009 OVC015 13/12 A2906 RMK AO1 P0009 60039 57061
KWRI 291459Z AUTO 36022G29KT 2 1/2SM +RA BR OVC007 12/12 A2904 RMK AO2 PK WND 01029/1458 PRESFR SLP834
KNEL 291500Z AUTO 03015G26KT 1 1/2SM RA BR OVC013 13/12 A2903 RMK AO2 PK WND 03036/1447 PRESFR SLP828 6//// T01330122 58052 PNO $
KWRI 291505Z AUTO 01021G29KT 2 1/2SM +RA BR BKN006 OVC010 12/12 A2903 RMK AO2 PK WND 01029/1458 CIG 004V009 BKN V OVC PRESFR SLP832
KTTN 291507Z 03020G31KT 1 1/2SM RA BR SCT010 OVC015 12/10 A2910 RMK AO2 PK WND 02031/1459 PRESFR P0004
KTTN 291513Z 04017G31KT 1 1/2SM +RA BR FEW009 OVC013 12/11 A2909 RMK AO2 PK WND 03031/1508 P0006
KWRI 291515Z AUTO 36026G32KT 2 1/2SM +RA BR BKN007 OVC012 12/12 A2902 RMK AO2 PK WND 35032/1514 BKN V OVC PRESFR SLP827
KBLM 291515Z AUTO 03027G39KT 3SM BKN009 OVC015 13/12 A2902 RMK AO1 P0005
KWWD 291515Z AUTO 34012G25KT 3SM BKN008 OVC015 12/10 A2894 RMK AO1 P0005
KWRI 291515Z AUTO 36026G32KT 2 1/2SM +RA BR BKN007 OVC012 12/12 A2902 RMK AO2 PK WND 35032/1514 BKN V OVC PRESFR SLP827
KWRI 291515Z AUTO 36026G32KT 2 1/2SM +RA BR BKN007 OVC012 12/12 A2902 RMK AO2 PK WND 35032/1514 BKN V OVC PRESFR SLP827
KMMU 291515Z 04020G31KT 2SM -RA BR OVC017 12/11 A2918
KWRI 291516Z AUTO 36024G32KT 3SM +RA BR OVC007 12/12 A2902 RMK AO2 PK WND 35032/1514 VIS 2 RWY24 SLP828
KCDW 291519Z AUTO 03013G32KT 2SM -RA BKN020 OVC026 13/ A2918 RMK AO2 PK WND 03032/1515 P0001 TSNO $
KTTN 291523Z 04020G34KT 1 1/2SM RA BR FEW009 OVC015 12/11 A2907 RMK AO2 PK WND 04034/1523 PRESFR P0008
KWRI 291523Z AUTO 01017G32KT 3SM +RA BR OVC009 13/12 A2901 RMK AO2 PK WND 35032/1514 PRESFR SLP824
KACY 291527Z 01022G32KT 1 1/4SM +RA BR SCT009 OVC012 13/12 A2891 RMK AO2 PK WND 01032/1525 PRESFR P0011
KWRI 291527Z AUTO 01023G29KT 2 1/2SM +RA BR BKN008 OVC015 13/12 A2900 RMK AO2 PK WND 35032/1514 VIS 1 3/4 RWY24 PRESFR SLP820
KVAY 291528Z AUTO 01019G31KT 2SM +RA BR BKN010 OVC015 12/11 A2903 RMK AO2 PK WND 35031/1527 RAB1456 PRESFR P0007 TSNO
KCDW 291531Z AUTO 04013G26KT 4SM -RA SCT018 OVC025 13/ A2917 RMK AO2 PK WND 03032/1515 P0001 TSNO $
KEWR 291533Z 02028G36KT 2 1/2SM R04R/6000VP6000FT -RA BR BKN014 BKN023 OVC029 14/12 A2911 RMK AO2 PK WND 03040/1522 TWR VIS 3 PRESFR BKN014 V SCT P0000
KTTN 291534Z 04020G30KT 2SM RA BR FEW009 OVC015 12/11 A2906 RMK AO2 PK WND 04034/1523 PRESFR P0009
KWWD 291535Z AUTO 34016G26KT 4SM BKN008 OVC015 12/11 A2890 RMK AO1 P0017
KBLM 291535Z AUTO 02023G32KT 2 1/2SM BKN009 OVC015 13/12 A2899 RMK AO1 P0008
KTTN 291536Z 04018G30KT 1 3/4SM RA BR OVC013 12/11 A2906 RMK AO2 PK WND 04034/1523 P0010
KEWR 291536Z 02027G36KT 3SM R04R/6000VP6000FT -RA BR BKN014 BKN023 OVC029 14/12 A2910 RMK AO2 PK WND 03040/1522 SFC VIS 4 PRESFR BKN014 V SCT P0000
KVAY 291537Z AUTO 36018G25KT 1 3/4SM +RA BR BKN010 OVC017 12/11 A2902 RMK AO2 PK WND 35031/1527 RAB1456 PRESFR P0010 TSNO
KNEL 291539Z AUTO 03015G28KT 350V060 2SM -RA BR BKN012 OVC018 14/13 A2896 RMK AO2 PK WND 03029/1520 PRESFR PNO $
KWRI 291539Z AUTO 01023G32KT 3SM +RA BR BKN008 OVC017 13/12 A2897 RMK AO2 PK WND 01032/1531 VIS 2 RWY24 PRESFR SLP813
KMIV 291542Z AUTO 35017G28KT 2SM RA BR BKN010 OVC015 12/11 A2895 RMK AO2 PK WND 36033/1501 PRESFR P0010
KMMU 291545Z 02018G38KT 2SM +RA BR OVC017 12/11 A2914
KMIV 291547Z AUTO 34017G31KT 1 3/4SM +RA BR BKN010 OVC015 12/11 A2895 RMK AO2 PK WND 36033/1501 PRESFR P0012
KCDW 291550Z AUTO 03014G31KT 360V070 2SM -RA SCT016 BKN023 OVC029 13/ A2913 RMK AO2 PK WND 03032/1515 PRESFR P0001 TSNO $
KEWR 291551Z 02028G43KT 2SM R04R/5500VP6000FT RA BR BKN012 OVC020 14/12 A2908 RMK AO2 PK WND 03043/1542 TWR VIS 2 1/2 PRESFR SLP848 P0001 T01390122
KTEB 291551Z 02017G31KT 2 1/2SM -RA BR FEW017 BKN025 OVC034 14/12 A2910 RMK AO2 PK WND 01038/1518 PRESFR SLP852 P0000 T01390117
KSMQ 291553Z AUTO 02016G32KT 2SM -RA BR FEW015 BKN022 OVC038 13/11 A2908 RMK AO2 PK WND 04035/1541 PRESFR SLP846 P0003 T01280111 TSNO
KFWN 291553Z AUTO 04026G40KT 3SM HZ OVC020 13/09 A2923 RMK AO2 PK WND 03040/1547 RAE36 PRESFR SLP896 P0001 T01280094
KCDW 291553Z AUTO 04013G24KT 2SM -RA SCT016 OVC023 13/ A2914 RMK AO2 PK WND 03032/1515 SLP871 P0002 T0128 TSNO $
KNEL 291553Z AUTO 03014G26KT 1 1/2SM RA BR SCT012 OVC017 14/13 A2894 RMK AO2 PK WND 03029/1520 PRESFR PNO $
KTTN 291553Z 03020G27KT 2SM RA BR OVC013 12/11 A2903 RMK AO2 PK WND 04034/1523 PRESFR SLP825 P0013 T01220111
KNEL 291553Z AUTO 03014G26KT 1 1/2SM RA BR SCT012 OVC017 14/13 A2894 RMK AO2 PK WND 03029/1520 PRESFR PNO $
KACY 291554Z 01025G36KT 1 1/4SM +RA BR OVC011 13/12 A2886 RMK AO2 PK WND 01036/1554 PRESFR SLP772 P0024 T01330122
K12N 291554Z AUTO 03014G30KT 12/10 A2920 RMK AO2 PK WND 05036/1540 PRESFR SLP887 P0002 T01170100 PWINO TSNO
KMIV 291554Z AUTO 34021G31KT 1SM +RA BR FEW008 OVC013 12/11 A2893 RMK AO2 PK WND 36033/1501 PRESFR SLP796 P0016 T01170106
KVAY 291554Z AUTO 36018G27KT 3SM RA BR BKN010 OVC017 12/11 A2899 RMK AO2 PK WND 36031/1540 RAB1456 PRESFR SLP815 P0013 T01220111 TSNO
KWRI 291555Z AUTO 01026G31KT 3SM +RA BR BKN008 OVC014 13/12 A2895
KBLM 291555Z AUTO 02023G42KT 2 1/2SM BKN009 OVC014 13/12 A2896 RMK AO1 P0011
KWRI 291555Z AUTO 01026G31KT 3SM +RA BR BKN008 OVC014 13/12 A2895 RMK AO2 PK WND 01032/1541 PRESFR SLP804 P0009 T01310125
KWWD 291555Z AUTO 34016G27KT 5SM BKN006 OVC013 12/11 A2887 RMK AO1 P0029
KNEL 291600Z AUTO 03016G26KT 1 3/4SM RA BR BKN012 OVC017 14/13 A2893 RMK AO2 PK WND 03029/1520 PRESFR PNO $
KCDW 291600Z AUTO 03013G29KT 1 1/4SM RA SCT016 BKN025 OVC037 13/ A2912 RMK AO2 PK WND 02029/1557 PRESFR P0002 TSNO $
KWRI 291600Z AUTO 01023G38KT 2 1/2SM +RA BR BKN008 OVC013 13/12 A2894 RMK AO2 PK WND 36038/1557 PRESFR SLP800
KNEL 291606Z AUTO 03014G32KT 360V060 1 3/4SM RA BR BKN012 OVC016 14/13 A2892 RMK AO2 PK WND 01032/1606 PRESFR SLP791 T01390128 PNO $
KTEB 291607Z 02017G28KT 3SM -RA BR FEW015 BKN023 OVC029 14/12 A2908 RMK AO2 PK WND 02034/1554 PRESFR P0003
KWRI 291610Z AUTO 01024G30KT 2 1/2SM +RA BR OVC010 13/12 A2892 RMK AO2 PK WND 36038/1557 PRESFR SLP795
KWRI 291610Z AUTO 01024G30KT 2 1/2SM +RA BR OVC010 13/12 A2892
KWRI 291610Z AUTO 01024G30KT 2 1/2SM +RA BR OVC010 13/12 A2892 RMK AO2 PK WND 36038/1557 PRESFR SLP795
KWRI 291610Z AUTO 01024G30KT 2 1/2SM +RA BR OVC010 13/12 A2892 RMK AO2 PK WND 36038/1557 PRESFR SLP795
KWRI 291610Z AUTO 01024G30KT 2 1/2SM +RA BR OVC010 13/12 A2892 RMK AO2 PK WND 36038/1557 PRESFR SLP795
KWRI 291611Z AUTO 01023G30KT 2 1/2SM +RA BR OVC009 13/13 A2892 RMK AO2 PK WND 36038/1557 PRESFR SLP796
KWRI 291611Z AUTO 01023G30KT 2 1/2SM +RA BR OVC009 13/13 A2892 RMK AO2 PK WND 36038/1557 PRESFR SLP796
KWRI 291611Z AUTO 01023G30KT 2 1/2SM +RA BR OVC009 13/13 A2892 RMK AO2 PK WND 36038/1557 PRESFR SLP796
KWRI 291613Z AUTO 01025G33KT 3SM +RA BR OVC009 13/13 A2892
KWRI 291613Z AUTO 01025G33KT 3SM +RA BR OVC009 13/13 A2892 RMK AO2 PK WND 36038/1557 PRESFR SLP795
KWRI 291613Z AUTO 01025G33KT 3SM +RA BR OVC009 13/13 A2892 RMK AO2 PK WND 36038/1557 PRESFR SLP795
KWRI 291613Z AUTO 01025G33KT 3SM +RA BR OVC009 13/13 A2892 RMK AO2 PK WND 36038/1557 PRESFR SLP795
KWRI 291613Z AUTO 01025G33KT 3SM +RA BR OVC009 13/13 A2892 RMK AO2 PK WND 36038/1557 PRESFR SLP795
KFWN 291613Z AUTO 03027G40KT 2SM -RA OVC020 13/10 A2919 RMK AO2 PK WND 02040/1609 RAB1555 P0000
KWRI 291614Z AUTO 36024G33KT 2 1/2SM +RA BR OVC009 13/13 A2892 RMK AO2 PK WND 36038/1557 PRESFR SLP793
KVAY 291614Z AUTO 01021G30KT 1 3/4SM -RA BR BKN010 OVC015 13/12 A2895 RMK AO2 PK WND 02030/1610 PRESFR P0004 TSNO
KBLM 291615Z AUTO 02021G42KT 2SM OVC009 14/12 A2892 RMK AO1 P0003
KWWD 291615Z AUTO 34016G25KT 310V010 4SM OVC006 12/11 A2883 RMK AO1 P0017
KSMQ 291619Z AUTO 01015G29KT 1 3/4SM -RA BR FEW018 BKN024 OVC034 13/11 A2904 RMK AO2 PK WND 03031/1600 PRESFR P0004 TSNO
KWRI 291620Z AUTO 01022G33KT 2SM +RA BR BKN007 OVC011 13/12 A2891
KWRI 291620Z AUTO 01022G33KT 2SM +RA BR BKN007 OVC011 13/12 A2891 RMK AO2 PK WND 36038/1557 PRESFR SLP791
KWRI 291620Z AUTO 01022G33KT 2SM +RA BR BKN007 OVC011 13/12 A2891 RMK AO2 PK WND 36038/1557 PRESFR SLP791
KWRI 291620Z AUTO 01022G33KT 2SM +RA BR BKN007 OVC011 13/12 A2891 RMK AO2 PK WND 36038/1557 PRESFR SLP791
KWRI 291621Z AUTO 01023G33KT 2SM +RA BR OVC009 13/12 A2891 RMK AO2 PK WND 36038/1557 PRESFR SLP790
KCDW 291623Z AUTO 04013G26KT 2SM -RA SCT014 BKN022 OVC028 13/ A2909 RMK AO2 PK WND 02029/1557 PRESFR P0007 TSNO $
KSMQ 291625Z AUTO 01016G27KT 3SM -RA BR SCT018 BKN024 OVC034 13/11 A2903 RMK AO2 PK WND 03031/1600 PRESFR P0004 TSNO
KNEL 291627Z AUTO 02015G31KT 1 1/4SM +RA BR FEW009 OVC015 14/13 A2888 RMK AO2 PK WND 02031/1619 PRESFR PNO $
KNEL 291627Z AUTO 02015G31KT 1 1/4SM +RA BR FEW009 OVC015 14/13 A2888 RMK AO2 PK WND 02031/1619 PRESFR PNO $
KACY 291629Z 01022G34KT 2SM RA BR BKN011 OVC015 14/12 A2880 RMK AO2 PK WND 36035/1559 PRESFR P0027
KACY 291629Z 01022G34KT 2SM RA BR BKN011 OVC015 14/12 A2880 RMK AO2 PK WND 36035/1559 PRESFR P0027
KACY 291629Z 01022G34KT 2SM RA BR BKN011 OVC015 14/12 A2880 RMK AO2 PK WND 36035/1559 PRESFR P0027
KWRI 291630Z AUTO 01023G31KT 2SM +RA BR BKN007 BKN012 OVC018 13/12 A2889
KWRI 291630Z AUTO 01023G31KT 2SM +RA BR BKN007 BKN012 OVC018 13/12 A2889 RMK AO2 PK WND 36038/1557 PRESFR SLP784
KWRI 291630Z AUTO 01023G31KT 2SM +RA BR BKN007 BKN012 OVC018 13/12 A2889 RMK AO2 PK WND 36038/1557 PRESFR SLP784
KWRI 291630Z AUTO 01023G31KT 2SM +RA BR BKN007 BKN012 OVC018 13/12 A2889 RMK AO2 PK WND 36038/1557 PRESFR SLP784
KWRI 291631Z AUTO 01024G31KT 1 3/4SM +RA BR BKN007 BKN012 OVC018 13/12 A2889
KWRI 291631Z AUTO 01024G31KT 1 3/4SM +RA BR BKN007 BKN012 OVC018 13/12 A2889 RMK AO2 PK WND 36038/1557 BKN012 V OVC PRESFR SLP784
KWRI 291631Z AUTO 01024G31KT 1 3/4SM +RA BR BKN007 BKN012 OVC018 13/12 A2889 RMK AO2 PK WND 36038/1557 BKN012 V OVC PRESFR SLP784
KWRI 291631Z AUTO 01024G31KT 1 3/4SM +RA BR BKN007 BKN012 OVC018 13/12 A2889 RMK AO2 PK WND 36038/1557 BKN012 V OVC PRESFR SLP784
KTTN 291631Z AUTO 04019G31KT 1 3/4SM BR BKN013 OVC018 13/11 A2897 RMK AO2 PK WND 05033/1614 RAE31 PRESFR P0007
KWRI 291632Z AUTO 36023G31KT 1 3/4SM +RA BR FEW003 BKN009 OVC017 13/12 A2888 RMK AO2 PK WND 36038/1557 PRESFR SLP782
KWRI 291632Z AUTO 36023G31KT 1 3/4SM +RA BR FEW003 BKN009 OVC017 13/12 A2888 RMK AO2 PK WND 36038/1557 PRESFR SLP782
KWRI 291633Z AUTO 01024G31KT 1 1/2SM +RA BR FEW003 BKN009 OVC017 13/12 A2888 RMK AO2 PK WND 36038/1557 PRESFR SLP781
KWRI 291633Z AUTO 01024G31KT 1 1/2SM +RA BR FEW003 BKN009 OVC017 13/12 A2888 RMK AO2 PK WND 36038/1557 PRESFR SLP781
KWRI 291633Z AUTO 01024G31KT 1 1/2SM +RA BR FEW003 BKN009 OVC017 13/12 A2888 RMK AO2 PK WND 36038/1557 PRESFR SLP781
KWRI 291633Z AUTO 01024G31KT 1 1/2SM +RA BR FEW003 BKN009 OVC017 13/12 A2888
KWRI 291634Z AUTO 01024G31KT 1 1/2SM +RA BR BKN007 BKN012 OVC017 13/12 A2888 RMK AO2 PK WND 36038/1557 PRESFR SLP782
KWRI 291634Z AUTO 01024G31KT 1 1/2SM +RA BR BKN007 BKN012 OVC017 13/12 A2888 RMK AO2 PK WND 36038/1557 PRESFR SLP782
KWRI 291635Z AUTO 36025G31KT 1 1/2SM +RA BR BKN006 BKN011 OVC017 13/12 A2888 RMK AO2 PK WND 36038/1557 PRESFR SLP780
KWRI 291635Z AUTO 36025G31KT 1 1/2SM +RA BR BKN006 BKN011 OVC017 13/12 A2888 RMK AO2 PK WND 36038/1557 PRESFR SLP780
KWRI 291635Z AUTO 36025G31KT 1 1/2SM +RA BR BKN006 BKN011 OVC017 13/12 A2888 RMK AO2 PK WND 36038/1557 PRESFR SLP780
KWWD 291635Z AUTO 34016G23KT 4SM OVC006 12/11 A2880 RMK AO1 P0030
KBLM 291635Z AUTO 02026G46KT 2SM BKN009 OVC016 14/11 A2888 RMK AO1 P0006
KNEL 291635Z AUTO 03015G30KT 350V060 1 1/2SM RA BR BKN012 OVC017 14/13 A2887 RMK AO2 PK WND 02031/1619 PNO $
KWRI 291635Z AUTO 36025G31KT 1 1/2SM +RA BR BKN006 BKN011 OVC017 13/12 A2888
KWRI 291637Z AUTO 01026G32KT 1 1/2SM +RA BR BKN008 BKN011 OVC017 13/12 A2887 RMK AO2 PK WND 36038/1557 PRESFR SLP779
KACY 291639Z 01022G34KT 1 1/4SM +RA BR OVC011 14/12 A2877
KSMQ 291639Z AUTO 01016G29KT 1 3/4SM -RA BR SCT019 BKN026 OVC044 13/11 A2901 RMK AO2 PK WND 03031/1600 PRESFR P0006 TSNO
KTTN 291640Z AUTO 03020G34KT 2SM -RA BR BKN013 OVC018 13/11 A2895 RMK AO2 PK WND 04034/1636 PRESFR P0008
KFWN 291640Z AUTO 03020G38KT 1 1/4SM RA BR OVC020 13/11 A2916 RMK AO2 PK WND 02040/1609 RAB1555 P0005
KWRI 291642Z AUTO 36026G37KT 310V020 1 3/4SM +RA BR BKN007 BKN012 OVC017 13/12 A2886 RMK AO2 PK WND 36038/1557 PRESFR SLP775
KWRI 291642Z AUTO 36026G37KT 310V020 1 3/4SM +RA BR BKN007 BKN012 OVC017 13/12 A2886 RMK AO2 PK WND 36038/1557 PRESFR SLP775
KEWR 291644Z 02027G38KT 2SM R04R/4500VP6000FT RA BR BKN009 BKN015 OVC021 14/13 A2899 RMK AO2 PK WND 02042/1610 TWR VIS 2 1/2 PRESFR P0004
KWRI 291645Z AUTO 36027G37KT 2SM +RA BR BKN007 BKN012 OVC017 13/13 A2886 RMK AO2 PK WND 36038/1557 PRESFR SLP773
KSMQ 291645Z AUTO 01017G29KT 3SM -RA BR FEW015 BKN026 OVC040 13/11 A2900 RMK AO2 PK WND 03031/1600 PRESFR P0006 TSNO
KMMU 291645Z 03017G35KT 2SM RABR OVC015 13/11 A2903 RMK PRESFR
KWRI 291648Z AUTO 01027G37KT 2SM +RA BR BKN008 OVC017 13/13 A2885 RMK AO2 PK WND 36038/1557 PRESFR SLP770
KTEB 291651Z 02022G33KT 3SM -RA BR FEW015 SCT019 OVC024 14/12 A2900 RMK AO2 PK WND 02034/1554 PRESFR SLP821 P0005 T01440122
KEWR 291651Z 02027G40KT 2 1/2SM R04R/5000VP6000FT -RA BR BKN009 BKN015 OVC021 14/13 A2898 RMK AO2 PK WND 02042/1610 PRESFR SLP813 BKN009 V SCT P0004 T01390128
KWRI 291652Z AUTO 01024G37KT 1 3/4SM +RA BR FEW003 BKN008 OVC019 13/13 A2884 RMK AO2 PK WND 36038/1557 PRESFR SLP768
KWRI 291652Z AUTO 01024G37KT 1 3/4SM +RA BR FEW003 BKN008 OVC019 13/13 A2884 RMK AO2 PK WND 36038/1557 PRESFR SLP768
KWRI 291652Z AUTO 01024G37KT 1 3/4SM +RA BR FEW003 BKN008 OVC019 13/13 A2884
KWRI 291652Z AUTO 01024G37KT 1 3/4SM +RA BR FEW003 BKN008 OVC019 13/13 A2884 RMK AO2 PK WND 36038/1557 PRESFR SLP768
KWRI 291652Z AUTO 01024G37KT 1 3/4SM +RA BR FEW003 BKN008 OVC019 13/13 A2884 RMK AO2 PK WND 36038/1557 PRESFR SLP768
KFWN 291653Z AUTO 04019G33KT 1 3/4SM -RA BR FEW015 OVC020 13/11 A2914 RMK AO2 PK WND 02040/1609 RAB1555 PRESFR SLP865 P0007 T01280106
KWRI 291653Z AUTO 01024G37KT 2SM +RA BR FEW003 BKN008 OVC019 13/13 A2884 RMK AO2 PK WND 36038/1557 PRESFR SLP767
KWRI 291653Z AUTO 01024G37KT 2SM +RA BR FEW003 BKN008 OVC019 13/13 A2884 RMK AO2 PK WND 36038/1557 PRESFR SLP767
KTTN 291653Z AUTO 04023G32KT 1 3/4SM BR FEW009 OVC016 13/11 A2892 RMK AO2 PK WND 04034/1636 RAE52 PRESFR SLP788 P0010 T01280111
KSMQ 291653Z AUTO 01019G30KT 4SM -RA BR FEW018 BKN026 OVC040 13/11 A2898 RMK AO2 PK WND 03031/1600 PRESFR SLP815 P0006 T01330111 TSNO
KCDW 291653Z AUTO 03014G25KT 350V060 1 3/4SM RA BKN018 OVC023 13/ A2904 RMK AO2 PK WND 02029/1557 PRESFR SLP837 P0011 T0133 TSNO $
KVAY 291654Z AUTO 01022G32KT 1 1/2SM -RA BR BKN010 OVC015 13/12 A2887 RMK AO2 PK WND 36032/1648 PRESFR SLP776 P0015 T01280117 TSNO
KMIV 291654Z AUTO 34021G32KT 1 1/2SM +RA BR OVC012 12/11 A2882 RMK AO2 PK WND 34035/1623 PRESFR SLP757 P0030 T01170111
K12N 291654Z AUTO 03012G31KT 12/11 A2911 RMK AO2 PK WND 05031/1646 PRESFR SLP856 P0010 T01220106 PWINO TSNO
KACY 291654Z 01027G36KT 1 1/4SM +RA BR BKN011 OVC016 14/13 A2875 RMK AO2 PK WND 02038/1642 PRESFR SLP733 P0040 T01390128
KWWD 291655Z AUTO 33016G27KT 3SM OVC006 12/11 A2876 RMK AO1 P0044
KWRI 291655Z AUTO 01025G37KT 2SM +RA BR FEW003 BKN008 OVC019 13/13 A2884 RMK AO2 PK WND 36038/1557 PRESFR SLP766 P0016 T01310128
KWRI 291655Z AUTO 01025G37KT 2SM +RA BR FEW003 BKN008 OVC019 13/13 A2884
KBLM 291655Z AUTO 03029G44KT 2 1/2SM BKN009 OVC016 14/11 A2884 RMK AO1 P0009
KNEL 291700Z AUTO 03014G31KT 2SM RA BR BKN012 OVC017 14/13 A2882 RMK AO2 PK WND 03034/1646 PRESFR SLP756 T01440133 PNO $
KTTN 291701Z AUTO 04020G32KT 1 1/2SM +RA BR BKN013 OVC019 13/11 A2891 RMK AO2 PK WND 02030/1655 RAB1656 PRESFR P0002
KFWN 291701Z AUTO 04018G36KT 2 1/2SM -RA FEW015 OVC022 13/11 A2912 RMK AO2 PK WND 03036/1657 PRESFR P0001
KWRI 291703Z AUTO 01027G34KT 3SM +RA BR FEW003 BKN009 OVC019 13/13 A2882 RMK AO2 PK WND 03034/1701 VIS 2 RWY24 PRESFR SLP762
KCDW 291703Z AUTO 03015G26KT 2 1/2SM -RA BKN018 OVC024 13/ A2902 RMK AO2 PK WND 03026/1702 PRESFR P0001 TSNO $
KTTN 291704Z AUTO 04019G31KT 1 1/2SM +RA BR SCT009 OVC015 13/11 A2890 RMK AO2 PK WND 02031/1702 RAB1656 PRESFR P0003
KSMQ 291704Z AUTO 02021G30KT 1 3/4SM RA BR FEW017 BKN026 OVC040 13/12 A2897 RMK AO2 PK WND 02030/1703 PRESFR P0002 TSNO
KWRI 291706Z AUTO 36027G37KT 2 1/2SM +RA BR OVC008 13/13 A2882 RMK AO2 PK WND 36037/1705 OVC V BKN PRESFR SLP760
KACY 291708Z 36025G36KT 1 1/2SM +RA BR BKN013 OVC019 14/13 A2872 RMK AO2 PK WND 02036/1702 PRESFR P0007
KTTN 291709Z AUTO 03019G31KT 2SM RA BR BKN013 OVC018 13/11 A2890 RMK AO2 PK WND 02031/1702 RAB1656 PRESFR P0004
KEWR 291710Z 02034G43KT 2 1/2SM R04R/4500VP6000FT -RA BR SCT009 BKN012 OVC019 14/13 A2894 RMK AO2 PK WND 01043/1708 PRESFR SCT V BKN P0001
KNEL 291711Z AUTO 03013G28KT 1 1/2SM RA BR BKN012 OVC019 14/13 A2879 RMK AO2 PK WND 01028/1702 PRESFR PNO $
KFWN 291713Z AUTO 04021G42KT 1 1/2SM +RA BR OVC020 13/11 A2910 RMK AO2 PK WND 01042/1705 PRESFR P0005
KWWD 291715Z AUTO 34012G22KT 3SM OVC006 12/11 A2873 RMK AO1 P0018
KBLM 291715Z AUTO 03024G44KT 2SM OVC009 14/10 A2881 RMK AO1 P0001
KSMQ 291716Z AUTO 02020G32KT 340V050 2 1/2SM -RA BR FEW017 BKN028 OVC038 13/12 A2893 RMK AO2 PK WND 02032/1712 PRESFR P0004 TSNO
KWRI 291716Z AUTO 01025G40KT 1 3/4SM +RA BR BKN008 BKN012 OVC020 13/13 A2880 RMK AO2 PK WND 01040/1711 BKN012 V OVC PRESFR SLP754
KACY 291718Z 01027G36KT 1 1/4SM +RA BR BKN011 OVC017 14/13 A2869 RMK AO2 PK WND 02036/1717 PRESFR P0012
KWRI 291721Z AUTO 01027G40KT 1 1/2SM +RA BR BKN008 OVC019 13/13 A2879 RMK AO2 PK WND 01040/1711 PRESFR SLP749
KWRI 291721Z AUTO 01027G40KT 1 1/2SM +RA BR BKN008 OVC019 13/13 A2879 RMK AO2 PK WND 01040/1711 PRESFR SLP749
KTEB 291722Z 02019G32KT 2SM -RA BR FEW013 BKN022 OVC038 14/13 A2893 RMK AO2 PK WND 36035/1700 PRESFR P0004
KMIV 291722Z AUTO 34020G33KT 1 1/4SM +RA BR SCT009 OVC014 12/11 A2877 RMK AO2 PK WND 34033/1722 PRESFR P0014
KWRI 291725Z AUTO 01025G34KT 1 3/4SM +RA BR BKN008 OVC018 13/13 A2878 RMK AO2 PK WND 01040/1711 PRESFR SLP747
KWRI 291725Z AUTO 01025G34KT 1 3/4SM +RA BR BKN008 OVC018 13/13 A2878 RMK AO2 PK WND 01040/1711 PRESFR SLP747
KCDW 291730Z AUTO 04013G28KT 360V070 1 1/4SM RA BKN016 BKN022 OVC028 13/ A2896 RMK AO2 PK WND 05030/1708 PRESFR P0007 TSNO $
KMIV 291730Z AUTO 34017G33KT 1 1/2SM +RA BR SCT009 OVC016 12/11 A2876 RMK AO2 PK WND 34033/1722 PRESFR P0017
KWRI 291733Z AUTO 36029G38KT 1 3/4SM +RA BR SCT005 BKN011 OVC017 13/13 A2876 RMK AO2 PK WND 01040/1711 PRESFR SLP741
KSMQ 291733Z AUTO 01020G30KT 1 1/4SM RA BR FEW019 BKN024 OVC036 14/12 A2891 RMK AO2 PK WND 02032/1712 P0008 TSNO
KWRI 291733Z AUTO 36029G38KT 1 3/4SM +RA BR SCT005 BKN011 OVC017 13/13 A2876 RMK AO2 PK WND 01040/1711 PRESFR SLP741
KWRI 291733Z AUTO 36029G38KT 1 3/4SM +RA BR SCT005 BKN011 OVC017 13/13 A2876 RMK AO2 PK WND 01040/1711 PRESFR SLP741
KWRI 291734Z AUTO 36028G38KT 1 3/4SM +RA BR BKN008 BKN011 OVC017 13/13 A2876 RMK AO2 PK WND 01040/1711 PRESFR SLP741
KWRI 291734Z AUTO 36028G38KT 1 3/4SM +RA BR BKN008 BKN011 OVC017 13/13 A2876 RMK AO2 PK WND 01040/1711 PRESFR SLP741
KWRI 291734Z AUTO 36028G38KT 1 3/4SM +RA BR BKN008 BKN011 OVC017 13/13 A2876 RMK AO2 PK WND 01040/1711 PRESFR SLP741
KWRI 291734Z AUTO 36028G38KT 1 3/4SM +RA BR BKN008 BKN011 OVC017 13/13 A2876
KWRI 291734Z AUTO 36028G38KT 1 3/4SM +RA BR BKN008 BKN011 OVC017 13/13 A2876 RMK AO2 PK WND 01040/1711 PRESFR SLP741
KWWD 291735Z AUTO 33016G31KT 300V010 4SM OVC006 12/11 A2868 RMK AO1 P0034
KWRI 291735Z AUTO 36026G38KT 1 1/2SM +RA BR BKN008 BKN011 OVC017 13/13 A2876 RMK AO2 PK WND 01040/1711 BKN008 V SCT PRESFR SLP741
KWRI 291735Z AUTO 36026G38KT 1 1/2SM +RA BR BKN008 BKN011 OVC017 13/13 A2876 RMK AO2 PK WND 01040/1711 BKN008 V SCT PRESFR SLP741
KBLM 291735Z AUTO 03025G42KT 3SM BKN009 OVC015 14/11 A2876 RMK AO1 P0009
KWRI 291736Z AUTO 01027G38KT 1 1/2SM +RA BR SCT008 BKN011 OVC017 13/13 A2876 RMK AO2 PK WND 01040/1711 PRESFR SLP741
KWRI 291739Z AUTO 01027G38KT 1 1/2SM +RA BR FEW005 BKN010 OVC016 13/13 A2875 RMK AO2 PK WND 01040/1711 PRESFR SLP738
KSMQ 291740Z AUTO 01020G32KT 3SM -RA BR SCT021 BKN029 OVC036 14/12 A2889 RMK AO2 PK WND 04032/1739 PRESFR P0008 TSNO
KACY 291741Z 01026G39KT 1SM +RA BR BKN012 OVC017 14/13 A2864 RMK AO2 PK WND 02042/1722 PRESFR P0024
KCDW 291743Z AUTO 04017G28KT 2 1/2SM -RA BKN016 OVC022 14/ A2894 RMK AO2 PK WND 05030/1708 PRESFR P0008 TSNO $
KWRI 291745Z AUTO 01031G38KT 1 1/2SM +RA BR FEW003 BKN009 OVC016 13/13 A2873 RMK AO2 PK WND 01040/1711 PRESFR SLP732
KNEL 291746Z AUTO 03017G44KT 360V060 1 1/4SM +RA BR FEW009 OVC016 14/13 A2871 RMK AO2 PK WND 03044/1746 PRESFR PNO $
KSMQ 291748Z AUTO 03018G32KT 5SM -RA BR SCT023 OVC034 14/12 A2888 RMK AO2 PK WND 04032/1739 P0009 TSNO
KTTN 291750Z AUTO 04018G33KT 1 3/4SM RA BR SCT014 OVC019 13/11 A2883 RMK AO2 PK WND 04035/1711 RAB1656 P0012
KWRI 291751Z AUTO 01026G38KT 1 3/4SM +RA BR FEW003 BKN009 OVC017 14/13 A2872 RMK AO2 PK WND 01040/1711 PRESFR SLP727
KWRI 291751Z AUTO 01026G38KT 1 3/4SM +RA BR FEW003 BKN009 OVC017 14/13 A2872 RMK AO2 PK WND 01040/1711 PRESFR SLP727
KWRI 291751Z AUTO 01026G38KT 1 3/4SM +RA BR FEW003 BKN009 OVC017 14/13 A2872
KWRI 291751Z AUTO 01026G38KT 1 3/4SM +RA BR FEW003 BKN009 OVC017 14/13 A2872 RMK AO2 PK WND 01040/1711 PRESFR SLP727
KTEB 291751Z 02017G28KT 5SM -RA BR SCT014 BKN021 OVC026 15/13 A2890 RMK AO2 PK WND 01035/1725 SLP785 P0006 60013 T01500133 10150 20128 58093
KEWR 291751Z 02033G43KT 2 1/2SM -RA BR BKN011 OVC020 14/13 A2887 RMK AO2 PK WND 02047/1725 SFC VIS 3 PRESFR SLP775 P0005 60019 T01440133 10144 20122 58072
KWRI 291753Z AUTO 01026G41KT 1 3/4SM +RA BR FEW003 BKN011 OVC017 14/13 A2872 RMK AO2 PK WND 36041/1752 PRESFR SLP727
KSMQ 291753Z AUTO 03017G31KT 5SM -RA BR FEW018 SCT025 OVC032 14/12 A2888
KWRI 291753Z AUTO 01026G41KT 1 3/4SM +RA BR FEW003 BKN011 OVC017 14/13 A2872 RMK AO2 PK WND 36041/1752 PRESFR SLP727
KFWN 291753Z AUTO 03018G40KT 2SM RA BR OVC017 13/11 A2903 RMK AO2 PK WND 01042/1705 PRESFR SLP831 P0015 60023 T01330111 10133 20122 56064
KTTN 291753Z AUTO 04023G36KT 1 1/2SM +RA BR BKN014 OVC019 13/11 A2881 RMK AO2 PK WND 04036/1751 RAB1656 PRESFR SLP751 P0013 60084 T01330111 10133 20117 58102
KSMQ 291753Z AUTO 03017G31KT 5SM -RA BR FEW018 SCT025 OVC032 14/12 A2888 RMK AO2 PK WND 04032/1739 SLP780 P0009 60050 T01390117 10139 20117 56066 TSNO
KCDW 291753Z AUTO 04011G24KT 360V070 3SM -RA SCT015 BKN020 OVC025 14/ A2893 RMK AO2 PK WND 05030/1708 PRESFR SLP800 P0009 60033 T0139 10139 20117 58069 TSNO $
KWRI 291753Z AUTO 01026G41KT 1 3/4SM +RA BR FEW003 BKN011 OVC017 14/13 A2872
KWRI 291753Z AUTO 01026G41KT 1 3/4SM +RA BR FEW003 BKN011 OVC017 14/13 A2872 RMK AO2 PK WND 36041/1752 PRESFR SLP727
K12N 291754Z AUTO 04014G28KT 13/11 A2900 RMK AO2 PK WND 04036/1717 SLP820 P0011 60032 T01280111 10128 20111 58085 PWINO TSNO
KWRI 291754Z AUTO 01030G41KT 1 3/4SM +RA BR FEW003 BKN010 OVC019 14/13 A2871 RMK AO2 PK WND 36041/1752 PRESFR SLP725
KWRI 291754Z AUTO 01030G41KT 1 3/4SM +RA BR FEW003 BKN010 OVC019 14/13 A2871 RMK AO2 PK WND 36041/1752 PRESFR SLP725
KMIV 291754Z AUTO 34018G32KT 1 1/2SM +RA BR SCT009 BKN016 OVC020 12/11 A2872 RMK AO2 PK WND 34033/1722 PRESFR SLP723 P0028 60123 T01220111 10122 20106 58105
KWRI 291754Z AUTO 01030G41KT 1 3/4SM +RA BR FEW003 BKN010 OVC019 14/13 A2871 RMK AO2 PK WND 36041/1752 PRESFR SLP725
KVAY 291754Z AUTO 36020G34KT 1 1/4SM +RA BR BKN012 OVC016 13/12 A2876 RMK AO2 PK WND 36035/1732 PRESFR SLP737 P0022 60111 T01330122 10133 20117 58107 TSNO
KBLM 291755Z AUTO 03030G42KT 3SM SCT009 OVC017 14/11 A2872 RMK AO1 P0022 60081 10140 20120 57115
KWRI 291755Z AUTO 01030G41KT 1 3/4SM +RA BR FEW003 BKN010 BKN014 OVC019 14/13 A2871
KWRI 291755Z AUTO 01030G41KT 1 3/4SM +RA BR FEW003 BKN010 BKN014 OVC019 14/13 A2871 RMK AO2 PK WND 36041/1752 BKN010 V SCT PRESFR SLP724 P0021 60099 T01350133 10135 20112 58111
KWRI 291756Z AUTO 01030G41KT 1 3/4SM +RA BR FEW003 BKN012 OVC019 14/13 A2871 RMK AO2 PK WND 35035/1755 PRESFR SLP725
KWRI 291756Z AUTO 01030G41KT 1 3/4SM +RA BR FEW003 BKN012 OVC019 14/13 A2871 RMK AO2 PK WND 35035/1755 PRESFR SLP725
KWRI 291756Z AUTO 01030G41KT 1 3/4SM +RA BR FEW003 BKN012 OVC019 14/13 A2871 RMK AO2 PK WND 35035/1755 PRESFR SLP725
KWRI 291756Z AUTO 01030G41KT 1 3/4SM +RA BR FEW003 BKN012 OVC019 14/13 A2871
KWRI 291756Z AUTO 01030G41KT 1 3/4SM +RA BR FEW003 BKN012 OVC019 14/13 A2871 RMK AO2 PK WND 35035/1755 PRESFR SLP725
KWRI 291757Z AUTO 36027G41KT 1 3/4SM +RA BR FEW003 SCT010 SCT014 OVC019 14/13 A2871 RMK AO2 PK WND 35035/1755 FEW V SCT PRESFR SLP724
KWRI 291758Z AUTO 36025G41KT 1 3/4SM +RA BR FEW003 BKN010 OVC018 14/13 A2871 RMK AO2 PK WND 35035/1755 BKN V SCT PRESFR SLP725
KWRI 291759Z AUTO 01027G41KT 340V050 1 3/4SM +RA BR FEW003 BKN012 OVC018 14/13 A2871 RMK AO2 PK WND 35035/1755 VIS 1 RWY24 PRESFR SLP723
KACY 291759Z 01025G44KT 1SM +RA BR FEW008 OVC015 14/13 A2861 RMK AO2 PK WND 02044/1758 P0006
KWRI 291759Z AUTO 01027G41KT 340V050 1 3/4SM +RA BR FEW003 BKN012 OVC018 14/13 A2871 RMK AO2 PK WND 35035/1755 VIS 1 RWY24 PRESFR SLP723
KWRI 291759Z AUTO 01027G41KT 340V050 1 3/4SM +RA BR FEW003 BKN012 OVC018 14/13 A2871 RMK AO2 PK WND 35035/1755 VIS 1 RWY24 PRESFR SLP723
KWRI 291759Z AUTO 01027G41KT 340V050 1 3/4SM +RA BR FEW003 BKN012 OVC018 14/13 A2871 RMK AO2 PK WND 35035/1755 VIS 1 RWY24 PRESFR SLP723
KWRI 291759Z AUTO 01027G41KT 340V050 1 3/4SM +RA BR FEW003 BKN012 OVC018 14/13 A2871
KNEL 291800Z AUTO 03011G39KT 1SM +RA BR SCT011 OVC016 15/14 A2869 RMK AO2 PK WND 03044/1746 SLP714 6//// T01500139 10150 20122 56038 PNO $
KSMQ 291800Z AUTO 01022G33KT 6SM -RA BR BKN022 BKN028 OVC034 14/12 A2885 RMK AO2 PK WND 02033/1800 PRESFR P0000 TSNO
KWRI 291801Z AUTO 01030G41KT 1 1/2SM +RA BR FEW003 BKN011 OVC018 14/13 A2871 RMK AO2 PK WND 02035/1801 PRESFR SLP722
KEWR 291805Z 03028G44KT 2 1/2SM -RA BR FEW009 BKN013 OVC027 14/13 A2884 RMK AO2 PK WND 02044/1802 SFC VIS 3 CIG 011V015 P0000
KWRI 291806Z AUTO 36025G35KT 1 1/4SM +RA BR FEW003 BKN011 OVC018 14/13 A2869 RMK AO2 PK WND 36035/1803 PRESFR SLP717
KNEL 291810Z AUTO 04017G36KT 1 1/4SM +RA BR BKN014 OVC021 15/14 A2867 RMK AO2 PK WND 02036/1808 PRESFR PNO $
KWRI 291812Z AUTO 01024G37KT 1 1/2SM +RA BR FEW003 BKN011 OVC020 14/14 A2868 RMK AO2 PK WND 01037/1807 PRESFR SLP714
KFWN 291812Z AUTO 03021G36KT 1 1/2SM RA BR BKN017 OVC027 13/11 A2901 RMK AO2 PK WND 04036/1803 PRESFR P0004
KTTN 291814Z AUTO 04023G44KT 1 3/4SM +RA BR BKN016 OVC023 14/12 A2876 RMK AO2 PK WND 05044/1805 PRESFR P0009
KBLM 291815Z AUTO 03029G46KT 3SM SCT009 OVC017 14/11 A2868 RMK AO1 P0008
KWRI 291817Z AUTO 01025G37KT 1 3/4SM +RA BR FEW003 BKN011 OVC021 14/14 A2867 RMK AO2 PK WND 01037/1807 PRESFR SLP710
KWRI 291817Z AUTO 01025G37KT 1 3/4SM +RA BR FEW003 BKN011 OVC021 14/14 A2867 RMK AO2 PK WND 01037/1807 PRESFR SLP710
KWRI 291817Z AUTO 01025G37KT 1 3/4SM +RA BR FEW003 BKN011 OVC021 14/14 A2867 RMK AO2 PK WND 01037/1807 PRESFR SLP710
KVAY 291819Z AUTO 01023G38KT 1 1/4SM +RA BR SCT009 OVC015 13/12 A2871 RMK AO2 PK WND 36039/1800 PRESFR P0019 TSNO
KWRI 291820Z AUTO 01027G37KT 2SM +RA BR FEW003 BKN011 OVC021 14/14 A2867 RMK AO2 PK WND 01037/1819 PRESFR SLP709
KSMQ 291821Z AUTO 02019G36KT 2 1/2SM -RA BR FEW022 BKN031 OVC041 14/12 A2881 RMK AO2 PK WND 36036/1816 PRESFR P0001 TSNO
KACY 291821Z 36022G34KT 1 1/4SM +RA BR OVC014 14/13 A2855 RMK AO2 PK WND 02044/1758 PRESFR P0021
KWRI 291822Z AUTO 01027G37KT 2SM +RA BR FEW003 BKN010 OVC021 14/13 A2866 RMK AO2 PK WND 01037/1819 PRESFR SLP706
KFWN 291828Z AUTO 04023G38KT 2 1/2SM -RA BR BKN014 BKN019 OVC025 14/12 A2899 RMK AO2 PK WND 04039/1816 P0008
KWRI 291830Z AUTO 01027G40KT 1 3/4SM +RA BR SCT003 BKN010 OVC020 14/14 A2865 RMK AO2 PK WND 01040/1828 PRESFR SLP702
KSMQ 291831Z AUTO 02016G34KT 2SM -RA BR FEW022 BKN027 OVC039 14/12 A2880 RMK AO2 PK WND 36036/1816 PRESFR P0002 TSNO
KFWN 291837Z AUTO 03025G38KT 2 1/2SM -RA BKN018 OVC025 14/11 A2897 RMK AO2 PK WND 04039/1816 PRESFR P0008
KVAY 291837Z AUTO 01022G34KT 1 1/2SM +RA BR BKN012 OVC018 14/12 A2867 RMK AO2 PK WND 36039/1800 PRESFR P0030 TSNO
KSMQ 291839Z AUTO 01024G39KT 1 3/4SM RA BR FEW022 OVC032 14/12 A2878 RMK AO2 PK WND 03039/1837 PRESFR P0004 TSNO
KNEL 291840Z AUTO 03016G38KT 1 1/4SM +RA BR OVC016 15/14 A2861 RMK AO2 PK WND 01042/1816 PRESFR PNO $
KCDW 291840Z AUTO 04020G41KT 6SM -RA FEW021 SCT027 OVC036 15/ A2884 RMK AO2 PK WND 03041/1839 P0002 TSNO $
KEWR 291843Z 02033G45KT 2 1/2SM -RA BR FEW009 BKN015 OVC035 15/13 A2876 RMK AO2 PK WND 03045/1836 SFC VIS 4 PRESFR CIG 013V017 P0002
KWRI 291844Z AUTO 01029G44KT 2SM +RA BR SCT003 BKN010 OVC019 14/14 A2862 RMK AO2 PK WND 35046/1830 VIS 1 1/4 RWY24 PRESFR SLP691
KWRI 291844Z AUTO 01029G44KT 2SM +RA BR SCT003 BKN010 OVC019 14/14 A2862 RMK AO2 PK WND 35046/1830 VIS 1 1/4 RWY24 PRESFR SLP691
KWRI 291844Z AUTO 01029G44KT 2SM +RA BR SCT003 BKN010 OVC019 14/14 A2862 RMK AO2 PK WND 35046/1830 VIS 1 1/4 RWY24 PRESFR SLP691
KWRI 291846Z AUTO 01035G43KT 1 3/4SM +RA BR FEW003 BKN011 OVC020 14/14 A2861 RMK AO2 PK WND 35046/1830 PRESFR SLP689
KSMQ 291851Z AUTO 02018G31KT 2SM RA BR FEW022 BKN029 OVC037 14/12 A2877 RMK AO2 PK WND 03039/1837 P0007 TSNO
KEWR 291851Z 03036G47KT 2 1/2SM -RA BR FEW009 BKN017 OVC030 16/14 A2875 RMK AO2 PK WND 03047/1849 SFC VIS 4 PRESFR SLP736 P0002 T01560139
KTEB 291851Z 03020G48KT 5SM -RA BR FEW021 OVC028 16/14 A2879 RMK AO2 PK WND 01048/1848 SLP748 P0001 T01610139
KWRI 291852Z AUTO 01031G43KT 2SM +RA BR FEW003 BKN011 OVC019 14/14 A2860 RMK AO2 PK WND 35046/1830 PRESFR SLP686
KMIV 291852Z AUTO 35021G30KT 1 1/4SM +RA BR OVC013 13/12 A2859 RMK AO2 PK WND 34036/1839 PRESFR P0037
KWRI 291852Z AUTO 01031G43KT 2SM +RA BR FEW003 BKN011 OVC019 14/14 A2860 RMK AO2 PK WND 35046/1830 PRESFR SLP686
KTTN 291853Z AUTO 04027G46KT 2 1/2SM RA BR OVC018 14/12 A2869 RMK AO2 PK WND 05046/1848 SLP708 P0029 T01390117
KCDW 291853Z AUTO 04019G42KT 9SM -RA SCT025 OVC036 16/13 A2881 RMK AO2 PK WND 05042/1851 SLP760 P0002 T01560128 TSNO
KSMQ 291853Z AUTO 03024G48KT 2SM -RA BR FEW022 BKN029 OVC037 14/12 A2876
KSMQ 291853Z AUTO 03024G48KT 2SM -RA BR FEW022 BKN029 OVC037 14/12 A2876 RMK AO2 PK WND 03048/1853 SLP740 P0007 T01440122 TSNO
KFWN 291853Z AUTO 04027G42KT 1 1/2SM RA BR OVC018 14/12 A2894 RMK AO2 PK WND 02044/1839 PRESFR SLP799 P0011 T01390117
KMIV 291854Z AUTO 34021G30KT 1 1/4SM +RA BR OVC013 13/12 A2858 RMK AO2 PK WND 34036/1839 PRESFR SLP678 P0038 T01280117
KACY 291854Z 01024G36KT 1SM +RA BR FEW010 OVC014 15/13 A2848 RMK AO2 PK WND 02044/1758 PRESFR SLP644 P0044 T01500133
K12N 291854Z AUTO 04021G37KT 13/12 A2891 RMK AO2 PK WND 04038/1837 PRESFR SLP787 P0009 T01280117 PWINO TSNO
KVAY 291854Z AUTO 36023G38KT 1 1/2SM +RA BR FEW010 OVC015 14/12 A2863 RMK AO2 PK WND 36039/1800 PRESFR SLP695 P0044 T01390122 TSNO
KWRI 291855Z AUTO 01031G44KT 2SM +RA BR FEW003 BKN013 OVC019 14/14 A2859 RMK AO2 PK WND 35046/1830 PRESFR SLP684 P0033 T01430141
KMIV 291857Z AUTO 34021G30KT 1 1/2SM +RA BR FEW008 OVC016 13/12 A2858 RMK AO2 PK WND 35028/1857 PRESFR P0002
KNEL 291900Z AUTO 03019G35KT 350V060 2SM RA BR BKN014 OVC020 16/14 A2856 RMK AO2 PK WND 01042/1816 PRESFR PNO $
KSMQ 291901Z AUTO 02020G48KT 2SM -RA BR FEW022 OVC033 14/12 A2876 RMK AO2 PK WND 01034/1859 P0001 TSNO
KTTN 291902Z AUTO 04024G38KT 3SM RA BR BKN016 OVC023 14/12 A2868 RMK AO2 PK WND 06038/1901 P0002
KVAY 291903Z AUTO 36023G32KT 1 3/4SM +RA BR OVC013 14/13 A2861 RMK AO2 PK WND 36032/1903 PRESFR P0005 TSNO
KFWN 291905Z AUTO 03029G39KT 2 1/2SM -RA BR BKN018 OVC025 14/12 A2893 RMK AO2 PK WND 05039/1904 P0001
KNEL 291906Z AUTO 04020G35KT 360V070 2SM RA BR BKN014 OVC020 16/14 A2855 RMK AO2 PK WND 01042/1816 SLP665 T01560139 PNO $
KNEL 291906Z AUTO 04020G35KT 360V070 2SM RA BR BKN014 OVC020 16/14 A2855 RMK AO2 PK WND 01042/1816 SLP665 T01560139 PNO $
KNEL 291906Z AUTO 04020G35KT 360V070 2SM RA BR BKN014 OVC020 16/14 A2855 RMK AO2 PK WND 01042/1816 SLP665 T01560139 PNO $
KNEL 291906Z AUTO 04020G35KT 360V070 2SM RA BR BKN014 OVC020 16/14 A2855 RMK AO2 PK WND 01042/1816 SLP665 T01560139 PNO $
KNEL 291906Z AUTO 04020G35KT 360V070 2SM RA BR BKN014 OVC020 16/14 A2855 RMK AO2 PK WND 01042/1816 SLP665 T01560139 PNO $
KNEL 291906Z AUTO 04020G35KT 360V070 2SM RA BR BKN014 OVC020 16/14 A2855 RMK AO2 PK WND 01042/1816 SLP665 T01560139 PNO $
KNEL 291906Z AUTO 04020G35KT 360V070 2SM RA BR BKN014 OVC020 16/14 A2855 RMK AO2 PK WND 01042/1816 SLP665 T01560139 PNO $
KNEL 291906Z AUTO 04020G35KT 360V070 2SM RA BR BKN014 OVC020 16/14 A2855 RMK AO2 PK WND 01042/1816 SLP665 T01560139 PNO $
KNEL 291906Z AUTO 04020G35KT 360V070 2SM RA BR BKN014 OVC020 16/14 A2855 RMK AO2 PK WND 01042/1816 SLP665 T01560139 PNO $
KWRI 291908Z AUTO 01030G52KT 2 1/2SM +RA BR FEW003 BKN015 OVC020 14/14 A2856 RMK AO2 PK WND 03052/1859 VIS 1 3/4 RWY24 PRESFR SLP672
KWRI 291908Z AUTO 01030G52KT 2 1/2SM +RA BR FEW003 BKN015 OVC020 14/14 A2856 RMK AO2 PK WND 03052/1859 VIS 1 3/4 RWY24 PRESFR SLP672
KWRI 291908Z AUTO 01030G52KT 2 1/2SM +RA BR FEW003 BKN015 OVC020 14/14 A2856 RMK AO2 PK WND 03052/1859 VIS 1 3/4 RWY24 PRESFR SLP672
KSMQ 291909Z AUTO 02019G28KT 2SM RA BR BKN026 OVC036 14/13 A2874 RMK AO2 PK WND 01034/1859 PRESFR P0003 TSNO
KMIV 291909Z AUTO 34018G33KT 1 1/4SM +RA BR OVC013 13/12 A2856 RMK AO2 PK WND 33033/1903 PRESFR P0010
KWRI 291911Z AUTO 01028G45KT 3SM +RA BR FEW003 BKN015 OVC020 14/14 A2856 RMK AO2 PK WND 03052/1859 VIS 2 RWY24 PRESFR SLP671
KWRI 291911Z AUTO 01028G45KT 3SM +RA BR FEW003 BKN015 OVC020 14/14 A2856 RMK AO2 PK WND 03052/1859 VIS 2 RWY24 PRESFR SLP671
KTEB 291912Z 03021G38KT 5SM -RA BR FEW022 OVC031 17/14 A2875 RMK AO2 PK WND 05038/1907 PRESFR P0000
KTTN 291913Z AUTO 04024G38KT 2 1/2SM RA BR BKN016 OVC025 14/12 A2865 RMK AO2 PK WND 05038/1906 PRESFR P0005
KACY 291915Z 36027G48KT 3/4SM +RA BR BKN012 OVC017 15/14 A2841 RMK AO2 PK WND 02048/1910 PRESFR P0019
KWRI 291915Z AUTO 01038G48KT 2 1/2SM +RA BR FEW003 BKN015 OVC020 15/14 A2853
KWRI 291915Z AUTO 01038G48KT 2 1/2SM +RA BR FEW003 BKN015 OVC020 15/14 A2853 RMK AO2 PK WND 03052/1859 PRESFR SLP664
KNEL 291917Z AUTO 03017G45KT 350V060 1 1/2SM +RA BR OVC014 16/14 A2852 RMK AO2 PK WND 03045/1908 PRESFR PNO $
KFWN 291920Z AUTO 03026G41KT 1 3/4SM -RA BR BKN018 OVC023 14/12 A2890 RMK AO2 PK WND 03041/1919 PRESFR P0003
KWRI 291920Z AUTO 02034G60KT 2 1/2SM +RA BR FEW004 BKN014 OVC020 15/14 A2853 RMK AO2 PK WND 01060/1915 VIS 1 1/2 RWY24 PRESFR SLP662
KVAY 291922Z AUTO 01024G34KT 2SM RA BR BKN013 OVC020 14/13 A2857 RMK AO2 PK WND 36035/1909 PRESFR P0013 TSNO
KTTN 291924Z AUTO 04025G40KT 3SM RA BKN018 OVC025 15/12 A2863 RMK AO2 PK WND 05040/1922 P0008
KFWN 291927Z AUTO 03028G43KT 2SM -RA BR OVC018 14/12 A2889 RMK AO2 PK WND 04043/1924 PRESFR P0003
KWRI 291929Z AUTO 02034G44KT 2SM +RA BR FEW004 SCT011 BKN016 OVC021 15/15 A2851 RMK AO2 PK WND 01060/1915 FEW V SCT PRESFR SLP656
KSMQ 291930Z AUTO 03021G37KT 3SM -RA BR BKN024 OVC033 15/13 A2870 RMK AO2 PK WND 02037/1925 PRESFR P0006 TSNO
KCDW 291931Z AUTO 06018G42KT 9SM -RA BKN026 OVC033 16/13 A2876 RMK AO2 PK WND 06044/1917 P0000 TSNO
KACY 291932Z 01028G43KT 1SM +RA BR BKN011 OVC017 16/14 A2837 RMK AO2 PK WND 02048/1910 PRESFR P0040
KVAY 291934Z AUTO 01025G41KT 2SM RA BR BKN015 OVC020 15/13 A2853 RMK AO2 PK WND 01041/1934 PRESFR P0018 TSNO
KTTN 291935Z AUTO 04024G40KT 2 1/2SM RA BR SCT015 OVC022 15/13 A2862 RMK AO2 PK WND 05040/1931 PRESFR P0011
KWRI 291935Z AUTO 01036G48KT 2SM +RA BR FEW007 BKN014 OVC023 15/15 A2849 RMK AO2 PK WND 01060/1915 PRESFR SLP650
KTEB 291936Z 03023G43KT 5SM -RA BR BKN029 OVC034 17/14 A2872 RMK AO2 PK WND 05043/1930 PRESFR P0000
KFWN 291938Z AUTO 03024G39KT 1 1/2SM RA BR OVC018 14/12 A2887 RMK AO2 PK WND 04043/1924 PRESFR P0006
KSMQ 291938Z AUTO 02019G37KT 2 1/2SM -RA BR BKN026 OVC033 15/13 A2868 RMK AO2 PK WND 04037/1936 PRESFR P0007 TSNO
KWRI 291944Z AUTO 02036G46KT 1 3/4SM +RA BR FEW005 BKN013 OVC022 15/15 A2848 RMK AO2 PK WND 01060/1915 PRESFR SLP644
KWRI 291946Z AUTO 02044G53KT 1 1/2SM R06/4000VP6000FT +RA BR FEW005 BKN013 OVC020 15/15 A2847 RMK AO2 PK WND 01060/1915 PRESFR SLP642
KWRI 291946Z AUTO 02044G53KT 1 1/2SM R06/4000VP6000FT +RA BR FEW005 BKN013 OVC020 15/15 A2847 RMK AO2 PK WND 01060/1915 PRESFR SLP642
KWRI 291946Z AUTO 02044G53KT 1 1/2SM R06/4000VP6000FT +RA BR FEW005 BKN013 OVC020 15/15 A2847 RMK AO2 PK WND 01060/1915 PRESFR SLP642
KWRI 291946Z AUTO 02044G53KT 1 1/2SM R06/4000VP6000FT +RA BR FEW005 BKN013 OVC020 15/15 A2847 RMK AO2 PK WND 01060/1915 PRESFR SLP642
KWRI 291946Z AUTO 02044G53KT 1 1/2SM R06/4000VP6000FT +RA BR FEW005 BKN013 OVC020 15/15 A2847
KWRI 291947Z AUTO 02039G53KT 1 1/4SM R06/4000VP6000FT +RA BR FEW005 BKN013 OVC019 15/14 A2847 RMK AO2 PK WND 01060/1915 PRESFR SLP643
KWRI 291947Z AUTO 02039G53KT 1 1/4SM R06/4000VP6000FT +RA BR FEW005 BKN013 OVC019 15/14 A2847 RMK AO2 PK WND 01060/1915 PRESFR SLP643
KWRI 291947Z AUTO 02039G53KT 1 1/4SM R06/4000VP6000FT +RA BR FEW005 BKN013 OVC019 15/14 A2847 RMK AO2 PK WND 01060/1915 PRESFR SLP643
KWRI 291949Z AUTO 02043G53KT 1SM R06/3500VP6000FT +RA BR FEW005 BKN013 OVC018 15/14 A2847 RMK AO2 PK WND 01060/1915 BKN V SCT PRESFR SLP641
KEWR 291951Z 03037G49KT 2 1/2SM -RA BR FEW011 BKN019 OVC026 16/14 A2866 RMK AO2 PK WND 03052/1910 SFC VIS 4 PRESFR SLP704 P0003 T01610144
KWRI 291951Z AUTO 02036G53KT 1SM R06/3500VP6000FT +RA BR FEW005 OVC017 15/15 A2846 RMK AO2 PK WND 01060/1915 PRESFR SLP640
KTEB 291951Z 02022G39KT 4SM -RA BR FEW022 BKN027 OVC034 16/14 A2869 RMK AO2 PK WND 05043/1930 PRESFR SLP714 P0001 T01610144
KSMQ 291953Z AUTO 02019G34KT 2 1/2SM -RA BR BKN024 OVC031 15/13 A2866 RMK AO2 PK WND 04037/1936 PRESFR SLP706 P0009 T01500133 TSNO
KCDW 291953Z AUTO 04021G42KT 5SM -RA BKN025 OVC033 16/13 A2872 RMK AO2 PK WND 06044/1917 PRESFR SLP730 P0002 T01610128 TSNO
KTTN 291953Z AUTO 05022G35KT 3SM RA BR BKN015 OVC024 15/13 A2858 RMK AO2 PK WND 06044/1937 SLP673 P0015 T01500128
KFWN 291953Z AUTO 04024G39KT 1 1/4SM -RA BR OVC018 14/12 A2885 RMK AO2 PK WND 03043/1939 PRESFR SLP769 P0008 T01390117
KACY 291954Z AUTO 36033G44KT 3/4SM +RA BR OVC012 16/14 A2831 RMK AO2 PK WND 02048/1910 PRESFR SLP587 P0063 T01560144 TSNO
KVAY 291954Z AUTO 01027G40KT 1 3/4SM +RA BR BKN017 OVC023 15/13 A2849 RMK AO2 PK WND 01041/1934 PRESFR SLP648 P0028 T01500133 TSNO
KMIV 291954Z AUTO 33018G33KT 1 1/4SM +RA BR BKN012 OVC017 13/12 A2846 RMK AO2 PK WND 32036/1930 PRESFR SLP635 P0044 T01330122
K12N 291954Z AUTO 03017G35KT 350V050 13/12 A2881 RMK AO2 PK WND 04045/1918 PRESFR SLP756 P0007 T01330117 PWINO TSNO
KWRI 291955Z AUTO 02036G53KT 1SM R06/3500VP6000FT +RA BR FEW004 SCT013 OVC019 15/15 A2846 RMK AO2 PK WND 01060/1915 FEW V SCT PRESFR SLP637 P0023 T01480147
KWRI 291955Z AUTO 02036G53KT 1SM R06/3500VP6000FT +RA BR FEW004 SCT013 OVC019 15/15 A2846
KNEL 292000Z AUTO 04017G36KT 3/4SM +RA BR OVC014 16/14 A2845 RMK AO2 PK WND 02046/1931 PNO $
KVAY 292002Z AUTO 02029G41KT 1SM +RA BR FEW010 BKN015 OVC021 15/14 A2847 RMK AO2 PK WND 03041/2002 PRESFR P0006 TSNO
KFWN 292003Z AUTO 02031G45KT 1 1/2SM -RA BR OVC016 14/12 A2883 RMK AO2 PK WND 02045/2001 PRESFR P0001
KWRI 292003Z AUTO 02037G51KT 1SM R06/4000V5500FT +RA BR FEW004 OVC018 15/15 A2844 RMK AO2 PK WND 01045/1957 PRESFR SLP633
KWRI 292003Z AUTO 02037G51KT 1SM R06/4000V5500FT +RA BR FEW004 OVC018 15/15 A2844 RMK AO2 PK WND 01045/1957 PRESFR SLP633
KWRI 292003Z AUTO 02037G51KT 1SM R06/4000V5500FT +RA BR FEW004 OVC018 15/15 A2844 RMK AO2 PK WND 01045/1957 PRESFR SLP633
KWRI 292003Z AUTO 02037G51KT 1SM R06/4000V5500FT +RA BR FEW004 OVC018 15/15 A2844
KWRI 292003Z AUTO 02037G51KT 1SM R06/4000V5500FT +RA BR FEW004 OVC018 15/15 A2844 RMK AO2 PK WND 01045/1957 PRESFR SLP633
KWRI 292004Z AUTO 02034G47KT 1SM R06/4000V5000FT +RA BR FEW005 OVC018 15/15 A2844 RMK AO2 PK WND 01045/1957 PRESFR SLP632
KWRI 292004Z AUTO 02034G47KT 1SM R06/4000V5000FT +RA BR FEW005 OVC018 15/15 A2844 RMK AO2 PK WND 01045/1957 PRESFR SLP632
KWRI 292004Z AUTO 02034G47KT 1SM R06/4000V5000FT +RA BR FEW005 OVC018 15/15 A2844
KWRI 292004Z AUTO 02034G47KT 1SM R06/4000V5000FT +RA BR FEW005 OVC018 15/15 A2844 RMK AO2 PK WND 01045/1957 PRESFR SLP632
KWRI 292005Z AUTO 01031G45KT 1SM R06/4000V5500FT +RA BR FEW004 OVC018 15/15 A2844 RMK AO2 PK WND 01045/1957 PRESFR SLP632
KSMQ 292005Z AUTO 03021G39KT 1 3/4SM RA BR BKN024 OVC031 16/13 A2864 RMK AO2 PK WND 03039/2000 PRESFR P0003 TSNO
KTEB 292009Z 03027G41KT 2SM -RA BR FEW020 OVC024 16/14 A2866 RMK AO2 PK WND 04041/2009 PRESFR P0001 $
KACY 292010Z AUTO 02030G44KT 1SM +RA BR BKN012 OVC018 16/14 A2827 RMK AO2 PK WND 36045/1955 PRESFR P0016 TSNO
KWRI 292012Z AUTO 02034G51KT 3/4SM R06/3500V5500FT +RA BR FEW003 OVC017 15/15 A2843 RMK AO2 PK WND 01051/2007 SLP628
KSMQ 292012Z AUTO 02020G37KT 3SM -RA BR BKN024 OVC030 16/13 A2863 RMK AO2 PK WND 03039/2000 P0004 TSNO
KWRI 292012Z AUTO 02034G51KT 3/4SM R06/3500V5500FT +RA BR FEW003 OVC017 15/15 A2843 RMK AO2 PK WND 01051/2007 SLP628
KMIV 292014Z AUTO 33020G32KT 3/4SM +RA BR SCT009 OVC015 13/13 A2842 RMK AO2 PK WND 35035/2002 PRESFR P0023
KWRI 292015Z AUTO 01036G51KT 3/4SM R06/3500V5000FT +RA BR FEW003 OVC017 15/15 A2842
KFWN 292015Z AUTO 03027G47KT 1 1/4SM RA BR BKN016 OVC020 14/12 A2881 RMK AO2 PK WND 01049/2005 PRESFR P0004
KWRI 292015Z AUTO 01036G51KT 3/4SM R06/3500V5000FT +RA BR FEW003 OVC017 15/15 A2842 RMK AO2 PK WND 01051/2007 PRESFR SLP624
KWRI 292015Z AUTO 01036G51KT 3/4SM R06/3500V5000FT +RA BR FEW003 OVC017 15/15 A2842 RMK AO2 PK WND 01051/2007 PRESFR SLP624
KWRI 292015Z AUTO 01036G51KT 3/4SM R06/3500V5000FT +RA BR FEW003 OVC017 15/15 A2842 RMK AO2 PK WND 01051/2007 PRESFR SLP624
KTTN 292016Z AUTO 04025G44KT 2SM RA BR BKN015 OVC024 16/13 A2852 RMK AO2 PK WND 05044/2010 PRESFR P0004
KWRI 292016Z AUTO 02040G51KT 3/4SM R06/3500V4500FT +RA BR FEW003 OVC017 15/15 A2841 RMK AO2 PK WND 01051/2007 PRESFR SLP623
KWRI 292016Z AUTO 02040G51KT 3/4SM R06/3500V4500FT +RA BR FEW003 OVC017 15/15 A2841 RMK AO2 PK WND 01051/2007 PRESFR SLP623
KWRI 292017Z AUTO 02040G51KT 3/4SM R06/3500V4000FT +RA BR FEW003 OVC017 15/15 A2842 RMK AO2 PK WND 02051/2017 PRESFR SLP624
KWRI 292017Z AUTO 02040G51KT 3/4SM R06/3500V4000FT +RA BR FEW003 OVC017 15/15 A2842 RMK AO2 PK WND 02051/2017 PRESFR SLP624
KVAY 292017Z AUTO 02027G42KT 1 1/4SM +RA BR FEW010 BKN017 OVC021 16/14 A2844 RMK AO2 PK WND 02042/2011 PRESFR P0017 TSNO
KMIV 292018Z AUTO 33020G31KT 1SM +RA BR BKN009 OVC013 13/13 A2841 RMK AO2 PK WND 35035/2002 PRESFR P0028
KWRI 292020Z AUTO 02038G53KT 3/4SM R06/3000V4500FT +RA BR FEW003 OVC016 15/15 A2840 RMK AO2 PK WND 01053/2018 PRESFR SLP620
KWRI 292020Z AUTO 02038G53KT 3/4SM R06/3000V4500FT +RA BR FEW003 OVC016 15/15 A2840 RMK AO2 PK WND 01053/2018 PRESFR SLP620
KWRI 292020Z AUTO 02038G53KT 3/4SM R06/3000V4500FT +RA BR FEW003 OVC016 15/15 A2840 RMK AO2 PK WND 01053/2018 PRESFR SLP620
KWRI 292022Z AUTO 01037G53KT 3/4SM R06/3000V5000FT +RA BR FEW003 OVC018 15/15 A2840 RMK AO2 PK WND 01053/2018 PRESFR SLP618
KWRI 292022Z AUTO 01037G53KT 3/4SM R06/3000V5000FT +RA BR FEW003 OVC018 15/15 A2840 RMK AO2 PK WND 01053/2018 PRESFR SLP618
KWRI 292022Z AUTO 01037G53KT 3/4SM R06/3000V5000FT +RA BR FEW003 OVC018 15/15 A2840 RMK AO2 PK WND 01053/2018 PRESFR SLP618
KWRI 292024Z AUTO 02038G53KT 3/4SM R06/3000V5500FT +RA BR FEW003 OVC018 15/15 A2840 RMK AO2 PK WND 01053/2018 PRESFR SLP618
KVAY 292024Z AUTO 01026G41KT 1SM +RA BR FEW010 BKN014 OVC025 16/14 A2843 RMK AO2 PK WND 02042/2011 PRESFR P0023 TSNO
KWRI 292024Z AUTO 02038G53KT 3/4SM R06/3000V5500FT +RA BR FEW003 OVC018 15/15 A2840 RMK AO2 PK WND 01053/2018 PRESFR SLP618
KWRI 292024Z AUTO 02038G53KT 3/4SM R06/3000V5500FT +RA BR FEW003 OVC018 15/15 A2840 RMK AO2 PK WND 01053/2018 PRESFR SLP618
KMIV 292025Z AUTO 32020G34KT 3/4SM +RA BR SCT009 OVC013 13/13 A2838 RMK AO2 PK WND 35035/2002 PRESFR P0038
KWRI 292026Z AUTO 02038G53KT 1SM R06/3000V5500FT +RA BR FEW003 OVC018 15/15 A2839 RMK AO2 PK WND 01053/2018 PRESFR SLP615
KSMQ 292027Z AUTO 03020G44KT 2 1/2SM -RA BR SCT024 OVC030 16/13 A2859 RMK AO2 PK WND 04044/2021 PRESFR P0005 TSNO
KEWR 292028Z 02032G46KT 1 1/2SM R04R/6000VP6000FT RA BR SCT009 BKN013 OVC022 16/14 A2861 RMK AO2 PK WND 02048/1956 SFC VIS 1 3/4 SCT V BKN P0001
KWRI 292030Z AUTO 02033G48KT 1SM R06/4500VP6000FT +RA BR FEW003 OVC018 15/15 A2839 RMK AO2 PK WND 01053/2018 SLP614
KSMQ 292031Z AUTO 03023G40KT 3SM -RA BR OVC027 16/13 A2859 RMK AO2 PK WND 04044/2021 P0005 TSNO
KWRI 292033Z AUTO 02039G51KT 1 1/4SM R06/5500VP6000FT +RA BR FEW003 SCT009 OVC018 15/15 A2838 RMK AO2 PK WND 01053/2018 FEW V SCT PRESFR SLP612
KMIV 292036Z AUTO 32021G36KT 1SM +RA BR SCT010 OVC015 13/13 A2835 RMK AO2 PK WND 33036/2030 PRESFR P0050
KTEB 292037Z 03019G32KT 1/2SM -RA BR BKN016 OVC022 16/ A2861 RMK AO2 PK WND 04041/2009 PRESFR P0003 RVRNO $
KFWN 292040Z AUTO 03024G48KT 2SM -RA BR OVC016 14/12 A2877 RMK AO2 PK WND 01049/2005 PRESFR P0008
KTTN 292041Z AUTO 04025G48KT 1 1/2SM BR BKN017 OVC022 16/13 A2847 RMK AO2 PK WND 05048/2037 RAE23 PRESFR P0006
KVAY 292044Z AUTO 02029G41KT 1 1/4SM +RA BR BKN014 OVC023 16/14 A2840 RMK AO2 PK WND 01042/2030 P0037 TSNO
KTEB 292044Z 04021G36KT 1 1/2SM RA BR BKN016 OVC023 16/14 A2861 RMK AO2 PK WND 04041/2009 P0004 $
KCDW 292044Z AUTO 05023G45KT 2SM -RA BR BKN020 OVC025 16/13 A2863 RMK AO2 PK WND 03047/1957 PRESFR P0002 TSNO
KEWR 292045Z 03033G47KT 1 1/4SM R04R/5500VP6000FT RA BR BKN008 BKN014 OVC022 16/14 A2858 RMK AO2 PK WND 02048/1956 TWR VIS 1 1/2 PRESFR P0003
KWRI 292045Z AUTO 02037G53KT 1 1/2SM +RA BR FEW003 OVC018 15/15 A2837 RMK AO2 PK WND 02053/2036 SLP607
KWRI 292045Z AUTO 02037G53KT 1 1/2SM +RA BR FEW003 OVC018 15/15 A2837 RMK AO2 PK WND 02053/2036 SLP607
KWRI 292045Z AUTO 02037G53KT 1 1/2SM +RA BR FEW003 OVC018 15/15 A2837 RMK AO2 PK WND 02053/2036 SLP607
KWRI 292045Z AUTO 02037G53KT 1 1/2SM +RA BR FEW003 OVC018 15/15 A2837
KWRI 292045Z AUTO 02037G53KT 1 1/2SM +RA BR FEW003 OVC018 15/15 A2837 RMK AO2 PK WND 02053/2036 SLP607
KMIV 292045Z AUTO 33022G35KT 1SM +RA BR FEW008 BKN013 OVC018 13/13 A2834 RMK AO2 PK WND 33036/2030 PRESFR P0060
KSMQ 292045Z AUTO 02022G36KT 2 1/2SM -RA BR SCT023 BKN028 OVC035 16/14 A2856 RMK AO2 PK WND 04044/2021 PRESFR P0006 TSNO
KWRI 292047Z AUTO 02034G50KT 1 1/2SM +RA BR FEW003 OVC020 15/15 A2837 RMK AO2 PK WND 02053/2036 CIG 015 RWY24 SLP607
KVAY 292051Z AUTO 02027G47KT 1 1/4SM -RA BR SCT013 BKN018 OVC023 16/14 A2838 RMK AO2 PK WND 02047/2049 PRESFR P0040 TSNO
KTEB 292051Z 03020G38KT 1 1/2SM -RA BR BKN016 OVC021 16/14 A2860 RMK AO2 PK WND 04041/2009 SLP685 P0005 60007 T01560143 56100 $
KWRI 292051Z AUTO 02038G50KT 1 1/2SM +RA BR FEW008 OVC019 15/15 A2836 RMK AO2 PK WND 02053/2036 PRESFR SLP605
KEWR 292051Z 03031G45KT 1 1/2SM R04R/6000VP6000FT RA BR BKN008 BKN014 OVC022 16/14 A2857 RMK AO2 PK WND 02048/1956 PRESFR SLP674 P0003 60008 T01560144 56101
KTTN 292053Z AUTO 05030G48KT 1 1/2SM BR BKN015 OVC023 16/13 A2846 RMK AO2 PK WND 06048/2048 RAE23 SLP629 P0008 60052 T01560133 58121
KCDW 292053Z AUTO 05021G36KT 1 3/4SM -RA BR OVC018 16/13 A2863 RMK AO2 PK WND 03047/1957 SLP699 P0002 60006 T01560133 56101 TSNO
KFWN 292053Z AUTO 03033G46KT 1 3/4SM -RA BR BKN016 OVC020 14/12 A2875 RMK AO2 PK WND 01049/2005 SLP736 P0009 60028 T01440122 58094
KSMQ 292053Z AUTO 03026G39KT 3SM -RA BR SCT022 OVC028 16/14 A2855
KSMQ 292053Z AUTO 03026G39KT 3SM -RA BR SCT022 OVC028 16/14 A2855 RMK AO2 PK WND 04044/2021 PRESFR SLP669 P0007 60023 T01610139 55071 TSNO
KVAY 292054Z AUTO 02033G47KT 1 1/4SM -RA BR BKN014 OVC021 16/14 A2838 RMK AO2 PK WND 02047/2049 SLP610 P0040 60112 T01560139 55084 TSNO
KACY 292054Z AUTO 02029G50KT 1 1/2SM BR BKN010 OVC014 17/16 A2817 RMK AO2 PK WND 03051/2038 RAE23 PRESFR SLP539 P0026 60133 T01720156 58145 TSNO
KMIV 292054Z AUTO 33025G38KT 1SM +RA BR SCT008 OVC015 13/13 A2832 RMK AO2 PK WND 33038/2052 SLP588 P0069 60151 T01330128 58090
KWRI 292055Z AUTO 02037G50KT 1 1/2SM +RA BR SCT010 OVC019 15/15 A2835
KBLM 292055Z AUTO 04027G37KT 1 1/4SM 16/ A2838 RMK AO1 57115
KWRI 292055Z AUTO 02037G50KT 1 1/2SM +RA BR SCT010 OVC019 15/15 A2835 RMK AO2 PK WND 02053/2036 PRESFR SLP603 P0029 60085 T01520149 56121
KWRI 292059Z AUTO 02040G51KT 1 3/4SM +RA BR SCT010 OVC019 15/15 A2835 RMK AO2 PK WND 01051/2059 SLP601
KNEL 292100Z AUTO 04018G39KT 1SM RA BR OVC012 16/15 A2835 RMK AO2 PK WND 04047/2023 PRESFR SLP598 6//// T01610150 56041 PNO $
KNEL 292100Z AUTO 04018G39KT 1SM RA BR OVC012 16/15 A2835 RMK AO2 PK WND 04047/2023 PRESFR SLP598 6//// T01610150 56041 PNO $
KNEL 292100Z AUTO 04018G39KT 1SM RA BR OVC012 16/15 A2835 RMK AO2 PK WND 04047/2023 PRESFR SLP598 6//// T01610150 56041 PNO $
KNEL 292100Z AUTO 04018G39KT 1SM RA BR OVC012 16/15 A2835 RMK AO2 PK WND 04047/2023 PRESFR SLP598 6//// T01610150 56041 PNO $
KNEL 292100Z AUTO 04018G39KT 1SM RA BR OVC012 16/15 A2835 RMK AO2 PK WND 04047/2023 PRESFR SLP598 6//// T01610150 56041 PNO $
KNEL 292100Z AUTO 04018G39KT 1SM RA BR OVC012 16/15 A2835 RMK AO2 PK WND 04047/2023 PRESFR SLP598 6//// T01610150 56041 PNO $
KNEL 292100Z AUTO 04018G39KT 1SM RA BR OVC012 16/15 A2835 RMK AO2 PK WND 04047/2023 PRESFR SLP598 6//// T01610150 56041 PNO $
KNEL 292100Z AUTO 04018G39KT 1SM RA BR OVC012 16/15 A2835 RMK AO2 PK WND 04047/2023 PRESFR SLP598 6//// T01610150 56041 PNO $
KSMQ 292101Z AUTO 02017G45KT 2 1/2SM -RA BR SCT022 OVC028 16/14 A2854 RMK AO2 PK WND 04045/2054 PRESFR P0001 TSNO
KMIV 292101Z AUTO 33020G38KT 3/4SM +RA BR SCT008 OVC013 13/13 A2831 RMK AO2 PK WND 34033/2056 PRESFR P0008
KTTN 292104Z AUTO 05030G49KT 2SM BR BKN014 OVC020 16/13 A2843 RMK AO2 PK WND 06049/2056 P0001
KWRI 292106Z AUTO 02030G51KT 1 1/2SM +RA BR SCT010 OVC018 15/15 A2835 RMK AO2 PK WND 02051/2059 SLP600
KACY 292107Z AUTO 03034G48KT 1 1/4SM BR BKN009 OVC014 17/16 A2815 RMK AO2 PK WND 03056/2057 CIG 008V011 TSNO
KSMQ 292109Z AUTO 04019G37KT 010V080 4SM -RA BR FEW023 BKN028 OVC036 16/14 A2853 RMK AO2 PK WND 04045/2054 P0001 TSNO
KMIV 292109Z AUTO 33020G31KT 1SM +RA BR BKN008 OVC013 13/13 A2830 RMK AO2 PK WND 34033/2056 P0015
KFWN 292110Z AUTO 04027G51KT 2 1/2SM -RA BR OVC016 14/12 A2873 RMK AO2 PK WND 04051/2110 P0001
KNEL 292111Z AUTO 04017G32KT 3/4SM +RA BR SCT008 OVC012 16/16 A2833 RMK AO2 PK WND 04032/2107 PRESFR PNO $
KTTN 292114Z AUTO 05025G48KT 2SM BR OVC016 16/13 A2843 RMK AO2 PK WND 06049/2056 P0001
KBLM 292115Z AUTO 04034G49KT 1 1/2SM OVC006 17/17 A2836 RMK AO1
KACY 292115Z AUTO 02032G51KT 1 1/4SM BR OVC011 17/16 A2816 RMK AO2 PK WND 03056/2057 P0001 TSNO
KWRI 292116Z AUTO 01040G52KT 1 1/2SM +RA BR SCT010 OVC018 15/15 A2832 RMK AO2 PK WND 02052/2112 PRESFR SLP593
KTTN 292117Z AUTO 04029G40KT 1 3/4SM BR BKN014 OVC019 16/13 A2843 RMK AO2 PK WND 06049/2056 P0002
KWRI 292122Z AUTO 01032G52KT 1 3/4SM +RA BR SCT010 OVC017 15/15 A2832 RMK AO2 PK WND 02052/2112 SLP592
KWRI 292122Z AUTO 01032G52KT 1 3/4SM +RA BR SCT010 OVC017 15/15 A2832 RMK AO2 PK WND 02052/2112 SLP592
KNEL 292122Z AUTO 05017G35KT 1SM RA BR SCT008 OVC014 17/16 A2832 RMK AO2 PK WND 06035/2121 PNO $
KACY 292124Z AUTO 02031G48KT 1 1/2SM -RA BR BKN009 OVC015 17/16 A2814 RMK AO2 PK WND 03056/2057 RAB23 CIG 007V011 P0001 TSNO
KWRI 292126Z AUTO 02037G46KT 1 3/4SM +RA BR SCT010 OVC017 15/15 A2832 RMK AO2 PK WND 02052/2112 SLP590
KWRI 292126Z AUTO 02037G46KT 1 3/4SM +RA BR SCT010 OVC017 15/15 A2832 RMK AO2 PK WND 02052/2112 SLP590
KTTN 292129Z AUTO 05030G53KT 1 1/2SM BR BKN015 OVC021 16/13 A2841 RMK AO2 PK WND 05053/2120 PRESFR P0003
KWRI 292131Z AUTO 02033G49KT 1 1/2SM +RA BR FEW010 OVC017 15/15 A2832 RMK AO2 PK WND 02052/2112 SLP590
KFWN 292134Z AUTO 04026G42KT 1 1/2SM -RA BR OVC016 14/12 A2869 RMK AO2 PK WND 04051/2110 P0003
KMIV 292140Z AUTO 33016G30KT 2SM BR BKN009 OVC014 14/13 A2825 RMK AO2 PK WND 34033/2056 RAE36 P0028
KACY 292141Z AUTO 02031G43KT 2SM BR OVC009 17/16 A2814 RMK AO2 PK WND 03056/2057 RAB23E33 CIG 007V013 P0001 TSNO
KACY 292141Z AUTO 02031G43KT 2SM BR OVC009 17/16 A2814 RMK AO2 PK WND 03056/2057 RAB23E33 CIG 007V013 P0001 TSNO
KACY 292141Z AUTO 02031G43KT 2SM BR OVC009 17/16 A2814 RMK AO2 PK WND 03056/2057 RAB23E33 CIG 007V013 P0001 TSNO
KSMQ 292144Z AUTO 03023G46KT 2SM -RA BR OVC024 16/14 A2849 RMK AO2 PK WND 05046/2135 PRESFR P0003 TSNO
KFWN 292144Z AUTO 04026G39KT 2SM -RA BR OVC014 14/12 A2869 RMK AO2 PK WND 04051/2110 P0004
KWRI 292147Z AUTO 02028G42KT 1 3/4SM +RA BR SCT009 OVC016 16/15 A2830 RMK AO2 PK WND 02052/2112 SLP585
KMIV 292149Z AUTO 34021G31KT 1 3/4SM BR BKN009 OVC014 14/13 A2824 RMK AO2 PK WND 34033/2056 RAE36 P0030
KWRI 292150Z AUTO 02030G42KT 2SM +RA BR SCT008 OVC016 16/15 A2829 RMK AO2 PK WND 02052/2112 PRESFR SLP581
KWRI 292150Z AUTO 02030G42KT 2SM +RA BR SCT008 OVC016 16/15 A2829 RMK AO2 PK WND 02052/2112 PRESFR SLP581
KTTN 292150Z AUTO 05033G49KT 1 1/4SM BR FEW010 BKN014 OVC021 16/14 A2838 RMK AO2 PK WND 05053/2120 PRESFR P0006
KWRI 292150Z AUTO 02030G42KT 2SM +RA BR SCT008 OVC016 16/15 A2829 RMK AO2 PK WND 02052/2112 PRESFR SLP581
KEWR 292151Z 04028G44KT 1 1/2SM -RA BR BKN009 OVC015 17/16 A2851 RMK AO2 PK WND 03048/2138 SFC VIS 3 SLP653 P0004 T01670156
KTEB 292151Z 06025G45KT 1SM -RA BR OVC015 17/16 A2854 RMK AO2 PK WND 03045/2149 SLP665 P0010 T01670159 RVRNO $
KWRI 292152Z AUTO 02025G40KT 2SM +RA BR BKN008 OVC016 16/15 A2829 RMK AO2 PK WND 02052/2112 PRESFR SLP580
KTTN 292153Z AUTO 05029G49KT 1 1/2SM BR FEW010 BKN016 OVC025 16/14 A2838 RMK AO2 PK WND 05053/2120 VIS 1 1/4V2 SLP605 P0006 T01560139
KFWN 292153Z AUTO 03026G36KT 2 1/2SM -RA BR OVC014 14/12 A2868 RMK AO2 PK WND 04051/2110 SLP712 P0005 T01440122
KSMQ 292153Z AUTO 03019G43KT 3SM -RA BR BKN022 OVC035 16/14 A2847 RMK AO2 PK WND 05046/2135 PRESFR SLP641 P0004 T01610139 TSNO
KCDW 292153Z AUTO 05023G40KT 1 1/4SM RA BR BKN016 OVC022 16/14 A2856 RMK AO2 PK WND 03047/2139 SLP676 P0010 T01560144 TSNO
KMIV 292154Z AUTO 34019G28KT 1 3/4SM BR BKN009 OVC014 14/14 A2823 RMK AO2 PK WND 34033/2056 RAE36 PRESFR SLP558 P0031 T01440139
K12N 292154Z AUTO 03018G36KT 14/12 A2863 RMK AO2 PK WND 04040/2102 SLP694 P0016 T01390122 PWINO TSNO $
KACY 292154Z AUTO 03027G48KT 1 3/4SM BR OVC009 17/16 A2811 RMK AO2 PK WND 03056/2057 RAB23E33 PRESFR SLP519 P0003 T01720161 TSNO
KVAY 292154Z AUTO 02027G41KT 2SM BR BKN012 OVC018 16/14 A2830 RMK AO2 PK WND 02048/2108 RAE2055 PRESFR SLP581 P0005 T01610144 TSNO
KWRI 292155Z AUTO 02027G40KT 2SM +RA BR BKN008 OVC016 16/15 A2828 RMK AO2 PK WND 02052/2112 PRESFR SLP579 P0008 T01570154
KBLM 292155Z AUTO 05031G47KT 1 1/2SM OVC006 17/14 A2831 RMK AO1 P0004
KTTN 292200Z AUTO 05027G43KT 2SM BR BKN012 OVC018 16/14 A2838 RMK AO2 PK WND 06043/2154 P0001
KNEL 292200Z AUTO 05023G41KT 1 1/4SM -RA BR OVC011 17/16 A2826 RMK AO2 PK WND 06043/2138 SLP569 T01720161 PNO $
KCDW 292203Z AUTO 06019G38KT 2SM RA BR SCT012 OVC017 16/14 A2857 RMK AO2 PK WND 06038/2201 P0003 TSNO
KSMQ 292205Z AUTO 04028G47KT 2SM RA BR BKN022 OVC029 16/14 A2847 RMK AO2 PK WND 03047/2204 P0003 TSNO
KWRI 292207Z AUTO 03034G46KT 3SM R06/4000VP6000FT RA BR BKN008 OVC017 16/16 A2826 RMK AO2 PK WND 03046/2205 PRESFR SLP571
KACY 292207Z AUTO 02030G41KT 2SM BR OVC007 17/16 A2809 RMK AO2 PK WND 02041/2204 PRESFR P0001 TSNO
KWRI 292207Z AUTO 03034G46KT 3SM R06/4000VP6000FT RA BR BKN008 OVC017 16/16 A2826 RMK AO2 PK WND 03046/2205 PRESFR SLP571
KACY 292207Z AUTO 02030G41KT 2SM BR OVC007 17/16 A2809 RMK AO2 PK WND 02041/2204 PRESFR P0001 TSNO
KCDW 292211Z AUTO 06020G44KT 3SM -RA BR BKN012 OVC019 17/15 A2856 RMK AO2 PK WND 07044/2209 P0003 TSNO
KWRI 292211Z AUTO 02034G46KT 4SM R06/4000V4500FT RA BR SCT008 OVC017 16/16 A2825 RMK AO2 PK WND 03046/2205 SLP568
KMIV 292215Z AUTO 34019G29KT 2SM BR BKN009 OVC013 15/14 A2819 RMK AO2 PK WND 34032/2159 CIG 006V011 PRESFR P0002
KACY 292216Z AUTO 01026G43KT 1 1/2SM BR OVC007 17/16 A2807 RMK AO2 PK WND 36043/2210 PRESFR P0001 TSNO
KWRI 292219Z AUTO 02029G44KT 3SM R06/4000FT RA BR SCT008 OVC017 16/16 A2824 RMK AO2 PK WND 03046/2205 CIG 012 RWY24 PRESFR SLP564
KNEL 292220Z AUTO 05025G42KT 1SM RA BR 17/16 A2823 RMK AO2 PK WND 06042/2214 RAB11 $
KFWN 292221Z AUTO 03025G45KT 1 3/4SM RA BR OVC014 14/13 A2867 RMK AO2 PK WND 02048/2208 P0007
KCDW 292223Z AUTO 07030G50KT 2 1/2SM -RA BR SCT014 OVC021 17/15 A2856 RMK AO2 PK WND 07050/2214 VIS 1 3/4V3 P0004 TSNO
KMIV 292226Z AUTO 33021G37KT 2 1/2SM -RA BR OVC011 16/14 A2817 RMK AO2 PK WND 34037/2219 RAB22 PRESFR P0003
KFWN 292226Z AUTO 04025G45KT 2SM -RA BR SCT010 OVC017 14/13 A2867 RMK AO2 PK WND 02048/2208 P0008
KTEB 292230Z 06025G47KT 2SM RA BR BKN015 OVC023 18/16 A2855 RMK AO2 PK WND 09047/2228 P0003 $
KEWR 292233Z 06030G60KT 1 1/2SM RA BR SQ BKN009 OVC022 17/15 A2851 RMK AO2 PK WND 07060/2226 SFC VIS 3 P0005
KCDW 292233Z AUTO 07028G51KT 3SM -RA BR BKN017 BKN021 OVC025 17/15 A2855 RMK AO2 PK WND 07051/2229 P0005 TSNO
KMIV 292233Z AUTO 34019G33KT 3SM -RA BR OVC011 16/14 A2816 RMK AO2 PK WND 34037/2219 RAB22 PRESFR P0003
KNEL 292236Z AUTO 05027G41KT 1SM -RA BR BKN008 OVC012 17/16 A2821 RMK AO2 PK WND 06042/2214 RAB11 $
KVAY 292236Z AUTO 02025G44KT 2 1/2SM -RA BR 17/15 A2823 RMK AO2 PK WND 02044/2230 RAB15 PRESFR TSNO $
KVAY 292238Z AUTO 02027G44KT 3SM -RA BR BKN012 OVC018 17/15 A2822 RMK AO2 PK WND 02044/2230 RAB15 PRESFR TSNO $
KEWR 292239Z 06030G51KT 1 1/2SM RA BR SCT009 BKN015 OVC022 17/15 A2852 RMK AO2 PK WND 07060/2226 SFC VIS 2 1/2 P0006
KACY 292243Z AUTO 01026G42KT 2SM BR OVC009 17/16 A2801 RMK AO2 PK WND 02043/2221 PRESFR P0004 TSNO
KVAY 292245Z AUTO 02026G36KT 2 1/2SM -RA BR BKN013 OVC017 17/15 A2821 RMK AO2 PK WND 02044/2230 RAB15 PRESFR TSNO $
KWRI 292249Z AUTO 04030G45KT 3SM R06/3500V4000FT -RA BR BKN009 OVC016 16/16 A2820 RMK AO2 PK WND 03046/2205 SLP552
KTEB 292251Z 08022G50KT 2SM RA SCT015 OVC026 17/ A2856 RMK AO2 PK WND 08050/2244 SLP671 P0004 T0172 $
KTEB 292251Z 08022G50KT 2SM RA SCT015 OVC026 17/16 A2856
KEWR 292251Z 06035G47KT 1 1/2SM RA BR SCT009 BKN013 OVC022 17/15 A2852 RMK AO2 PK WND 07060/2226 SFC VIS 1 3/4 SLP658 SCT V BKN P0006 T01670150
KSMQ 292251Z AUTO 06019G46KT 2 1/2SM -RA BR 17/15 A2845 RMK AO2 PK WND 04046/2245 RAB44 TSNO $
KTEB 292251Z 08022G50KT 2SM RA SCT015 OVC026 17/16 A2856 RMK AO2 PK WND 08050/2244 SLP671 P0004 T0172 $
KTEB 292251Z 08022G50KT 2SM RA SCT015 OVC026 17/ A2856
KWRI 292253Z AUTO 03034G49KT 2 1/2SM R06/3500V4000FT RA BR BKN008 OVC016 16/16 A2820 RMK AO2 PK WND 03049/2251 BKN V SCT SLP551
KWRI 292253Z AUTO 03034G49KT 2 1/2SM R06/3500V4000FT RA BR BKN008 OVC016 16/16 A2820 RMK AO2 PK WND 03049/2251 BKN V SCT SLP551
KCDW 292253Z AUTO 08036G56KT 2 1/2SM -RA BR BKN016 BKN020 OVC026 17/14 A2857 RMK AO2 PK WND 08057/2243 SLP678 P0007 T01670144 TSNO
KSMQ 292253Z AUTO 06018G46KT 2 1/2SM -RA BR 17/15 A2845 RMK AO2 PK WND 04046/2245 RAB44 SLP634 T01720150 TSNO $
KTTN 292253Z AUTO 07033G46KT 2 1/2SM BR OVC013 17/14 A2831 RMK AO2 PK WND 07052/2243 RAB23E52 SLP581 P0010 T01670144
KFWN 292253Z AUTO 04023G44KT 2SM -RA BR FEW009 BKN019 OVC025 14/13 A2866 RMK AO2 PK WND 02048/2208 SLP705 P0018 T01440128
KACY 292254Z AUTO 02030G43KT 2SM BR OVC007 17/16 A2801 RMK AO2 PK WND 01043/2247 SLP483 P0004 T01670156 TSNO
KACY 292254Z AUTO 02030G43KT 2SM BR OVC007 17/16 A2801 RMK AO2 PK WND 01043/2247 SLP483 P0004 T01670156 TSNO
KACY 292254Z AUTO 02030G43KT 2SM BR OVC007 17/16 A2801 RMK AO2 PK WND 01043/2247 SLP483 P0004 T01670156 TSNO
KACY 292254Z AUTO 02030G43KT 2SM BR OVC007 17/16 A2801 RMK AO2 PK WND 01043/2247 SLP483 P0004 T01670156 TSNO
KACY 292254Z AUTO 02030G43KT 2SM BR OVC007 17/16 A2801 RMK AO2 PK WND 01043/2247 SLP483 P0004 T01670156 TSNO
K12N 292254Z AUTO 03014G31KT 14/13 A2861 RMK AO2 PK WND 05037/2216 SLP684 P0010 T01440133 PWINO TSNO $
KMIV 292254Z AUTO 34014G27KT 2SM BR BKN009 OVC014 16/14 A2814 RMK AO2 PK WND 34037/2219 RAB22E47 SLP528 P0005 T01560144
KVAY 292254Z AUTO 02022G39KT 3SM -RA BR OVC013 17/15 A2820 RMK AO2 PK WND 02044/2230 RAB15 SLP549 T01670150 TSNO $
KWRI 292255Z AUTO 03031G49KT 2 1/2SM R06/3500V4000FT RA BR BKN008 OVC015 16/16 A2820 RMK AO2 PK WND 03049/2251 SLP550 P0003 T01590157
KWRI 292255Z AUTO 03031G49KT 2 1/2SM R06/3500V4000FT RA BR BKN008 OVC015 16/16 A2820 RMK AO2 PK WND 03049/2251 SLP550 P0003 T01590157
KWRI 292255Z AUTO 03031G49KT 2 1/2SM R06/3500V4000FT RA BR BKN008 OVC015 16/16 A2820
KWRI 292257Z AUTO 03034G49KT 2 1/2SM R06/3500FT RA BR BKN008 OVC015 16/16 A2819 RMK AO2 PK WND 03041/2256 VIS 1 3/4 RWY24 BKN V SCT PRESFR SLP547
KWRI 292257Z AUTO 03034G49KT 2 1/2SM R06/3500FT RA BR BKN008 OVC015 16/16 A2819 RMK AO2 PK WND 03041/2256 VIS 1 3/4 RWY24 BKN V SCT PRESFR SLP547
KWRI 292257Z AUTO 03034G49KT 2 1/2SM R06/3500FT RA BR BKN008 OVC015 16/16 A2819 RMK AO2 PK WND 03041/2256 VIS 1 3/4 RWY24 BKN V SCT PRESFR SLP547
KWRI 292257Z AUTO 03034G49KT 2 1/2SM R06/3500FT RA BR BKN008 OVC015 16/16 A2819 RMK AO2 PK WND 03041/2256 VIS 1 3/4 RWY24 BKN V SCT PRESFR SLP547
KWRI 292258Z AUTO 04033G49KT 2 1/2SM R06/3500FT RA BR SCT008 OVC015 16/16 A2819
KWRI 292258Z AUTO 04033G49KT 2 1/2SM R06/3500FT RA BR SCT008 OVC015 16/16 A2819 RMK AO2 PK WND 03041/2256 VIS 1 3/4 RWY24 PRESFR SLP548
KTEB 292258Z 08029G49KT 2SM RA BR SCT017 BKN025 OVC030 17/16 A2856 RMK AO2 PK WND 07049/2258 P0001 $
KNEL 292300Z AUTO 08035G50KT 1 1/2SM -RA BR BKN010 OVC013 16/14 A2823 RMK AO2 PK WND 08050/2257 RAB2211 SLP559 T01560144 $
KWRI 292302Z AUTO 04031G49KT 2 1/2SM R06/3500FT RA BR BKN008 OVC015 16/16 A2819 RMK AO2 PK WND 04041/2259 VIS 1 3/4 RWY24 BKN V SCT SLP546
KWRI 292302Z AUTO 04031G49KT 2 1/2SM R06/3500FT RA BR BKN008 OVC015 16/16 A2819 RMK AO2 PK WND 04041/2259 VIS 1 3/4 RWY24 BKN V SCT SLP546
KWRI 292306Z AUTO 04030G41KT 2 1/2SM R06/3500FT RA BR SCT006 BKN010 OVC015 16/16 A2819 RMK AO2 PK WND 04041/2259 SLP546
KWRI 292306Z AUTO 04030G41KT 2 1/2SM R06/3500FT RA BR SCT006 BKN010 OVC015 16/16 A2819
KWRI 292306Z AUTO 04030G41KT 2 1/2SM R06/3500FT RA BR SCT006 BKN010 OVC015 16/16 A2819 RMK AO2 PK WND 04041/2259 SLP546
KWRI 292306Z AUTO 04030G41KT 2 1/2SM R06/3500FT RA BR SCT006 BKN010 OVC015 16/16 A2819 RMK AO2 PK WND 04041/2259 SLP546
KWRI 292307Z AUTO 04034G50KT 2 1/2SM R06/3500FT RA BR BKN006 BKN010 OVC015 16/16 A2818 RMK AO2 PK WND 05050/2306 BKN006 V SCT SLP544
KWRI 292307Z AUTO 04034G50KT 2 1/2SM R06/3500FT RA BR BKN006 BKN010 OVC015 16/16 A2818 RMK AO2 PK WND 05050/2306 BKN006 V SCT SLP544
KNEL 292307Z AUTO 07028G45KT 1 1/2SM -RA BR BKN008 OVC012 15/14 A2823 RMK AO2 PK WND 06044/2303 P0000 $
KEWR 292308Z 07030G56KT 1 1/2SM RA BR SCT009 BKN013 OVC022 16/14 A2853 RMK AO2 PK WND 07056/2302 SFC VIS 1 3/4 POWER OUTAGE P0002
KWRI 292309Z AUTO 05041G55KT 2 1/2SM R06/3500V4000FT RA BR BKN006 BKN010 OVC015 16/15 A2817 RMK AO2 PK WND 06055/2308 BKN006 V SCT PRESFR SLP542
KWRI 292309Z AUTO 05041G55KT 2 1/2SM R06/3500V4000FT RA BR BKN006 BKN010 OVC015 16/15 A2817 RMK AO2 PK WND 06055/2308 BKN006 V SCT PRESFR SLP542
KACY 292309Z AUTO 04022G35KT 3SM -RA BR OVC007 16/15 A2802 RMK AO2 PK WND 03035/2308 RAB01 P0000 TSNO
KWRI 292309Z AUTO 05041G55KT 2 1/2SM R06/3500V4000FT RA BR BKN006 BKN010 OVC015 16/15 A2817
KWRI 292309Z AUTO 05041G55KT 2 1/2SM R06/3500V4000FT RA BR BKN006 BKN010 OVC015 16/15 A2817 RMK AO2 PK WND 06055/2308 BKN006 V SCT PRESFR SLP542
KACY 292309Z AUTO 04022G35KT 3SM -RA BR OVC007 16/15 A2802 RMK AO2 PK WND 03035/2308 RAB01 P0000 TSNO
KACY 292309Z AUTO 04022G35KT 3SM -RA BR OVC007 16/15 A2802 RMK AO2 PK WND 03035/2308 RAB01 P0000 TSNO
KWRI 292309Z AUTO 05041G55KT 2 1/2SM R06/3500V4000FT RA BR BKN006 BKN010 OVC015 16/15 A2817 RMK AO2 PK WND 06055/2308 BKN006 V SCT PRESFR SLP542
KACY 292309Z AUTO 04022G35KT 3SM -RA BR OVC007 16/15 A2802 RMK AO2 PK WND 03035/2308 RAB01 P0000 TSNO
KWRI 292310Z AUTO 05040G55KT 2 1/2SM R06/3500V4500FT -RA BR BKN006 BKN010 OVC015 15/15 A2818 RMK AO2 PK WND 06055/2308 BKN006 V SCT SLP544
KWRI 292310Z AUTO 05040G55KT 2 1/2SM R06/3500V4500FT -RA BR BKN006 BKN010 OVC015 15/15 A2818
KWRI 292310Z AUTO 05040G55KT 2 1/2SM R06/3500V4500FT -RA BR BKN006 BKN010 OVC015 15/15 A2818 RMK AO2 PK WND 06055/2308 BKN006 V SCT SLP544
KWRI 292310Z AUTO 05040G55KT 2 1/2SM R06/3500V4500FT -RA BR BKN006 BKN010 OVC015 15/15 A2818 RMK AO2 PK WND 06055/2308 BKN006 V SCT SLP544
KTTN 292310Z AUTO 07031G55KT 3SM BR BKN013 OVC019 16/14 A2830 RMK AO2 PK WND 06055/2306 RAB2254E06 P0000
KWRI 292311Z AUTO 05040G55KT 2 1/2SM R06/3500V4500FT -RA BR SCT006 BKN010 OVC015 15/15 A2817 RMK AO2 PK WND 06055/2308 SCT V BKN PRESFR SLP542
KFWN 292311Z AUTO 05020G33KT 3SM -RA BR SCT011 BKN019 OVC024 16/13 A2866 RMK AO2 PK WND 02035/2259 P0004
KWRI 292311Z AUTO 05040G55KT 2 1/2SM R06/3500V4500FT -RA BR SCT006 BKN010 OVC015 15/15 A2817 RMK AO2 PK WND 06055/2308 SCT V BKN PRESFR SLP542
KWRI 292311Z AUTO 05040G55KT 2 1/2SM R06/3500V4500FT -RA BR SCT006 BKN010 OVC015 15/15 A2817 RMK AO2 PK WND 06055/2308 SCT V BKN PRESFR SLP542
KWRI 292312Z AUTO 05040G55KT 3SM R06/3500V5000FT -RA BR SCT006 BKN010 OVC017 15/15 A2818 RMK AO2 PK WND 06055/2308 SCT V BKN SLP543
KSMQ 292312Z AUTO 07025G46KT 2 1/2SM -RA BR BKN023 OVC027 17/15 A2846 RMK AO2 PK WND 05046/2312 P0003 TSNO $
KWRI 292312Z AUTO 05040G55KT 3SM R06/3500V5000FT -RA BR SCT006 BKN010 OVC017 15/15 A2818 RMK AO2 PK WND 06055/2308 SCT V BKN SLP543
KFWN 292315Z AUTO 06025G38KT 2 1/2SM RA BR FEW011 BKN019 OVC027 16/14 A2866 RMK AO2 PK WND 07038/2315 P0005
KWRI 292315Z AUTO 05037G55KT 4SM R06/3500V5000FT -RA BR SCT006 BKN011 OVC017 15/15 A2817 RMK AO2 PK WND 06055/2308 PRESFR SLP542
KFWN 292319Z AUTO 06022G38KT 3SM RA BR FEW009 BKN021 OVC027 16/14 A2867 RMK AO2 PK WND 05038/2316 P0005
KWRI 292323Z AUTO 04034G48KT 4SM R06/4000V4500FT -RA BR SCT006 BKN011 OVC017 15/14 A2818 RMK AO2 PK WND 06055/2308 SLP543
KACY 292325Z AUTO 02020G29KT 2 1/2SM -RA BR OVC007 15/14 A2802 RMK AO2 PK WND 03035/2308 RAB01 P0000 TSNO
KTTN 292325Z AUTO 08027G48KT 2 1/2SM RA BR BKN013 OVC019 16/14 A2830 RMK AO2 PK WND 06055/2306 RAB2254E06B22 P0003
KMIV 292328Z AUTO 32010G21KT 280V350 3SM -RA BR OVC009 16/15 A2813 RMK AO2 PK WND 34029/2256 RAB2259 P0004
KWRI 292328Z AUTO 05032G49KT 4SM R06/4000V4500FT -RA BR SCT006 BKN010 OVC017 14/14 A2817 RMK AO2 PK WND 06055/2308 SLP540
KWRI 292328Z AUTO 05032G49KT 4SM R06/4000V4500FT -RA BR SCT006 BKN010 OVC017 14/14 A2817 RMK AO2 PK WND 06055/2308 SLP540
KWRI 292328Z AUTO 05032G49KT 4SM R06/4000V4500FT -RA BR SCT006 BKN010 OVC017 14/14 A2817 RMK AO2 PK WND 06055/2308 SLP540
KWRI 292329Z AUTO 05032G49KT 4SM R06/4000V4500FT -RA BR BKN008 BKN012 OVC017 14/14 A2817 RMK AO2 PK WND 06055/2308 SLP540
KTEB 292332Z 09031G54KT 3SM RA BR BKN021 OVC027 16/ A2860 RMK AO2 PK WND 10054/2331 PRESRR P0003 $
KWRI 292336Z AUTO 05038G49KT 5SM R06/4500FT -RA BR BKN010 OVC017 14/14 A2816 RMK AO2 PK WND 06055/2308 SLP537
KWRI 292336Z AUTO 05038G49KT 5SM R06/4500FT -RA BR BKN010 OVC017 14/14 A2816
KWRI 292336Z AUTO 05038G49KT 5SM R06/4500FT -RA BR BKN010 OVC017 14/14 A2816 RMK AO2 PK WND 06055/2308 SLP537
KWRI 292336Z AUTO 05038G49KT 5SM R06/4500FT -RA BR BKN010 OVC017 14/14 A2816 RMK AO2 PK WND 06055/2308 SLP537
KWRI 292336Z AUTO 05038G49KT 5SM R06/4500FT -RA BR BKN010 OVC017 14/14 A2816 RMK AO2 PK WND 06055/2308 SLP537
KWRI 292337Z AUTO 05037G47KT 5SM R06/4500FT -RA BR BKN009 OVC017 14/14 A2816 RMK AO2 PK WND 06055/2308 SLP538
KFWN 292339Z AUTO 06028G53KT 6SM -RA FEW022 BKN031 OVC042 17/13 A2867 RMK AO2 PK WND 06053/2330 P0006
KTTN 292341Z AUTO 09025G52KT 4SM -RA BR BKN013 OVC018 16/13 A2832 RMK AO2 PK WND 06055/2306 RAB2254E06B22 P0004
KTEB 292346Z 09027G57KT 2SM +RA BR BKN023 BKN027 OVC033 16/14 A2862 RMK AO2 PK WND 10057/2346 PRESRR P0004 $
KWRI 292349Z AUTO 05037G52KT 3SM R06/3500V4000FT -RA BR BKN009 OVC014 14/13 A2815
KWRI 292349Z AUTO 05037G52KT 3SM R06/3500V4000FT -RA BR BKN009 OVC014 14/13 A2815 RMK AO2 PK WND 06055/2308 SLP533
KMIV 292349Z AUTO 32011G19KT 2SM RA BR OVC009 16/15 A2814 RMK AO2 PK WND 34029/2256 RAB2259 CIG 007V013 P0006
KSMQ 292349Z AUTO 08022G44KT 4SM -RA BR SCT018 OVC025 16/13 A2847 RMK AO2 PK WND 05046/2312 P0010 TSNO $
KWRI 292349Z AUTO 05037G52KT 3SM R06/3500V4000FT -RA BR BKN009 OVC014 14/13 A2815 RMK AO2 PK WND 06055/2308 SLP533
KWRI 292349Z AUTO 05037G52KT 3SM R06/3500V4000FT -RA BR BKN009 OVC014 14/13 A2815 RMK AO2 PK WND 06055/2308 SLP533
KWRI 292349Z AUTO 05037G52KT 3SM R06/3500V4000FT -RA BR BKN009 OVC014 14/13 A2815 RMK AO2 PK WND 06055/2308 SLP533
KWRI 292350Z AUTO 05033G52KT 2 1/2SM R06/3500V4000FT -RA BR BKN009 OVC014 14/13 A2816 RMK AO2 PK WND 06055/2308 SLP536
KWRI 292350Z AUTO 05033G52KT 2 1/2SM R06/3500V4000FT -RA BR BKN009 OVC014 14/13 A2816 RMK AO2 PK WND 06055/2308 SLP536
KWRI 292351Z AUTO 05034G52KT 2 1/2SM R06/3500FT -RA BR BKN009 OVC014 14/13 A2815 RMK AO2 PK WND 06055/2308 SLP533
KWRI 292351Z AUTO 05034G52KT 2 1/2SM R06/3500FT -RA BR BKN009 OVC014 14/13 A2815 RMK AO2 PK WND 06055/2308 SLP533
KTEB 292351Z 09038G63KT 050V110 2SM +RA BR SCT022 BKN028 OVC034 16/14 A2861
KWRI 292351Z AUTO 05034G52KT 2 1/2SM R06/3500FT -RA BR BKN009 OVC014 14/13 A2815 RMK AO2 PK WND 06055/2308 SLP533
KEWR 292351Z 08031G68KT 1 1/2SM -RA BR SCT009 BKN019 OVC029 16/13 A2858 RMK AO2 PK WND 09068/2344 SFC VIS 2 SLP676 P0005 60023 T01560133 10178 20144 53002
KWRI 292351Z AUTO 05034G52KT 2 1/2SM R06/3500FT -RA BR BKN009 OVC014 14/13 A2815 RMK AO2 PK WND 06055/2308 SLP533
KWRI 292351Z AUTO 05034G52KT 2 1/2SM R06/3500FT -RA BR BKN009 OVC014 14/13 A2815
KTEB 292351Z 09038G63KT 050V110 2SM +RA BR SCT022 BKN028 OVC034 16/14 A2861 RMK AO2 PK WND 10063/2347 SLP687 P0004 60025 T01610137 10178 20150 50022 $
KWRI 292352Z AUTO 05035G52KT 2 1/2SM R06/3500V4000FT -RA BR BKN009 OVC014 14/13 A2815 RMK AO2 PK WND 06055/2308 SLP532
KWRI 292352Z AUTO 05035G52KT 2 1/2SM R06/3500V4000FT -RA BR BKN009 OVC014 14/13 A2815 RMK AO2 PK WND 06055/2308 SLP532
KFWN 292353Z AUTO 07027G52KT 5SM -RA FEW027 BKN035 OVC050 17/13 A2868 RMK AO2 PK WND 06053/2330 SLP710 P0007 60058 T01670128 10172 20133 55024
KSMQ 292353Z AUTO 08018G44KT 3SM -RA BR SCT018 OVC025 16/13 A2848 RMK AO2 PK WND 05046/2312 SLP644 P0011 6//// T01560133 10172 20144 53010 TSNO $
KACY 292354Z AUTO 35008G19KT 1 3/4SM BR OVC005 14/14 A2801 RMK AO2 PK WND 03035/2308 RAB01E38 SLP485 P0001 60141 T01440139 10172 20144 55054 TSNO
KMIV 292354Z AUTO 33012G19KT 2SM +RA BR OVC009 16/15 A2813 RMK AO2 PK WND 34029/2256 RAB2259 CIG 006V011 SLP525 P0008 60195 T01610150 10161 20128 56033
K12N 292354Z AUTO 06015G32KT 030V100 16/13 A2864 RMK AO2 PK WND 04049/2320 SLP695 P0010 6//// T01560128 10167 20122 PWINO TSNO $
KWRI 292355Z AUTO 05033G53KT 2 1/2SM R06/3500V4000FT -RA BR BKN009 OVC013 14/13 A2815
KWRI 292355Z AUTO 05033G53KT 2 1/2SM R06/3500V4000FT -RA BR BKN009 OVC013 14/13 A2815 RMK AO2 PK WND 06055/2308 SLP534 P0002 60098 T01360133 10165 20136 56069
KWRI 292359Z AUTO 05038G53KT 2 1/2SM R06/3500V4000FT -RA BR BKN007 OVC012 14/13 A2813 RMK AO2 PK WND 05050/2358 PRESFR SLP528
KWRI 292359Z AUTO 05038G53KT 2 1/2SM R06/3500V4000FT -RA BR BKN007 OVC012 14/13 A2813
KWRI 292359Z AUTO 05038G53KT 2 1/2SM R06/3500V4000FT -RA BR BKN007 OVC012 14/13 A2813 RMK AO2 PK WND 05050/2358 PRESFR SLP528
KWRI 292359Z AUTO 05038G53KT 2 1/2SM R06/3500V4000FT -RA BR BKN007 OVC012 14/13 A2813 RMK AO2 PK WND 05050/2358 PRESFR SLP528
KNEL 300000Z AUTO 08040G53KT 1 1/4SM -RA BR OVC008 14/13 A2821 RMK AO2 PK WND 07056/2338 SLP552 P0000 6//// T01390133 10178 20139 $
KTEB 300000Z 09037G53KT 5SM RA BR SCT025 OVC036 17/13 A2862
KTEB 300000Z 09037G53KT 5SM RA BR SCT025 OVC036 17/13 A2862
KTEB 300000Z 09037G53KT 5SM RA BR SCT025 OVC036 17/ A2862 RMK AO2 PK WND 09053/2358 P0000 $
KWRI 300003Z AUTO 05039G55KT 2 1/2SM R06/3500FT +RA BR BKN007 OVC012 14/13 A2812 RMK AO2 PK WND 06055/2359 PRESFR SLP525
KWRI 300003Z AUTO 05039G55KT 2 1/2SM R06/3500FT +RA BR BKN007 OVC012 14/13 A2812 RMK AO2 PK WND 06055/2359 PRESFR SLP525
KWRI 300003Z AUTO 05039G55KT 2 1/2SM R06/3500FT +RA BR BKN007 OVC012 14/13 A2812 RMK AO2 PK WND 06055/2359 PRESFR SLP525
KTEB 300003Z 10032G53KT 7SM FEW022 SCT029 OVC036 17/13 A2863 RMK AO2 PK WND 09053/2358 RAE02 P0000 $
KWRI 300006Z AUTO 05043G55KT 2 1/2SM R06/3500V4000FT -RA BR BKN007 OVC012 13/13 A2811 RMK AO2 PK WND 06055/2359 PRESFR SLP520
KWRI 300006Z AUTO 05043G55KT 2 1/2SM R06/3500V4000FT -RA BR BKN007 OVC012 13/13 A2811 RMK AO2 PK WND 06055/2359 PRESFR SLP520
KWRI 300008Z AUTO 05038G55KT 3SM R06/3500V4000FT -RA BR BKN007 OVC012 13/13 A2812 RMK AO2 PK WND 06055/2359 SLP524
KEWR 300009Z 08032G55KT 6SM -RA SCT009 BKN016 OVC030 16/13 A2860 RMK AO2 PK WND 09063/2355 P0000
KWRI 300014Z AUTO 05036G57KT 3SM R06/3500V4000FT -RA BR BKN006 OVC012 13/13 A2812 RMK AO2 PK WND 05057/0009 SLP524
KMIV 300022Z AUTO 35010G15KT 310V010 1 3/4SM RA BR BKN007 BKN015 OVC021 15/14 A2814 RMK AO2 P0005
KWRI 300027Z AUTO 06036G50KT 3SM R06/4000FT -RA BR OVC005 14/13 A2813 RMK AO2 PK WND 05057/0009 SLP526
KEWR 300027Z 09034G63KT 6SM -RASQ FEW009 BKN020 OVC037 16/12 A2862 RMK RKWND 10063/0023 P0000
KMIV 300028Z AUTO 33007G19KT 2SM -RA BR FEW007 BKN010 OVC023 15/14 A2814 RMK AO2 P0006
KTEB 300029Z 10034G51KT 7SM BKN027 OVC036 17/13 A2866 RMK AO2 PK WND 11055/0018 RAE25 P0000
KACY 300032Z AUTO 21013G20KT 2SM -RA BR BKN005 BKN009 OVC013 14/14 A2809 RMK AO2 WSHFT 0013 RAB2358 PRESRR P0005 TSNO
KWRI 300032Z AUTO 07030G56KT 3SM R06/4000V4500FT -RA BR OVC005 14/13 A2814 RMK AO2 PK WND 05057/0009 SLP529
KNEL 300037Z AUTO 10035G59KT 2 1/2SM -RA BR OVC008 14/13 A2825 RMK AO2 PK WND 10059/0034 P0000 $
KWRI 300041Z AUTO 07037G56KT 4SM R06/4500V5000FT -RA BR OVC005 14/13 A2815 RMK AO2 PK WND 05057/0009 SLP534
KACY 300044Z AUTO 17011G19KT 3SM -RA BR BKN005 OVC018 14/14 A2814 RMK AO2 WSHFT 0013 RAB2358 PRESRR P0006 TSNO
KMIV 300044Z AUTO 28006KT 2SM -RA BR BKN007 OVC014 14/14 A2816 RMK AO2 P0008
KNEL 300047Z AUTO 10032G62KT 3SM BR OVC008 14/13 A2828 RMK AO2 PK WND 11062/0039 RAE44 CIG 006V010 PRESRR P0000 $
KMIV 300047Z AUTO 28006KT 2SM -RA BR SCT007 OVC016 14/14 A2816 RMK AO2 P0008
KWRI 300049Z AUTO 07040G54KT 5SM R06/4500V5000FT -RA BR OVC006 14/13 A2816 RMK AO2 PK WND 05057/0009 CIG 005V007 SLP536
KEWR 300051Z 11039G60KT 6SM -RA FEW009 BKN023 OVC040 16/11 A2864 RMK A02 PK WND 10063/0023 P0000 T01570114
KTEB 300051Z 11035G49KT 7SM -RA BKN027 BKN035 OVC075 17/13 A2869 RMK AO2 PK WND 11055/0018 RAE25B41 SLP714 P0000 T01670126
KFWN 300053Z AUTO 07020G39KT 4SM -RA BKN033 OVC040 16/12 A2872 RMK AO2 PK WND 06065/0023 RAB19 SLP725 P0005 T01610117 $
KACY 300054Z AUTO 17009KT 8SM BKN005 BKN011 OVC024 14/14 A2817 RMK AO2 WSHFT 0013 RAB2358E54 PRESRR SLP539 P0006 T01440139 TSNO
KMIV 300054Z AUTO 24008KT 2 1/2SM -RA BR FEW009 OVC016 14/14 A2817 RMK AO2 SLP536 P0008 T01440139
KWRI 300055Z AUTO 08035G54KT 5SM R06/4500V5000FT -RA BR OVC006 14/13 A2818 RMK AO2 PK WND 05057/0009 CIG 005V007 PRESRR SLP544 P0001 T01370132
KNEL 300100Z AUTO 11034G57KT 2 1/2SM BR OVC008 14/13 A2832 RMK AO2 PK WND 11062/0039 RAE0044 CIG 007V012 PRESRR P0000 $
KMIV 300105Z AUTO 24009KT 3SM -RA BR FEW005 SCT009 OVC014 14/14 A2817 RMK AO2 P0001
KWRI 300107Z AUTO 09031G55KT 6SM R06/5000V5500FT -RA BR OVC006 14/13 A2823 RMK AO2 PK WND 07055/0056 CIG 005V007 PRESRR SLP562
KNEL 300109Z AUTO 11034G56KT 3SM BR OVC008 14/12 A2835 RMK AO2 PK WND 11062/0039 RAE0044 CIG 008V012 PRESRR P0000 $
KMIV 300114Z AUTO 24009G16KT 2 1/2SM RA BR BKN007 OVC014 14/13 A2819 RMK AO2 PRESRR P0003
KWRI 300115Z AUTO 09036G53KT 8SM R06/5000VP6000FT -RA OVC006 14/13 A2825 RMK AO2 PK WND 07055/0056 PRESRR SLP567
KNEL 300118Z AUTO 12033G55KT 2 1/2SM -RA BR OVC010 13/12 A2839 RMK AO2 PK WND 11062/0039 RAE0044B13 CIG 009V012 PRESRR P0000 $
KTEB 300122Z 11026G50KT 8SM -RA FEW024 BKN032 OVC085 16/13 A2873 RMK AO2 PK WND 11056/0103 P0000
KWRI 300122Z AUTO 10029G53KT 6SM R06/4000VP6000FT -RA BR OVC007 13/13 A2828 RMK AO2 PK WND 07055/0056 CIG 006V009 PRESRR SLP577
KWRI 300122Z AUTO 10029G53KT 6SM R06/4000VP6000FT -RA BR OVC007 13/13 A2828 RMK AO2 PK WND 07055/0056 CIG 006V009 PRESRR SLP577
KWRI 300125Z AUTO 09030G49KT 5SM R06/4000V5500FT -RA BR OVC007 13/13 A2829 RMK AO2 PK WND 07055/0056 CIG 006V009 PRESRR SLP580
KWRI 300125Z AUTO 09030G49KT 5SM R06/4000V5500FT -RA BR OVC007 13/13 A2829 RMK AO2 PK WND 07055/0056 CIG 006V009 PRESRR SLP580
KWRI 300125Z AUTO 09030G49KT 5SM R06/4000V5500FT -RA BR OVC007 13/13 A2829 RMK AO2 PK WND 07055/0056 CIG 006V009 PRESRR SLP580
KWRI 300126Z AUTO 09032G49KT 5SM R06/4000VP6000FT -RA BR OVC007 13/13 A2829 RMK AO2 PK WND 07055/0056 CIG 006V010 PRESRR SLP581
KMIV 300128Z AUTO 22010G22KT 170V250 3SM -RA BR SCT007 OVC011 13/12 A2822 RMK AO2 PRESRR P0006
KTEB 300133Z 11031G51KT 10SM BKN028 BKN041 OVC085 16/13 A2874 RMK AO2 PK WND 11056/0103 RAE32 P0000
KWRI 300137Z AUTO 10025G43KT 10SM -RA OVC008 13/13 A2833 RMK AO2 PK WND 07055/0056 CIG 006V010 PRESRR SLP595
KWRI 300137Z AUTO 10025G43KT 10SM -RA OVC008 13/13 A2833 RMK AO2 PK WND 07055/0056 CIG 006V010 PRESRR SLP595
KWRI 300137Z AUTO 10025G43KT 10SM -RA OVC008 13/13 A2833 RMK AO2 PK WND 07055/0056 CIG 006V010 PRESRR SLP595
KWRI 300140Z AUTO 11033G49KT 10SM OVC008 13/12 A2834 RMK AO2 PK WND 07055/0056 RAE0140 CIG 007V011 PRESRR SLP597
KMIV 300140Z AUTO 24013G24KT 200V270 6SM -RA BR BKN007 OVC011 12/11 A2825 RMK AO2 PRESRR P0006
KWRI 300140Z AUTO 11033G49KT 10SM OVC008 13/12 A2834 RMK AO2 PK WND 07055/0056 RAE0140 CIG 007V011 PRESRR SLP597
KACY 300141Z AUTO 17030G49KT 1 3/4SM BR OVC007 12/10 A2837 RMK AO2 PK WND 16049/0138 PRESRR TSNO
KTEB 300142Z 12031G54KT 9SM 16/11 A2876 RMK AO2 RAE32 PRESRR P0000 $
KEWR 300151Z 11040G65KT 7SM -RA FEW015 BKN030 OVC050 15/10 A2874 RMK A02 PRESRR P000 T01490104
KTEB 300151Z 11037G57KT 9SM 16/11 A2877 RMK AO2 PK WND 11057/0150 RAE32 SLP741 SKY CONDITION REPORTING SYSTEM OTS P0000 T01560111 $
KWRI 300154Z AUTO 11027G44KT 9SM R06/5500VP6000FT -RA OVC009 12/12 A2839 RMK AO2 PK WND 07055/0056 CIG 008V012 PRESRR SLP614
KMIV 300154Z AUTO 23014G24KT 8SM -RA BKN007 OVC013 11/11 A2829 RMK AO2 PRESRR SLP580 P0007 T01110106
KWRI 300154Z AUTO 11027G44KT 9SM R06/5500VP6000FT -RA OVC009 12/12 A2839 RMK AO2 PK WND 07055/0056 CIG 008V012 PRESRR SLP614
KWRI 300154Z AUTO 11027G44KT 9SM R06/5500VP6000FT -RA OVC009 12/12 A2839 RMK AO2 PK WND 07055/0056 CIG 008V012 PRESRR SLP614
KACY 300154Z AUTO 17026G45KT 2SM BR BKN007 OVC012 11/10 A2843 RMK AO2 PK WND 16049/0138 PRESRR SLP626 P0003 T01110100 TSNO
KWRI 300155Z AUTO 11032G41KT 9SM R06/5500VP6000FT -RA OVC009 12/12 A2839 RMK AO2 PK WND 07055/0056 CIG 008V012 PRESRR SLP615 P0000 T01230120
KWRI 300155Z AUTO 11032G41KT 9SM R06/5500VP6000FT -RA OVC009 12/12 A2839
KNEL 300200Z AUTO 13032G50KT 3SM -RA BR BKN014 OVC020 13/11 A2853 RMK AO2 PK WND 12053/0141 RAB0146 PRESRR SLP659 P0000 T01280111 $
KWRI 300202Z AUTO 11029G43KT 9SM R06/5500VP6000FT -RA OVC010 12/12 A2841 RMK AO2 PK WND 12043/0201 CIG 008V013 PRESRR SLP623
KWRI 300202Z AUTO 11029G43KT 9SM R06/5500VP6000FT -RA OVC010 12/12 A2841 RMK AO2 PK WND 12043/0201 CIG 008V013 PRESRR SLP623
KACY 300205Z AUTO 18025G42KT 3SM BR BKN009 OVC014 11/09 A2848 RMK AO2 PK WND 18042/0204 PRESRR P0001 TSNO
KWRI 300205Z AUTO 11024G43KT 9SM R06/5500VP6000FT OVC010 12/12 A2843 RMK AO2 PK WND 12043/0201 RAE0205DZB0203E0204 CIG 009V013 PRESRR SLP628
KACY 300205Z AUTO 18025G42KT 3SM BR BKN009 OVC014 11/09 A2848 RMK AO2 PK WND 18042/0204 PRESRR P0001 TSNO
KACY 300205Z AUTO 18025G42KT 3SM BR BKN009 OVC014 11/09 A2848 RMK AO2 PK WND 18042/0204 PRESRR P0001 TSNO
KACY 300207Z AUTO 17032G44KT 3SM BR FEW007 OVC012 11/09 A2848 RMK AO2 PK WND 19044/0206 P0001 TSNO
KWRI 300208Z AUTO 11027G43KT 9SM R06/5500VP6000FT -RA OVC010 12/12 A2844 RMK AO2 PK WND 12043/0201 DZB0203E0204 CIG 009V013 PRESRR SLP631
KNEL 300212Z AUTO 13024G47KT 2 1/2SM RA BR OVC014 12/11 A2857 RMK AO2 PK WND 12047/0206 PRESRR P0000 $
KWRI 300217Z AUTO 12031G43KT 7SM R06/5000V5500FT -RA OVC010 12/11 A2845 RMK AO2 PK WND 13043/0210 DZB0203E0204 PRESRR SLP637
KTEB 300223Z 13029G43KT 9SM -RA FEW026 BKN036 OVC075 14/11 A2882 RMK AO2 PK WND 13053/0156 RAB0153E0159B15 P0000 $
KNEL 300224Z AUTO 13033G47KT 3SM -RA BR BKN014 OVC020 12/11 A2860 RMK AO2 PK WND 13047/0218 PRESRR PNO $
KWRI 300229Z AUTO 12034G52KT 7SM R06/4500V5500FT -RA OVC011 11/11 A2849 RMK AO2 PK WND 13052/0228 DZB0203E0204 SLP649
KWRI 300236Z AUTO 13023G52KT 5SM R06/4500V5000FT -RA BR BKN011 OVC019 11/11 A2853 RMK AO2 PK WND 13052/0228 DZB0203E0204 PRESRR SLP662
KWRI 300236Z AUTO 13023G52KT 5SM R06/4500V5000FT -RA BR BKN011 OVC019 11/11 A2853 RMK AO2 PK WND 13052/0228 DZB0203E0204 PRESRR SLP662
KWRI 300236Z AUTO 13023G52KT 5SM R06/4500V5000FT -RA BR BKN011 OVC019 11/11 A2853
KWRI 300236Z AUTO 13023G52KT 5SM R06/4500V5000FT -RA BR BKN011 OVC019 11/11 A2853 RMK AO2 PK WND 13052/0228 DZB0203E0204 PRESRR SLP662
KWRI 300236Z AUTO 13023G52KT 5SM R06/4500V5000FT -RA BR BKN011 OVC019 11/11 A2853 RMK AO2 PK WND 13052/0228 DZB0203E0204 PRESRR SLP662
KWRI 300237Z AUTO 13023G52KT 5SM R06/4500V5000FT -RA BR BKN010 OVC016 11/11 A2853 RMK AO2 PK WND 13052/0228 DZB0203E0204 PRESRR SLP662
KMIV 300237Z AUTO 18011G28KT 2SM RA BR OVC007 10/09 A2845 RMK AO2 PK WND 17030/0225 PRESRR P0005
KWRI 300242Z AUTO 12024G38KT 5SM R06/4500V5000FT -RA BR BKN012 OVC019 11/11 A2854 RMK AO2 PK WND 13052/0228 DZB0203E0204 PRESRR SLP667
KNEL 300242Z AUTO 14025G42KT 2 1/2SM -RA BR FEW010 BKN014 OVC030 12/11 A2865 RMK AO2 PK WND 13049/0232 PRESRR PNO $
KWRI 300249Z AUTO 12027G37KT 6SM R06/4500V5500FT -RA BR BKN011 OVC019 11/10 A2856 RMK AO2 PK WND 13052/0228 DZB0203E0204 BKN V OVC PRESRR SLP672
KTEB 300251Z 13021G37KT 10SM -RA SCT028 OVC038 14/10 A2886 RMK AO2 PK WND 13053/0156 RAB0153E0159B15 PRESRR SLP773 P0000 60000 T01390100 53086 $
KACY 300254Z AUTO 17031G44KT 4SM BR BKN013 OVC019 11/09 A2863 RMK AO2 PK WND 18049/0221 SLP694 P0001 60010 T01060089 53208 TSNO
KMIV 300254Z AUTO 18015G27KT 150V220 2 1/2SM RA BR OVC010 10/09 A2851 RMK AO2 PK WND 17030/0225 PRESRR SLP652 P0009 60024 T01000089 53127
KWRI 300255Z AUTO 13029G40KT 7SM R06/5000V5500FT -RA OVC011 11/10 A2858 RMK AO2 PK WND 13052/0228 DZB0203E0204 OVC V BKN PRESRR SLP678 P0002 60003 T01120101 53144
KNEL 300300Z AUTO 14027G47KT 2 1/2SM -RA BR BKN014 BKN019 OVC029 12/10 A2869 RMK AO2 PK WND 13049/0232 PRESRR SLP713 6//// T01170100 PNO $
KNEL 300300Z AUTO 14027G47KT 2 1/2SM -RA BR BKN014 BKN019 OVC029 12/10 A2869 RMK AO2 PK WND 13049/0232 PRESRR SLP713 6//// T01170100 PNO $
KNEL 300300Z AUTO 14027G47KT 2 1/2SM -RA BR BKN014 BKN019 OVC029 12/10 A2869 RMK AO2 PK WND 13049/0232 PRESRR SLP713 6//// T01170100 PNO $
KNEL 300300Z AUTO 14027G47KT 2 1/2SM -RA BR BKN014 BKN019 OVC029 12/10 A2869 RMK AO2 PK WND 13049/0232 PRESRR SLP713 6//// T01170100 PNO $
KNEL 300300Z AUTO 14027G47KT 2 1/2SM -RA BR BKN014 BKN019 OVC029 12/10 A2869 RMK AO2 PK WND 13049/0232 PRESRR SLP713 6//// T01170100 PNO $
KMIV 300301Z AUTO 19010G27KT 4SM -RA BR BKN010 OVC013 10/09 A2853 RMK AO2 PK WND 17027/0259 PRESRR P0001
KNEL 300302Z AUTO 14034G46KT 3SM -RA BR SCT014 BKN019 OVC029 12/10 A2869 RMK AO2 PK WND 15046/0301 PRESRR PNO $
KTEB 300307Z 12025G38KT 8SM -RA SCT022 BKN029 OVC040 14/10 A2888 RMK AO2 PK WND 13049/0254 PRESRR P0000 $
KACY 300312Z AUTO 18023G42KT 4SM BR SCT013 BKN021 OVC025 11/08 A2868 RMK AO2 PK WND 19042/0303 PRESRR P0002 TSNO
KNEL 300315Z AUTO 15028G40KT 2 1/2SM RA BR BKN013 BKN019 OVC029 12/11 A2872 RMK AO2 PK WND 15046/0301 VIS 2V3 PRESRR PNO $
KTEB 300321Z 13024G44KT 3SM BR 13/11 A2889 RMK AO2 RAEMM P0002 $
KNEL 300322Z AUTO 15029G40KT 2 1/2SM -RA BR BKN015 BKN022 OVC029 11/10 A2873 RMK AO2 PK WND 15046/0301 PRESRR PNO $
KWRI 300330Z AUTO 13026G38KT 8SM R06/5000VP6000FT -RA OVC011 11/10 A2867 RMK AO2 PK WND 13039/0317 PRESRR SLP710
KMMU 300335Z AUTO 13013G30KT 100V170 5SM -RA 12/11 A2886 RMK AO2
KNEL 300337Z AUTO 15021G39KT 4SM RA BR BKN015 BKN020 OVC027 11/10 A2877 RMK AO2 PK WND 15046/0301 PRESRR PNO $
KMIV 300346Z AUTO 18016G34KT 150V210 4SM RA BR OVC012 09/08 A2865 RMK AO2 PK WND 16035/0318 P0007
KEWR 300351Z 11040G60KT 06SM -RA BR SCT015 BKN025 OVC035 14/12 A2890 RMK AO2 PRESRR SLP787 P0006 T01430124
KTEB 300351Z 13028G38KT 5SM -RA SCT025 BKN032 OVC045 14/11 A2893 RMK AO2 PRESRR SLP797 P0004 T01390106
KMIV 300354Z AUTO 18012G34KT 150V210 4SM RA BR OVC012 09/08 A2867 RMK AO2 PK WND 16035/0318 SLP708 P0008 T00940078
KACY 300354Z AUTO 18026G45KT 10SM BKN017 OVC029 11/08 A2878 RMK AO2 PK WND 16050/0338 PRESRR SLP743 P0003 T01060078 TSNO
KWRI 300355Z AUTO 13022G36KT 9SM R06/5500VP6000FT -RA OVC012 10/09 A2873 RMK AO2 PK WND 13045/0335 CIG 009V017 OVC V BKN PRESRR SLP729 P0003 T01040093
KNEL 300400Z AUTO 15031G46KT 6SM -RA BR FEW015 BKN019 OVC039 11/10 A2881 RMK AO2 PK WND 15046/0400 SLP753 T01110100 PNO $
KTEB 300410Z 14026G36KT 3SM -RA BKN025 BKN033 OVC045 13/11 A2895 RMK AO2 PK WND 12039/0358 P0003
KMIV 300421Z AUTO 17015G30KT 140V200 6SM -RA BR BKN016 OVC024 09/08 A2874 RMK AO2 PK WND 18030/0420 PRESRR P0005
KTEB 300421Z 13025G35KT 3SM RA FEW023 SCT028 OVC047 13/10 A2897 RMK AO2 PK WND 12039/0358 PRESRR P0004
KWRI 300433Z AUTO 14024G38KT 10SM -RA BKN015 OVC033 10/09 A2881 RMK AO2 PK WND 16038/0426 BKN V OVC PRESRR SLP757
KTEB 300451Z 14017G35KT 3SM RA BR SCT020 BKN028 OVC047 13/11 A2901 RMK AO2 PK WND 12043/0441 PRESRR SLP822 P0010 T01280106 401780128
KEWR 300451Z 13030G45KT 6SM -RA SCT015 BKN030 OVC040 14/10 A2898 RMK AO2 PRESRR SLP814 P0006 T01430095 401780122
KTEB 300451Z 14017G35KT 3SM RA BR SCT020 BKN028 OVC047 13/11 A2901
KWRI 300454Z AUTO 14019G30KT 10SM -RA FEW008 BKN015 OVC020 10/08 A2885 RMK AO2 PK WND 16038/0426 PRESRR SLP770
KACY 300454Z AUTO 18024G38KT 10SM -RA SCT020 OVC031 10/07 A2888 RMK AO2 PK WND 16047/0413 RAB03E13B31 PRESRR SLP780 P0003 T01000072 401720100 TSNO
KWRI 300454Z AUTO 14019G30KT 10SM -RA FEW008 BKN015 OVC020 10/08 A2885 RMK AO2 PK WND 16038/0426 PRESRR SLP770
KWRI 300454Z AUTO 14019G30KT 10SM -RA FEW008 BKN015 OVC020 10/08 A2885 RMK AO2 PK WND 16038/0426 PRESRR SLP770
KMIV 300454Z AUTO 17013G25KT 150V210 10SM -RA BKN018 BKN023 OVC032 09/07 A2880 RMK AO2 PK WND 16030/0435 PRESRR SLP750 P0006 T00940072 401610094
KWRI 300454Z AUTO 14019G30KT 10SM -RA FEW008 BKN015 OVC020 10/08 A2885
KWRI 300454Z AUTO 14019G30KT 10SM -RA FEW008 BKN015 OVC020 10/08 A2885 RMK AO2 PK WND 16038/0426 PRESRR SLP770
KACY 300454Z AUTO 18024G38KT 10SM -RA SCT020 OVC031 10/07 A2888
KWRI 300455Z AUTO 15022G30KT 10SM R06/5500VP6000FT -RA FEW008 BKN015 OVC020 10/08 A2885
KWRI 300455Z AUTO 15022G30KT 10SM R06/5500VP6000FT -RA FEW008 BKN015 OVC020 10/08 A2885 RMK AO2 PK WND 16038/0426 SLP770 P0002 T01000084 401650100
KWRI 300456Z AUTO 15022G30KT 10SM R06/5500VP6000FT -RA FEW008 BKN013 OVC019 10/08 A2885 RMK AO2 PK WND 14030/0455 SLP770
KWRI 300456Z AUTO 15022G30KT 10SM R06/5500VP6000FT -RA FEW008 BKN013 OVC019 10/08 A2885 RMK AO2 PK WND 14030/0455 SLP770
KWRI 300456Z AUTO 15022G30KT 10SM R06/5500VP6000FT -RA FEW008 BKN013 OVC019 10/08 A2885 RMK AO2 PK WND 14030/0455 SLP770
KWRI 300456Z AUTO 15022G30KT 10SM R06/5500VP6000FT -RA FEW008 BKN013 OVC019 10/08 A2885
KWRI 300456Z AUTO 15022G30KT 10SM R06/5500VP6000FT -RA FEW008 BKN013 OVC019 10/08 A2885 RMK AO2 PK WND 14030/0455 SLP770
KWRI 300457Z AUTO 14022G30KT 10SM R06/5500VP6000FT -RA FEW008 BKN015 OVC019 10/08 A2885 RMK AO2 PK WND 14030/0456 PRESRR SLP771
KTEB 300459Z 14022G35KT 5SM RA FEW020 BKN037 OVC045 13/10 A2902 RMK AO2 PK WND 14035/0456 PRESRR P0001
KNEL 300500Z AUTO 14019G41KT 6SM -RA BR FEW017 BKN030 OVC041 11/09 A2892 RMK AO2 PK WND 14041/0455 PRESRR 401060106 PNO $
KWRI 300500Z AUTO 14019G30KT 10SM R06/5500VP6000FT -RA BKN013 BKN019 OVC024 10/09 A2885
KWRI 300500Z AUTO 14019G30KT 10SM R06/5500VP6000FT -RA BKN013 BKN019 OVC024 10/09 A2885 RMK AO2 PK WND 14030/0456 BKN019 V OVC PRESRR SLP772
KWRI 300500Z AUTO 14019G30KT 10SM R06/5500VP6000FT -RA BKN013 BKN019 OVC024 10/09 A2885 RMK AO2 PK WND 14030/0456 BKN019 V OVC PRESRR SLP772
KWRI 300500Z AUTO 14019G30KT 10SM R06/5500VP6000FT -RA BKN013 BKN019 OVC024 10/09 A2885 RMK AO2 PK WND 14030/0456 BKN019 V OVC PRESRR SLP772
KWRI 300500Z AUTO 14019G30KT 10SM R06/5500VP6000FT -RA BKN013 BKN019 OVC024 10/09 A2885 RMK AO2 PK WND 14030/0456 BKN019 V OVC PRESRR SLP772
KNEL 300500Z AUTO 14019G41KT 6SM -RA BR FEW017 BKN030 OVC041 11/09 A2892 RMK AO2 PK WND 14041/0455 PRESRR 401060106 PNO $
KWRI 300501Z AUTO 13017G30KT 10SM R06/5500VP6000FT -RA FEW008 BKN015 OVC022 10/09 A2886 RMK AO2 PK WND 14030/0456 PRESRR SLP773
KWRI 300501Z AUTO 13017G30KT 10SM R06/5500VP6000FT -RA FEW008 BKN015 OVC022 10/09 A2886 RMK AO2 PK WND 14030/0456 PRESRR SLP773
KACY 300501Z AUTO 18023G39KT 10SM BKN022 BKN029 OVC036 10/07 A2889 RMK AO2 PK WND 18039/0459 RAE01 PRESRR P0000 TSNO
KWRI 300501Z AUTO 13017G30KT 10SM R06/5500VP6000FT -RA FEW008 BKN015 OVC022 10/09 A2886 RMK AO2 PK WND 14030/0456 PRESRR SLP773
KWRI 300502Z AUTO 13018G30KT 10SM R06/5500VP6000FT -RA FEW008 BKN014 OVC021 10/09 A2886 RMK AO2 PK WND 14030/0456 PRESRR SLP773
KNEL 300506Z AUTO 15022G34KT 5SM RA BR FEW017 BKN035 OVC043 11/09 A2892 RMK AO2 PK WND 14041/0455 PRESRR SLP793 T01060089 401060106 PNO $
KWRI 300508Z AUTO 15019G35KT 10SM -RA SCT012 BKN019 OVC033 10/08 A2887 RMK AO2 PK WND 15035/0502 BKN V OVC CIG 014 RWY24 PRESRR SLP778
KTEB 300512Z 14019G35KT 8SM -RA FEW022 BKN028 OVC046 13/10 A2903 RMK AO2 PK WND 14035/0504 PRESRR P0003
KWRI 300515Z AUTO 15018G32KT 10SM -RA FEW010 BKN016 OVC021 10/08 A2888 RMK AO2 PK WND 15035/0502 PRESRR SLP781
KWRI 300515Z AUTO 15018G32KT 10SM -RA FEW010 BKN016 OVC021 10/08 A2888 RMK AO2 PK WND 15035/0502 PRESRR SLP781
KWRI 300515Z AUTO 15018G32KT 10SM -RA FEW010 BKN016 OVC021 10/08 A2888 RMK AO2 PK WND 15035/0502 PRESRR SLP781
KWRI 300518Z AUTO 14016G31KT 10SM -RA BKN014 OVC021 10/08 A2889 RMK AO2 PK WND 15035/0502 OVC V BKN PRESRR SLP783
KNEL 300525Z AUTO 15020G28KT 5SM -RA BR SCT017 BKN023 OVC042 11/09 A2895 RMK AO2 PK WND 16028/0524 PRESRR PNO $
KWRI 300529Z AUTO 14023G32KT 10SM -RA BKN015 OVC034 10/08 A2890
KWRI 300529Z AUTO 14023G32KT 10SM -RA BKN015 OVC034 10/08 A2890 RMK AO2 PK WND 15035/0502 PRESRR SLP786
KWRI 300529Z AUTO 14023G32KT 10SM -RA BKN015 OVC034 10/08 A2890 RMK AO2 PK WND 15035/0502 PRESRR SLP786
KWRI 300529Z AUTO 14023G32KT 10SM -RA BKN015 OVC034 10/08 A2890 RMK AO2 PK WND 15035/0502 PRESRR SLP786
KWRI 300529Z AUTO 14023G32KT 10SM -RA BKN015 OVC034 10/08 A2890 RMK AO2 PK WND 15035/0502 PRESRR SLP786
KWRI 300530Z AUTO 14024G32KT 10SM -RA BKN014 BKN020 OVC034 10/08 A2890 RMK AO2 PK WND 15035/0502 PRESRR SLP787
KNEL 300551Z AUTO 15019G30KT 6SM -RA BR FEW019 SCT023 OVC045 10/09 A2898 RMK AO2 PK WND 17036/0538 PNO $
KEWR 300551Z 14030G45KT 6SM -RA SCT015 BKN025 OVC040 13/09 A2904 RMK AO2 PRESRR SLP834 P0008 60020 T01330089 10157 20133 53075
KWRI 300554Z AUTO 14021G26KT 10SM -RA BKN015 OVC021 10/08 A2893 RMK AO2 PK WND 15035/0502 BKN V OVC SLP797
KACY 300554Z AUTO 18017G32KT 10SM -RA SCT022 OVC034 09/06 A2897 RMK AO2 PK WND 17040/0519 PRESRR SLP809 P0002 60018 T00940061 10144 20094 51115 TSNO $
KWRI 300554Z AUTO 14021G26KT 10SM -RA BKN015 OVC021 10/08 A2893 RMK AO2 PK WND 15035/0502 BKN V OVC SLP797
KWRI 300554Z AUTO 14021G26KT 10SM -RA BKN015 OVC021 10/08 A2893 RMK AO2 PK WND 15035/0502 BKN V OVC SLP797
KWRI 300554Z AUTO 14021G26KT 10SM -RA BKN015 OVC021 10/08 A2893
KWRI 300554Z AUTO 14021G26KT 10SM -RA BKN015 OVC021 10/08 A2893 RMK AO2 PK WND 15035/0502 BKN V OVC SLP797
KWRI 300555Z AUTO 15020G27KT 10SM -RA OVC015 10/08 A2893
KWRI 300555Z AUTO 15020G27KT 10SM -RA OVC015 10/08 A2893 RMK AO2 PK WND 15035/0502 OVC V BKN SLP796 P0002 60010 T00970081 10137 20096 51118
KWRI 300555Z AUTO 15020G27KT 10SM -RA OVC015 10/08 A2893 RMK AO2 PK WND 15035/0502 OVC V BKN SLP796 P0002 60010 T00970081 10137 20096 51118
KWRI 300555Z AUTO 15020G27KT 10SM -RA OVC015 10/08 A2893 RMK AO2 PK WND 15035/0502 OVC V BKN SLP796 P0002 60010 T00970081 10137 20096 51118
KWRI 300555Z AUTO 15020G27KT 10SM -RA OVC015 10/08 A2893 RMK AO2 PK WND 15035/0502 OVC V BKN SLP796 P0002 60010 T00970081 10137 20096 51118
KWRI 300556Z AUTO 14017G27KT 10SM -RA BKN013 OVC019 10/08 A2893 RMK AO2 SLP798
KWRI 300559Z AUTO 13015G27KT 10SM -RA OVC015 10/08 A2893 RMK AO2 OVC V BKN SLP799
KWRI 300559Z AUTO 13015G27KT 10SM -RA OVC015 10/08 A2893 RMK AO2 OVC V BKN SLP799
KWRI 300559Z AUTO 13015G27KT 10SM -RA OVC015 10/08 A2893 RMK AO2 OVC V BKN SLP799
KWRI 300559Z AUTO 13015G27KT 10SM -RA OVC015 10/08 A2893 RMK AO2 OVC V BKN SLP799
KNEL 300600Z AUTO 15021G28KT 6SM -RA BR SCT019 BKN025 OVC043 10/09 A2898 RMK AO2 PK WND 17036/0538 SLP814 6//// T01000089 10139 20100 51060 PNO $
KWRI 300601Z AUTO 14018G27KT 10SM -RA BKN013 OVC019 10/08 A2893
KWRI 300601Z AUTO 14018G27KT 10SM -RA BKN013 OVC019 10/08 A2893 RMK AO2 SLP798
KWRI 300601Z AUTO 14018G27KT 10SM -RA BKN013 OVC019 10/08 A2893 RMK AO2 SLP798
KWRI 300602Z AUTO 14019G27KT 10SM -RA BKN015 OVC022 10/08 A2893 RMK AO2 SLP800
KWRI 300602Z AUTO 14019G27KT 10SM -RA BKN015 OVC022 10/08 A2893 RMK AO2 SLP800
KWRI 300616Z AUTO 14019G34KT 10SM BKN018 OVC025 10/08 A2895 RMK AO2 PK WND 16034/0606 RAE0616DZB0613E0615 CIG 012V022 SLP806
KWRI 300616Z AUTO 14019G34KT 10SM BKN018 OVC025 10/08 A2895 RMK AO2 PK WND 16034/0606 RAE0616DZB0613E0615 CIG 012V022 SLP806
KWRI 300616Z AUTO 14019G34KT 10SM BKN018 OVC025 10/08 A2895 RMK AO2 PK WND 16034/0606 RAE0616DZB0613E0615 CIG 012V022 SLP806
KWRI 300617Z AUTO 14019G34KT 10SM -RA BKN018 OVC025 10/08 A2895 RMK AO2 PK WND 16034/0606 DZB0613E0615 CIG 013V022 SLP806
KWRI 300617Z AUTO 14019G34KT 10SM -RA BKN018 OVC025 10/08 A2895 RMK AO2 PK WND 16034/0606 DZB0613E0615 CIG 013V022 SLP806
KACY 300635Z AUTO 18012G25KT 10SM -RA BKN021 BKN026 OVC031 09/07 A2901 RMK AO2 PK WND 17035/0615 P0002 TSNO $
KEWR 300651Z 15025G35KT 5SM -RA SCT010 BKN025 OVC050 13/10 A2909 RMK A02 SLP851 P0010 T01340103
KACY 300654Z AUTO 18014G24KT 10SM -RA SCT021 BKN026 OVC035 09/06 A2902 RMK AO2 PK WND 17035/0615 SLP828 P0002 T00940061 TSNO $
KWRI 300655Z AUTO 13016G22KT 10SM -RA OVC016 09/08 A2899 RMK AO2 PK WND 16034/0606 DZB0613E0615 CIG 012V020 SLP819 P0001 T00930077
KWRI 300655Z AUTO 13016G22KT 10SM -RA OVC016 09/08 A2899
KNEL 300700Z AUTO 16016G22KT 6SM -RA BR SCT013 BKN019 OVC033 10/09 A2904 RMK AO2 PK WND 17030/0601 SLP833 T01000089 PNO $
KWRI 300704Z AUTO 13013G22KT 100V160 10SM BKN015 OVC023 09/08 A2900 RMK AO2 RAE0704 CIG 013V020 SLP821
KWRI 300712Z AUTO 14013G19KT 10SM -RA BKN015 OVC025 09/08 A2901 RMK AO2 CIG 012V019 SLP824
KWRI 300728Z AUTO 14012G17KT 10SM -RA BKN014 OVC020 09/08 A2902 RMK AO2 CIG 012V016 OVC V BKN SLP828
KWRI 300748Z AUTO 14012G19KT 10SM BKN014 OVC020 09/08 A2903 RMK AO2 RAE0748 SLP831
KWRI 300748Z AUTO 14012G19KT 10SM BKN014 OVC020 09/08 A2903 RMK AO2 RAE0748 SLP831
KWRI 300748Z AUTO 14012G19KT 10SM BKN014 OVC020 09/08 A2903
KWRI 300748Z AUTO 14012G19KT 10SM BKN014 OVC020 09/08 A2903 RMK AO2 RAE0748 SLP831
KWRI 300748Z AUTO 14012G19KT 10SM BKN014 OVC020 09/08 A2903 RMK AO2 RAE0748 SLP831
KWRI 300749Z AUTO 14011G19KT 10SM -RA BKN014 OVC020 09/08 A2903 RMK AO2 SLP832
KNEL 300749Z AUTO 15007G16KT 4SM RA BR SCT010 BKN013 OVC020 10/09 A2907 RMK AO2 PNO $
KEWR 300751Z 15015G20KT 6SM -RA FEW009 BKN025 OVC045 14/10 A2911 RMK A02 SLP858 P0009 T01390097
KACY 300754Z AUTO 17012G20KT 10SM -RA SCT017 BKN022 OVC032 09/07 A2907 RMK AO2 PK WND 18027/0707 SLP842 P0005 T00890067 TSNO $
KWRI 300755Z AUTO 13011G19KT 10SM -RA BKN013 OVC020 09/08 A2904 RMK AO2 SLP834 P0001 T00900076
KNEL 300800Z AUTO 16008KT 4SM -RA BR BKN011 OVC017 10/09 A2907 RMK AO2 SLP844 T01000089 PNO $
KWRI 300805Z AUTO 15011KT 10SM -RA OVC015 09/08 A2905 RMK AO2 SLP837
KWRI 300805Z AUTO 15011KT 10SM -RA OVC015 09/08 A2905 RMK AO2 SLP837
KWRI 300805Z AUTO 15011KT 10SM -RA OVC015 09/08 A2905 RMK AO2 SLP837
KWRI 300806Z AUTO 15010KT 10SM -RA BKN013 OVC018 09/08 A2905 RMK AO2 SLP837
KWRI 300810Z AUTO 15009KT 10SM -RA OVC015 09/08 A2905 RMK AO2 OVC V BKN SLP839
KWRI 300810Z AUTO 15009KT 10SM -RA OVC015 09/08 A2905
KWRI 300810Z AUTO 15009KT 10SM -RA OVC015 09/08 A2905 RMK AO2 OVC V BKN SLP839
KWRI 300810Z AUTO 15009KT 10SM -RA OVC015 09/08 A2905 RMK AO2 OVC V BKN SLP839
KWRI 300810Z AUTO 15009KT 10SM -RA OVC015 09/08 A2905 RMK AO2 OVC V BKN SLP839
KWRI 300811Z AUTO 15009KT 10SM -RA OVC014 09/08 A2905 RMK AO2 SLP839
KWRI 300830Z AUTO 14008KT 10SM -RA BKN010 OVC016 09/08 A2906 RMK AO2 SLP843
KNEL 300834Z AUTO 16012KT 6SM -RA BR SCT014 BKN019 OVC041 10/09 A2910 RMK AO2 PNO $
KWRI 300844Z AUTO 15009KT 10SM -RA BKN009 OVC014 09/08 A2907 RMK AO2 CIG 008V012 SLP847
KEWR 300851Z 17015G25KT 7SM -RA FEW009 BKN025 OVC040 14/09 A2914 RMK A02 SLP868 P0010 60029 T01370086 51034
KACY 300854Z AUTO 19012G18KT 10SM -RA BKN018 OVC025 08/07 A2911 RMK AO2 SLP857 P0003 60010 T00830067 51048 TSNO $
KWRI 300855Z AUTO 15011KT 10SM -RA BKN009 OVC015 09/08 A2908 RMK AO2 SLP849 P0002 60004 T00870076 51052
KWRI 300855Z AUTO 15011KT 10SM -RA BKN009 OVC015 09/08 A2908
KWRI 300857Z AUTO 14011KT 10SM -RA BKN011 OVC017 09/08 A2908 RMK AO2 SLP849
KWRI 300857Z AUTO 14011KT 10SM -RA BKN011 OVC017 09/08 A2908
KWRI 300857Z AUTO 14011KT 10SM -RA BKN011 OVC017 09/08 A2908 RMK AO2 SLP849
KWRI 300857Z AUTO 14011KT 10SM -RA BKN011 OVC017 09/08 A2908 RMK AO2 SLP849
KWRI 300857Z AUTO 14011KT 10SM -RA BKN011 OVC017 09/08 A2908 RMK AO2 SLP849
KWRI 300858Z AUTO 14011KT 10SM -RA BKN010 OVC016 09/08 A2908 RMK AO2 SLP850
KNEL 300900Z AUTO 16011KT 6SM -RA BR BKN016 BKN023 OVC044 10/09 A2912 RMK AO2 SLP858 6//// T01000089 53030 PNO $
KWRI 300902Z AUTO 15009KT 10SM BKN010 OVC014 09/08 A2908 RMK AO2 RAE0902 SLP850
KWRI 300902Z AUTO 15009KT 10SM BKN010 OVC014 09/08 A2908 RMK AO2 RAE0902 SLP850
KWRI 300902Z AUTO 15009KT 10SM BKN010 OVC014 09/08 A2908 RMK AO2 RAE0902 SLP850
KWRI 300903Z AUTO 15010KT 10SM OVC012 09/08 A2909 RMK AO2 RAE0902 SLP851
KWRI 300903Z AUTO 15010KT 10SM OVC012 09/08 A2909 RMK AO2 RAE0902 SLP851
KWRI 300903Z AUTO 15010KT 10SM OVC012 09/08 A2909
KWRI 300903Z AUTO 15010KT 10SM OVC012 09/08 A2909 RMK AO2 RAE0902 SLP851
KWRI 300903Z AUTO 15010KT 10SM OVC012 09/08 A2909 RMK AO2 RAE0902 SLP851
KWRI 300904Z AUTO 15011KT 10SM BKN010 OVC014 09/08 A2909 RMK AO2 RAE0902 SLP851
KWRI 300909Z AUTO 14010G17KT 10SM OVC012 09/08 A2909 RMK AO2 RAE0902 SLP852
KWRI 300912Z AUTO 14010G17KT 10SM BKN010 OVC014 09/08 A2909 RMK AO2 RAE0902 SLP853
KWRI 300912Z AUTO 14010G17KT 10SM BKN010 OVC014 09/08 A2909 RMK AO2 RAE0902 SLP853
KWRI 300913Z AUTO 15011G17KT 10SM OVC012 09/08 A2909 RMK AO2 RAE0902 SLP853
KWRI 300913Z AUTO 15011G17KT 10SM OVC012 09/08 A2909 RMK AO2 RAE0902 SLP853
KWRI 300913Z AUTO 15011G17KT 10SM OVC012 09/08 A2909 RMK AO2 RAE0902 SLP853
KWRI 300913Z AUTO 15011G17KT 10SM OVC012 09/08 A2909 RMK AO2 RAE0902 SLP853
KWRI 300915Z AUTO 14008KT 10SM BKN010 OVC015 09/08 A2910 RMK AO2 RAE0902 SLP854
KWRI 300915Z AUTO 14008KT 10SM BKN010 OVC015 09/08 A2910
KWRI 300915Z AUTO 14008KT 10SM BKN010 OVC015 09/08 A2910 RMK AO2 RAE0902 SLP854
KWRI 300917Z AUTO 16011G16KT 10SM OVC012 09/08 A2910 RMK AO2 RAE0902 SLP854
KWRI 300917Z AUTO 16011G16KT 10SM OVC012 09/08 A2910
KWRI 300917Z AUTO 16011G16KT 10SM OVC012 09/08 A2910 RMK AO2 RAE0902 SLP854
KWRI 300917Z AUTO 16011G16KT 10SM OVC012 09/08 A2910 RMK AO2 RAE0902 SLP854
KWRI 300918Z AUTO 16011G16KT 10SM BKN010 OVC015 09/08 A2910 RMK AO2 RAE0902 SLP855
KNEL 300923Z AUTO 15011G17KT 9SM -RA FEW016 SCT024 OVC050 10/09 A2913 RMK AO2 PNO $
KWRI 300929Z AUTO 15010G17KT 10SM -RA OVC010 09/08 A2910 RMK AO2 RAE0902B0929 CIG 008V016 SLP857
KWRI 300934Z AUTO 15011KT 10SM -RA OVC011 09/08 A2911 RMK AO2 RAE0902B0929 CIG 008V016 SLP858
KWRI 300939Z AUTO 16009KT 10SM -RA OVC010 09/08 A2911 RMK AO2 RAE0902B0929 CIG 008V013 SLP859
KWRI 300944Z AUTO 15007KT 10SM -RA OVC009 09/08 A2911 RMK AO2 RAE0902B0929 CIG 008V012 SLP861
KNEL 300948Z AUTO 16010KT 4SM -RA BR FEW014 BKN027 OVC046 10/09 A2914 RMK AO2 PNO $
KTEB 300951Z 17016G25KT 10SM FEW027 BKN060 13/08 A2919 RMK AO2 PK WND 14029/0932 RAE11 SLP883 P0001 T01280078 $
KEWR 300951Z 18015G20KT 7SM FEW009 BKN030 OVC050 13/08 A2917 RMK AO2 RAE26 SLP878 P0003 T01260075
KACY 300954Z AUTO 16012G23KT 10SM -RA SCT014 BKN021 OVC035 09/07 A2914 RMK AO2 SLP867 P0002 T00890072 TSNO $
KMIV 300954Z AUTO 17007G16KT 150V220 7SM -RA FEW014 BKN025 OVC034 07/06 A2911 RMK AO2 SLP856 P0003 T00720061
KWRI 300955Z AUTO 15009KT 10SM -RA OVC009 09/08 A2912
KWRI 300955Z AUTO 15009KT 10SM -RA OVC009 09/08 A2912 RMK AO2 RAE0902B0929 CIG 008V013 SLP862 P0001 T00860076
KWRI 300956Z AUTO 15008KT 10SM -RA OVC011 09/08 A2912 RMK AO2 CIG 008V015 SLP863
KWRI 300956Z AUTO 15008KT 10SM -RA OVC011 09/08 A2912 RMK AO2 CIG 008V015 SLP863
KWRI 300956Z AUTO 15008KT 10SM -RA OVC011 09/08 A2912
KWRI 300956Z AUTO 15008KT 10SM -RA OVC011 09/08 A2912 RMK AO2 CIG 008V015 SLP863
KWRI 300956Z AUTO 15008KT 10SM -RA OVC011 09/08 A2912 RMK AO2 CIG 008V015 SLP863
KWRI 300958Z AUTO 15010KT 10SM -RA BKN009 OVC014 09/08 A2912 RMK AO2 CIG 008V012 SLP863
KNEL 301000Z AUTO 16010KT 5SM -RA BR FEW012 BKN019 OVC037 10/09 A2915 RMK AO2 SLP870 T01000089 PNO $
KWRI 301001Z AUTO 15010KT 10SM -RA OVC012 09/08 A2912 RMK AO2 CIG 008V017 SLP863
KWRI 301007Z AUTO 15011KT 10SM -RA BKN010 OVC016 09/08 A2913 RMK AO2 CIG 008V014 SLP865
KMIV 301012Z AUTO 17008G15KT 9SM -RA FEW014 SCT028 OVC036 07/06 A2912 RMK AO2 P0001
KACY 301018Z AUTO 17016G23KT 10SM -RA FEW019 BKN036 OVC045 09/07 A2915 RMK AO2 P0001 TSNO $
KWRI 301019Z AUTO 14010KT 10SM BKN010 OVC019 09/08 A2913 RMK AO2 RAE1019 CIG 008V016 BKN V OVC SLP867
KWRI 301022Z AUTO 14009KT 10SM BKN012 OVC019 09/08 A2913 RMK AO2 RAE1019 CIG 008V016 BKN V OVC SLP867
KWRI 301022Z AUTO 14009KT 10SM BKN012 OVC019 09/08 A2913 RMK AO2 RAE1019 CIG 008V016 BKN V OVC SLP867
KWRI 301022Z AUTO 14009KT 10SM BKN012 OVC019 09/08 A2913 RMK AO2 RAE1019 CIG 008V016 BKN V OVC SLP867
KWRI 301022Z AUTO 14009KT 10SM BKN012 OVC019 09/08 A2913 RMK AO2 RAE1019 CIG 008V016 BKN V OVC SLP867
KWRI 301022Z AUTO 14009KT 10SM BKN012 OVC019 09/08 A2913
KWRI 301024Z AUTO 14009KT 10SM BKN010 OVC017 09/08 A2914 RMK AO2 RAE1019 CIG 008V014 SLP868
KWRI 301029Z AUTO 14009KT 10SM OVC012 09/08 A2914 RMK AO2 RAE1019 CIG 008V015 OVC V BKN SLP869
KWRI 301037Z AUTO 14008KT 110V170 10SM BKN010 OVC016 09/08 A2914 RMK AO2 RAE1019 CIG 008V013 SLP870
KWRI 301043Z AUTO 14008KT 10SM OVC012 09/08 A2915 RMK AO2 RAE1019 CIG 008V017 SLP872
KTEB 301051Z 16012G28KT 4SM -RA BKN030 BKN035 OVC055 13/08 A2922 RMK AO2 PK WND 16031/1034 RAB11 SLP893 P0002 T01280078 $
KEWR 301051Z 18015G22KT 7SM FEW009 BKN030 OVC040 13/08 A2921 RMK A02 SLP892 T01340079
KWRI 301054Z AUTO 14007KT 10SM SCT010 BKN014 OVC050 09/08 A2915 RMK AO2 RAE1019 SLP873
KWRI 301054Z AUTO 14007KT 10SM SCT010 BKN014 OVC050 09/08 A2915 RMK AO2 RAE1019 SLP873
KWRI 301054Z AUTO 14007KT 10SM SCT010 BKN014 OVC050 09/08 A2915 RMK AO2 RAE1019 SLP873
KMIV 301054Z AUTO VRB06G17KT 10SM -RA SCT022 BKN031 OVC055 08/06 A2915 RMK AO2 SLP869 P0002 T00780056
KWRI 301054Z AUTO 14007KT 10SM SCT010 BKN014 OVC050 09/08 A2915 RMK AO2 RAE1019 SLP873
KWRI 301054Z AUTO 14007KT 10SM SCT010 BKN014 OVC050 09/08 A2915
KACY 301054Z AUTO 17013G21KT 8SM -RA FEW013 BKN030 OVC037 09/07 A2918 RMK AO2 SLP879 P0001 T00890067 TSNO $
KWRI 301055Z AUTO 15008KT 10SM BKN012 OVC050 09/08 A2915 RMK AO2 RAE1019 CIG 009V015 SLP873 P0001 T00870076
KNEL 301100Z AUTO 15010KT 6SM -RA BR FEW017 BKN049 OVC060 09/08 A2919 RMK AO2 RAE1008B1029 SLP882 T00940083 PNO $
KMIV 301104Z AUTO 17007KT 140V200 10SM -RA SCT020 BKN027 OVC040 08/06 A2916 RMK AO2 P0000
KTEB 301104Z 17018G30KT 3SM -RA BKN028 BKN036 OVC050 12/08 A2923 RMK AO2 PK WND 17030/1104 P0000 $
KACY 301105Z AUTO 18010G17KT 10SM -RA FEW012 BKN026 OVC039 09/07 A2918 RMK AO2 P0001 TSNO $
KWRI 301106Z AUTO 14010KT 10SM FEW010 BKN015 BKN024 BKN038 OVC050 09/08 A2916 RMK AO2 SLP875
KWRI 301106Z AUTO 14010KT 10SM FEW010 BKN015 BKN024 BKN038 OVC050 09/08 A2916 RMK AO2 SLP875
KWRI 301106Z AUTO 14010KT 10SM FEW010 BKN015 BKN024 BKN038 OVC050 09/08 A2916
KWRI 301106Z AUTO 14010KT 10SM FEW010 BKN015 BKN024 BKN038 OVC050 09/08 A2916 RMK AO2 SLP875
KWRI 301106Z AUTO 14010KT 10SM FEW010 BKN015 BKN024 BKN038 OVC050 09/08 A2916 RMK AO2 SLP875
KWRI 301107Z AUTO 14009KT 10SM -RA BKN013 BKN024 BKN038 OVC050 09/08 A2916 RMK AO2 RAB1107 CIG 009V016 SLP875
KEWR 301117Z 16018G27KT 7SM SCT009 BKN015 OVC030 13/08 A2923 RMK AO2 VCSH N-E-SE
KNEL 301121Z AUTO 16010G17KT 5SM -RA BR SCT017 BKN023 OVC040 09/08 A2920 RMK AO2 PNO $
KWRI 301121Z AUTO 14010KT 10SM -RA SCT013 BKN030 OVC038 09/08 A2917 RMK AO2 RAB1107 SCT V BKN SLP879
KWRI 301121Z AUTO 14010KT 10SM -RA SCT013 BKN030 OVC038 09/08 A2917 RMK AO2 RAB1107 SCT V BKN SLP879
KWRI 301121Z AUTO 14010KT 10SM -RA SCT013 BKN030 OVC038 09/08 A2917 RMK AO2 RAB1107 SCT V BKN SLP879
KWRI 301122Z AUTO 14010KT 10SM -RA BKN013 BKN030 OVC038 09/08 A2917 RMK AO2 RAB1107 BKN013 V SCT SLP879
KTEB 301125Z 17013G24KT 3SM -RA SCT026 BKN045 OVC055 12/08 A2925
KWRI 301126Z AUTO 15011KT 10SM -RA SCT013 BKN023 BKN028 OVC037 09/08 A2917 RMK AO2 RAB1107 SLP880
KACY 301130Z AUTO 19009G21KT 5SM RA BR FEW009 BKN013 OVC019 09/07 A2920 RMK AO2 P0007 TSNO $
KNEL 301131Z AUTO 16010KT 2 1/2SM -RA BR SCT016 BKN021 OVC039 09/09 A2921 RMK AO2 PNO $
KNEL 301139Z AUTO 16012G17KT 6SM -RA BR SCT015 BKN021 OVC037 09/09 A2922 RMK AO2 PNO $
KWRI 301140Z AUTO 14012KT 10SM -RA SCT013 BKN030 09/08 A2918 RMK AO2 RAB1107 SLP883
KWRI 301145Z AUTO 14010KT 10SM -RA SCT013 BKN027 OVC033 09/07 A2919 RMK AO2 RAB1107 SLP886
KWRI 301145Z AUTO 14010KT 10SM -RA SCT013 BKN027 OVC033 09/07 A2919 RMK AO2 RAB1107 SLP886
KWRI 301148Z AUTO 15010KT 10SM -RA BKN013 BKN029 OVC035 09/07 A2919 RMK AO2 RAB1107 BKN029 V OVC SLP885
KEWR 301151Z 17017G29KT 7SM -RA SCT009 BKN025 OVC040 13/08 A2925 RMK AO2 RAB35 SLP905 P0001 60033 70101 T01280076 10139 2012 52037
KTEB 301151Z 15014G28KT 3SM -RA FEW027 BKN046 OVC055 12/08 A2926 RMK AO2 PK WND 16032/1105 SLP908 P0001 60013 70074 T01170078 10133 20117 53035 $
KWRI 301152Z AUTO 15010KT 10SM -RA SCT012 BKN018 BKN027 OVC034 09/07 A2919 RMK AO2 RAB1107 BKN027 V OVC SLP887
KWRI 301152Z AUTO 15010KT 10SM -RA SCT012 BKN018 BKN027 OVC034 09/07 A2919 RMK AO2 RAB1107 BKN027 V OVC SLP887
KWRI 301152Z AUTO 15010KT 10SM -RA SCT012 BKN018 BKN027 OVC034 09/07 A2919 RMK AO2 RAB1107 BKN027 V OVC SLP887
KWRI 301152Z AUTO 15010KT 10SM -RA SCT012 BKN018 BKN027 OVC034 09/07 A2919 RMK AO2 RAB1107 BKN027 V OVC SLP887
KWRI 301152Z AUTO 15010KT 10SM -RA SCT012 BKN018 BKN027 OVC034 09/07 A2919
KMIV 301154Z AUTO VRB05G14KT 10SM -RA SCT020 BKN033 OVC075 08/06 A2919 RMK AO2 SLP883 P0000 60009 70367 T00780056 10083 20072 53041
KACY 301154Z AUTO 19010G17KT 10SM -RA SCT013 BKN020 OVC047 09/07 A2922 RMK AO2 SLP893 P0009 60022 70348 T00890072 10094 20083 50026 TSNO $
KWRI 301155Z AUTO 14008KT 10SM -RA SCT012 BKN018 BKN026 OVC034 09/08 A2919 RMK AO2 RAB1107 BKN026 V OVC SLP887 P0001 60007 70214 T00870075 10097 20086 53038
KWRI 301155Z AUTO 14008KT 10SM -RA SCT012 BKN018 BKN026 OVC034 09/08 A2919
KNEL 301158Z AUTO 16013G19KT 10SM FEW014 BKN039 OVC065 10/08 A2923 RMK AO2 RAE45 PNO $
KNEL 301158Z AUTO 16013G19KT 10SM FEW014 BKN039 OVC065 10/08 A2923 RMK AO2 RAE45 PNO $
KNEL 301158Z AUTO 16013G19KT 10SM FEW014 BKN039 OVC065 10/08 A2923 RMK AO2 RAE45 PNO $
KNEL 301158Z AUTO 16013G19KT 10SM FEW014 BKN039 OVC065 10/08 A2923 RMK AO2 RAE45 PNO $
KWRI 301159Z AUTO 15011KT 10SM -RA BKN012 BKN017 BKN022 OVC028 09/08 A2920 RMK AO2 OVC V BKN SLP888
KNEL 301200Z AUTO 15015G21KT 10SM FEW014 BKN045 OVC065 10/08 A2923 RMK AO2 RAE1145 SLP895 6//// 7//// T01000083 10100 20094 53038 PNO $
KWRI 301217Z AUTO 15008KT 10SM -RA BKN010 OVC017 09/08 A2921 RMK AO2 CIG 008V013 SLP893
KACY 301230Z AUTO 18014G23KT 10SM -RA SCT024 BKN032 OVC048 09/06 A2924 RMK AO2 P0001 TSNO
KWRI 301240Z AUTO 17007KT 10SM BKN010 BKN014 OVC020 09/08 A2923 RMK AO2 RAE1240 SLP898
KWRI 301240Z AUTO 17007KT 10SM BKN010 BKN014 OVC020 09/08 A2923 RMK AO2 RAE1240 SLP898
KACY 301242Z AUTO 18010G20KT 10SM SCT020 BKN026 OVC048 09/06 A2925 RMK AO2 RAE32 P0001 TSNO
KWRI 301244Z AUTO VRB06KT 10SM SCT010 OVC017 09/08 A2923 RMK AO2 RAE1240 SLP899
KWRI 301244Z AUTO VRB06KT 10SM SCT010 OVC017 09/08 A2923 RMK AO2 RAE1240 SLP899
KMIV 301244Z AUTO 18007G15KT 150V220 10SM -RA SCT020 BKN029 OVC050 08/06 A2923 RMK AO2 P0000
KWRI 301246Z AUTO 16007KT 10SM BKN010 OVC019 09/08 A2923 RMK AO2 RAE1240 SLP900
KWRI 301248Z AUTO 16007KT 10SM SCT010 BKN016 OVC021 09/08 A2923 RMK AO2 RAE1240 BKN V OVC SLP900
KEWR 301251Z 17020G33KT 6SM -RA SCT009 BKN015 OVC030 11/09 A2928 RMK AO2 SLP915 T01090087
KWRI 301251Z AUTO 17008KT 10SM BKN010 OVC019 09/08 A2923 RMK AO2 RAE1240 CIG 009V014 SLP901
KTEB 301251Z 16017G25KT 8SM -RA FEW028 SCT037 OVC049 12/08 A2929 RMK AO2 PK WND 14026/1240 SLP917 P0000 T01220078 $
KACY 301254Z AUTO 18016G26KT 10SM SCT020 BKN028 OVC048 09/06 A2926 RMK AO2 PK WND 20026/1250 RAE32 SLP907 P0001 T00940061 TSNO
KMIV 301254Z AUTO VRB06G16KT 10SM SCT020 BKN029 OVC055 08/06 A2923 RMK AO2 RAE46 SLP897 P0001 T00780056
KWRI 301255Z AUTO 18008KT 10SM BKN010 OVC016 09/08 A2924
KWRI 301255Z AUTO 18008KT 10SM BKN010 OVC016 09/08 A2924 RMK AO2 RAE1240 CIG 008V011 OVC V BKN SLP902 P0001 T00900079
KWRI 301255Z AUTO 18008KT 10SM BKN010 OVC016 09/08 A2924 RMK AO2 RAE1240 CIG 008V011 OVC V BKN SLP902 P0001 T00900079
KWRI 301258Z AUTO 18005KT 10SM BKN009 OVC014 09/08 A2924 RMK AO2 CIG 008V011 OVC V BKN SLP902
KNEL 301300Z AUTO 18011KT 8SM -RA FEW024 SCT030 BKN041 10/08 A2926 RMK AO2 RAB1251 SLP908 T01000078 PNO $
KWRI 301302Z AUTO 17009KT 10SM -RA BKN009 OVC018 09/08 A2924 RMK AO2 RAB1302 CIG 008V012 SLP903
KACY 301305Z AUTO 18011G22KT 6SM -RA SCT020 BKN038 OVC055 09/07 A2927 RMK AO2 RAB02 P0000 TSNO
KWRI 301309Z AUTO 17007KT 130V200 10SM -RA SCT008 BKN014 OVC020 09/08 A2924 RMK AO2 RAB1302 SCT V BKN SLP903
KWRI 301313Z AUTO 16007KT 10SM -RA BKN010 BKN016 OVC027 09/08 A2924 RMK AO2 RAB1302 SLP903
KWRI 301313Z AUTO 16007KT 10SM -RA BKN010 BKN016 OVC027 09/08 A2924 RMK AO2 RAB1302 SLP903
KWRI 301313Z AUTO 16007KT 10SM -RA BKN010 BKN016 OVC027 09/08 A2924
KWRI 301313Z AUTO 16007KT 10SM -RA BKN010 BKN016 OVC027 09/08 A2924 RMK AO2 RAB1302 SLP903
KWRI 301313Z AUTO 16007KT 10SM -RA BKN010 BKN016 OVC027 09/08 A2924 RMK AO2 RAB1302 SLP903
KWRI 301314Z AUTO 17007KT 10SM -RA SCT009 BKN014 OVC027 09/08 A2924 RMK AO2 RAB1302 SLP904
KWRI 301321Z AUTO 16007KT 10SM -RA SCT009 BKN016 OVC029 09/08 A2925 RMK AO2 RAB1302 CIG 010 RWY24 SLP905
KWRI 301321Z AUTO 16007KT 10SM -RA SCT009 BKN016 OVC029 09/08 A2925 RMK AO2 RAB1302 CIG 010 RWY24 SLP905
KWRI 301323Z AUTO 16009KT 10SM -RA SCT008 BKN014 BKN019 OVC029 09/08 A2925 RMK AO2 RAB1302 SLP905
KMIV 301324Z AUTO VRB06G15KT 10SM -RA FEW018 BKN031 OVC050 08/06 A2925 RMK AO2 RAB09 P0000
KWRI 301328Z AUTO 15013G18KT 10SM FEW008 BKN014 BKN019 OVC030 09/08 A2925 RMK AO2 RAB1302E1328 BKN014 V SCT SLP906
KWRI 301328Z AUTO 15013G18KT 10SM FEW008 BKN014 BKN019 OVC030 09/08 A2925 RMK AO2 RAB1302E1328 BKN014 V SCT SLP906
KWRI 301328Z AUTO 15013G18KT 10SM FEW008 BKN014 BKN019 OVC030 09/08 A2925 RMK AO2 RAB1302E1328 BKN014 V SCT SLP906
KWRI 301330Z AUTO 15011G18KT 10SM -RA FEW008 SCT014 BKN019 OVC030 09/08 A2925 RMK AO2 RAB1302 FEW V SCT CIG 013 RWY24 SLP907
KWRI 301330Z AUTO 15011G18KT 10SM -RA FEW008 SCT014 BKN019 OVC030 09/08 A2925 RMK AO2 RAB1302 FEW V SCT CIG 013 RWY24 SLP907
KWRI 301330Z AUTO 15011G18KT 10SM -RA FEW008 SCT014 BKN019 OVC030 09/08 A2925
KWRI 301339Z AUTO 16012G19KT 10SM -RA BKN014 BKN019 BKN027 OVC032 09/08 A2925 RMK AO2 RAB1302 BKN014 V SCT SLP908
KEWR 301351Z 17021G32KT 5SM -RA SCT009 BKN015 OVC025 12/07 A2932 RMK AO2 SLP929 T01200074
KTEB 301351Z 16016G27KT 5SM RA FEW023 BKN050 OVC065 12/08 A2931 RMK AO2 PK WND 17030/1308 SLP926 P0005 T01220083 $
KACY 301354Z AUTO 19015G24KT 5SM -RA BR SCT016 SCT025 OVC037 09/07 A2929 RMK AO2 PK WND 18028/1311 RAB02 SLP918 P0005 T00890067 TSNO
KMIV 301354Z AUTO VRB06G17KT 10SM FEW019 SCT027 OVC050 08/05 A2926 RMK AO2 RAB09E53 SLP907 P0000 T00830050
KWRI 301355Z AUTO 15010KT 10SM -RA BKN013 BKN019 09/08 A2926 RMK AO2 RAB1302 SLP910 P0001 T00940079
KNEL 301400Z AUTO 16016G25KT 7SM -RA FEW028 BKN047 OVC060 10/08 A2929 RMK AO2 PK WND 16029/1347 RAE1301B1329 SLP917 T01000078 PNO $
KWRI 301408Z AUTO 15011G20KT 10SM -RA BKN015 BKN024 BKN030 OVC055 10/08 A2927 RMK AO2 SLP913
KWRI 301408Z AUTO 15011G20KT 10SM -RA BKN015 BKN024 BKN030 OVC055 10/08 A2927 RMK AO2 SLP913
KWRI 301410Z AUTO 16010G20KT 10SM -RA BKN014 BKN022 OVC029 10/08 A2927 RMK AO2 OVC V BKN SLP913
KACY 301412Z AUTO 21013G18KT 5SM -RA BR FEW012 BKN029 OVC040 09/07 A2930 RMK AO2 P0002 TSNO
KWRI 301427Z AUTO 16013KT 10SM -RA FEW009 BKN013 BKN018 OVC024 10/08 A2928 RMK AO2 SLP915
KWRI 301427Z AUTO 16013KT 10SM -RA FEW009 BKN013 BKN018 OVC024 10/08 A2928 RMK AO2 SLP915
KWRI 301431Z AUTO 15009KT 10SM -RA FEW009 BKN014 OVC021 10/08 A2928 RMK AO2 SLP917
KWRI 301431Z AUTO 15009KT 10SM -RA FEW009 BKN014 OVC021 10/08 A2928 RMK AO2 SLP917
KNEL 301436Z AUTO 16011KT 9SM -RA SCT018 BKN024 OVC048 10/08 A2931 RMK AO2 PNO $
KMIV 301442Z AUTO 20008KT 170V250 10SM -RA FEW021 BKN026 OVC047 08/05 A2929 RMK AO2 RAB1356 P0000
KWRI 301444Z AUTO 18007KT 10SM -RA BKN008 OVC013 09/08 A2929 RMK AO2 SLP921
KWRI 301450Z AUTO 19011G18KT 9SM -RA OVC010 09/08 A2929 RMK AO2 SLP921
KWRI 301450Z AUTO 19011G18KT 9SM -RA OVC010 09/08 A2929 RMK AO2 SLP921
KEWR 301451Z 18019G33KT 5SM -RA FEW009 BKN025 OVC035 11/08 A2933 RMK AO2 SLP932 60020 T01140078 51027
KTEB 301451Z 15013G23KT 3SM -RA FEW030 BKN044 OVC055 11/08 A2934 RMK AO2 PK WND 16032/1353 RAE05B27DZB15E22 SLP935 P0002 60007 T01110083 51027
KWRI 301452Z AUTO 20011G18KT 9SM -RA BKN008 OVC013 09/08 A2930 RMK AO2 SLP922
KWRI 301452Z AUTO 20011G18KT 9SM -RA BKN008 OVC013 09/08 A2930 RMK AO2 SLP922
KMIV 301454Z AUTO VRB05KT 10SM -RA SCT021 BKN033 OVC047 08/05 A2930 RMK AO2 RAB1356 SLP919 P0000 60001 T00830050 51036
KACY 301454Z AUTO 20009G18KT 7SM -RA FEW011 BKN022 OVC031 09/07 A2932 RMK AO2 SLP929 P0007 60013 T00890067 51036 TSNO
KWRI 301455Z AUTO 18010G18KT 8SM -RA SCT006 OVC012 09/08 A2930 RMK AO2 SLP922 P0002 60004 T00900078 51035
KWRI 301455Z AUTO 18010G18KT 8SM -RA SCT006 OVC012 09/08 A2930
KWRI 301455Z AUTO 18010G18KT 8SM -RA SCT006 OVC012 09/08 A2930 RMK AO2 SLP922 P0002 60004 T00900078 51035
KWRI 301455Z AUTO 18010G18KT 8SM -RA SCT006 OVC012 09/08 A2930 RMK AO2 SLP922 P0002 60004 T00900078 51035
KWRI 301455Z AUTO 18010G18KT 8SM -RA SCT006 OVC012 09/08 A2930 RMK AO2 SLP922 P0002 60004 T00900078 51035
KWRI 301456Z AUTO 18010G18KT 7SM -RA BKN008 OVC012 09/08 A2930 RMK AO2 SLP922
KWRI 301459Z AUTO 18012KT 7SM -RA BKN007 OVC012 09/08 A2930 RMK AO2 SLP923
KWRI 301504Z AUTO 18012G19KT 8SM -RA SCT007 OVC013 09/08 A2930 RMK AO2 SLP924
KMIV 301505Z AUTO 18007G15KT 150V220 10SM -RA BKN021 BKN030 OVC046 08/05 A2930 RMK AO2 P0000
KWRI 301515Z AUTO 17013G21KT 10SM -RA FEW007 BKN015 OVC035 09/07 A2931 RMK AO2 SLP927
KTEB 301520Z 15017G23KT 4SM -RA SCT019 BKN026 OVC037 12/09 A2935 RMK AO2 P0001
KWRI 301524Z AUTO 17010KT 10SM -RA SCT015 BKN022 OVC036 09/07 A2932 RMK AO2 SCT V BKN SLP929
KWRI 301524Z AUTO 17010KT 10SM -RA SCT015 BKN022 OVC036 09/07 A2932 RMK AO2 SCT V BKN SLP929
KWRI 301524Z AUTO 17010KT 10SM -RA SCT015 BKN022 OVC036 09/07 A2932 RMK AO2 SCT V BKN SLP929
KWRI 301525Z AUTO 17011KT 10SM -RA FEW007 BKN015 BKN022 OVC036 09/07 A2932 RMK AO2 SLP929
KWRI 301525Z AUTO 17011KT 10SM -RA FEW007 BKN015 BKN022 OVC036 09/07 A2932 RMK AO2 SLP929
KWRI 301525Z AUTO 17011KT 10SM -RA FEW007 BKN015 BKN022 OVC036 09/07 A2932 RMK AO2 SLP929
KWRI 301528Z AUTO 16012KT 10SM -RA SCT015 BKN022 OVC036 09/07 A2931 RMK AO2 SLP928
KWRI 301528Z AUTO 16012KT 10SM -RA SCT015 BKN022 OVC036 09/07 A2931 RMK AO2 SLP928
KWRI 301531Z AUTO 17010KT 10SM -RA SCT014 SCT022 BKN035 OVC048 09/07 A2932 RMK AO2 CIG 025 RWY24 SLP929
KWRI 301537Z AUTO 16013G19KT 10SM FEW014 SCT022 BKN030 OVC037 09/07 A2932 RMK AO2 RAE1537 FEW V SCT CIG 025 RWY24 SLP930
KTEB 301541Z 15012G23KT 10SM FEW019 BKN040 OVC048 12/08 A2936 RMK AO2 RAE39 P0001
KMIV 301543Z AUTO 18009G19KT 140V210 10SM SCT025 SCT034 OVC045 08/04 A2932 RMK AO2 RAE10 P0000
KWRI 301547Z AUTO 16012G18KT 10SM -RA FEW022 BKN032 BKN048 09/08 A2932 RMK AO2 CIG 021 RWY24 SLP931
KTEB 301551Z 17014G21KT 10SM BKN032 BKN041 OVC048 13/08 A2936 RMK AO2 RAE39 SLP942 P0001 T01280083
KEWR 301551Z 16020G35KT 6SM -RA SCT009 BKN020 OVC030 12/07 A2936 RMK AO2 FU PLUME S DRFTG NW OVR RWY SLP942 T01180073
KWRI 301554Z AUTO 17009KT 10SM -RA FEW008 BKN031 BKN042 OVC048 09/08 A2933
KWRI 301554Z AUTO 17009KT 10SM -RA FEW008 BKN031 BKN042 OVC048 09/08 A2933 RMK AO2 SLP933
KACY 301554Z 20012G18KT 6SM -RA BR BKN015 BKN020 OVC027 08/06 A2936 RMK AO2 SLP941 P0006 T00830061
KMIV 301554Z AUTO 18009G19KT 10SM -RA FEW023 SCT030 OVC043 08/04 A2932 RMK AO2 RAE10B47 SLP928 P0000 T00830044
KWRI 301554Z AUTO 17009KT 10SM -RA FEW008 BKN031 BKN042 OVC048 09/08 A2933 RMK AO2 SLP933
KWRI 301554Z AUTO 17009KT 10SM -RA FEW008 BKN031 BKN042 OVC048 09/08 A2933 RMK AO2 SLP933
KWRI 301554Z AUTO 17009KT 10SM -RA FEW008 BKN031 BKN042 OVC048 09/08 A2933 RMK AO2 SLP933
KWRI 301555Z AUTO 17009KT 10SM FEW011 BKN031 BKN042 OVC048 09/08 A2933
KWRI 301555Z AUTO 17009KT 10SM FEW011 BKN031 BKN042 OVC048 09/08 A2933 RMK AO2 RAE1555 SLP933 P0001 T00940079
KWRI 301558Z AUTO 17009G15KT 10SM FEW012 SCT020 BKN029 BKN042 OVC049 09/08 A2933 RMK AO2 FEW V SCT SLP933
KNEL 301600Z AUTO 18015G26KT 9SM FEW020 BKN044 OVC055 11/08 A2935 RMK AO2 PK WND 17031/1540 RAB1506E1524 SLP938 T01060078 PNO $
KWRI 301602Z AUTO 17007G15KT 10SM FEW009 SCT013 SCT019 BKN029 OVC048 09/08 A2933 RMK AO2 FEW V SCT CIG 024 RWY24 SLP934
KWRI 301602Z AUTO 17007G15KT 10SM FEW009 SCT013 SCT019 BKN029 OVC048 09/08 A2933 RMK AO2 FEW V SCT CIG 024 RWY24 SLP934
KWRI 301602Z AUTO 17007G15KT 10SM FEW009 SCT013 SCT019 BKN029 OVC048 09/08 A2933 RMK AO2 FEW V SCT CIG 024 RWY24 SLP934
KWRI 301603Z AUTO 16008G15KT 10SM FEW009 SCT013 BKN019 BKN029 OVC048 09/08 A2933
KWRI 301603Z AUTO 16008G15KT 10SM FEW009 SCT013 BKN019 BKN029 OVC048 09/08 A2933 RMK AO2 FEW V SCT SLP934
KWRI 301610Z AUTO 19011G17KT 10SM SCT009 BKN014 BKN019 OVC031 09/08 A2933 RMK AO2 SLP935
KWRI 301610Z AUTO 19011G17KT 10SM SCT009 BKN014 BKN019 OVC031 09/08 A2933 RMK AO2 SLP935
KWRI 301610Z AUTO 19011G17KT 10SM SCT009 BKN014 BKN019 OVC031 09/08 A2933
KWRI 301610Z AUTO 19011G17KT 10SM SCT009 BKN014 BKN019 OVC031 09/08 A2933 RMK AO2 SLP935
KWRI 301610Z AUTO 19011G17KT 10SM SCT009 BKN014 BKN019 OVC031 09/08 A2933 RMK AO2 SLP935
KWRI 301612Z AUTO 17014G20KT 10SM -RA SCT009 BKN013 BKN019 OVC030 09/08 A2934 RMK AO2 RAB1612 SLP936
KWRI 301623Z AUTO 17012KT 10SM -RA SCT012 BKN019 OVC028 09/07 A2934 RMK AO2 RAB1612 CIG 011 RWY24 SLP937
KWRI 301625Z AUTO 17014KT 10SM -RA SCT012 BKN020 OVC028 09/07 A2934 RMK AO2 RAB1612 CIG 011 RWY24 SLP937
KWRI 301625Z AUTO 17014KT 10SM -RA SCT012 BKN020 OVC028 09/07 A2934 RMK AO2 RAB1612 CIG 011 RWY24 SLP937
KWRI 301625Z AUTO 17014KT 10SM -RA SCT012 BKN020 OVC028 09/07 A2934 RMK AO2 RAB1612 CIG 011 RWY24 SLP937
KWRI 301625Z AUTO 17014KT 10SM -RA SCT012 BKN020 OVC028 09/07 A2934
KWRI 301625Z AUTO 17014KT 10SM -RA SCT012 BKN020 OVC028 09/07 A2934 RMK AO2 RAB1612 CIG 011 RWY24 SLP937
KWRI 301626Z AUTO 18012KT 10SM -RA SCT012 BKN018 OVC026 09/07 A2934 RMK AO2 RAB1612 CIG 010 RWY24 SLP937
KWRI 301626Z AUTO 18012KT 10SM -RA SCT012 BKN018 OVC026 09/07 A2934 RMK AO2 RAB1612 CIG 010 RWY24 SLP937
KWRI 301629Z AUTO 18010KT 10SM SCT010 BKN017 OVC026 09/07 A2934 RMK AO2 RAB1612E1629 SLP937
KTEB 301630Z 17017G25KT 2 1/2SM +RA BR SCT026 BKN036 OVC043 12/08 A2938
KTEB 301630Z 17017G25KT 2 1/2SM +RA BR SCT026 BKN036 OVC043 12/08 A2938
KTEB 301630Z 17017G25KT 2 1/2SM +RA BR SCT026 BKN036 OVC043 12/08 A2938 RMK AO2 PK WND 18027/1605 RAB07 P0001
KTEB 301631Z 17018G26KT 4SM RA BR SCT026 OVC036 12/08 A2938 RMK AO2 PK WND 18027/1605 RAB07 P0001
KWRI 301633Z AUTO 18010KT 10SM BKN010 BKN017 OVC026 09/07 A2934 RMK AO2 RAB1612E1629 SLP937
KNEL 301641Z AUTO 19008G19KT 8SM -RA FEW013 BKN025 OVC042 10/08 A2936 RMK AO2 PK WND 17028/1616 RAB32 PNO $
KTEB 301646Z 17013G21KT 8SM RA BR FEW020 BKN028 OVC036 12/09 A2938 RMK AO2 PK WND 18027/1605 RAB07 P0003
KNEL 301648Z AUTO 18010G16KT 9SM FEW013 BKN033 OVC040 10/08 A2937 RMK AO2 PK WND 17028/1616 RAB32E42 PNO $
KEWR 301651Z 17018G36KT 7SM FEW009 BKN025 OVC035 12/06 A2938 RMK AO2 RAE40 SLP949 T01240063
KTEB 301651Z 17012G21KT 8SM -RA BKN026 BKN032 OVC039 12/09 A2938 RMK AO2 PK WND 18027/1605 RAB07 SLP949 P0003 T01170089
KWRI 301651Z AUTO 15007KT 10SM OVC012 09/07 A2935 RMK AO2 RAB1612E1629 SLP939
KMIV 301652Z AUTO 20007KT 10SM SCT022 BKN027 OVC048 08/04 A2935 RMK AO2 RAE26 P0000
KMIV 301654Z AUTO VRB06KT 10SM SCT022 BKN027 OVC048 08/04 A2935 RMK AO2 RAE26 SLP936 P0000 T00830044
KACY 301654Z 20010KT 10SM OVC028 08/06 A2937 RMK AO2 RAE27 SLP945 P0001 T00830061
KWRI 301655Z AUTO 15007KT 10SM BKN011 OVC018 09/07 A2934 RMK AO2 RAB1612E1629 CIG 009V016 BKN V OVC SLP938 P0000 T00880073
KWRI 301655Z AUTO 15007KT 10SM BKN011 OVC018 09/07 A2934
KNEL 301700Z AUTO 20009KT 10SM FEW014 BKN027 OVC031 10/08 A2937 RMK AO2 PK WND 17028/1616 RAB1632E1642 PNO $
KNEL 301700Z AUTO 20009KT 10SM FEW014 BKN027 OVC031 10/08 A2937 RMK AO2 PK WND 17028/1616 RAB1632E1642 PNO $
KWRI 301703Z AUTO 16010G14KT 10SM SCT011 BKN017 OVC030 09/07 A2934 RMK AO2 SLP938
KWRI 301703Z AUTO 16010G14KT 10SM SCT011 BKN017 OVC030 09/07 A2934 RMK AO2 SLP938
KTEB 301705Z 17012G21KT 10SM -RA FEW022 BKN035 OVC046 12/09 A2938 RMK AO2 P0000
KNEL 301706Z AUTO 20012G16KT 10SM FEW017 BKN025 OVC031 10/08 A2937 RMK AO2 PK WND 17028/1616 RAB1632E1642 SLP944 T01000078 PNO $
KWRI 301707Z AUTO 16010KT 10SM SCT011 SCT019 OVC030 09/07 A2934 RMK AO2 SCT019 V BKN CIG 021 RWY24 SLP938
KWRI 301728Z AUTO 15006KT 10SM FEW016 BKN029 OVC034 09/07 A2935 RMK AO2 SLP940
KWRI 301728Z AUTO 15006KT 10SM FEW016 BKN029 OVC034 09/07 A2935 RMK AO2 SLP940
KWRI 301728Z AUTO 15006KT 10SM FEW016 BKN029 OVC034 09/07 A2935
KWRI 301728Z AUTO 15006KT 10SM FEW016 BKN029 OVC034 09/07 A2935 RMK AO2 SLP940
KWRI 301728Z AUTO 15006KT 10SM FEW016 BKN029 OVC034 09/07 A2935 RMK AO2 SLP940
KWRI 301729Z AUTO 14007KT 10SM FEW016 OVC031 09/07 A2935 RMK AO2 SLP940
KMIV 301739Z AUTO VRB04G16KT 10SM SCT023 BKN032 OVC042 08/04 A2935 RMK AO2
KNEL 301740Z AUTO 18008KT 10SM FEW017 SCT024 OVC036 09/07 A2938 RMK AO2 PNO $
KWRI 301744Z AUTO 15006KT 10SM FEW014 SCT019 BKN026 OVC031 09/07 A2935 RMK AO2 FEW V SCT SLP941
KWRI 301744Z AUTO 15006KT 10SM FEW014 SCT019 BKN026 OVC031 09/07 A2935 RMK AO2 FEW V SCT SLP941
KWRI 301745Z AUTO 15007KT 10SM FEW014 SCT019 OVC030 09/07 A2935 RMK AO2 FEW V SCT SLP941
KWRI 301745Z AUTO 15007KT 10SM FEW014 SCT019 OVC030 09/07 A2935 RMK AO2 FEW V SCT SLP941
KWRI 301745Z AUTO 15007KT 10SM FEW014 SCT019 OVC030 09/07 A2935 RMK AO2 FEW V SCT SLP941
KMMU 301745Z 19005G18KT 10SM -DZ OVC010 10/08 A2939
KWRI 301746Z AUTO 16008KT 10SM FEW014 SCT019 BKN028 OVC033 09/07 A2935 RMK AO2 CIG 025V030 FEW V SCT SLP941
KTEB 301751Z 16015G23KT 10SM -RA FEW025 OVC035 12/08 A2938 RMK AO2 RAE08B28 SLP950 P0000 60011 T01220083 10133 20111 51008
KMIV 301754Z AUTO 19009G20KT 150V220 10SM FEW023 BKN037 OVC044 08/04 A2936 RMK AO2 SLP939 60001 T00830039 10089 20078 51011
KACY 301754Z 20012G17KT 10SM BKN026 OVC032 08/05 A2938 RMK AO2 SLP948 60020 T00830050 10094 20083 51019
KWRI 301755Z AUTO 15006KT 10SM FEW015 BKN023 OVC031 09/07 A2935 RMK AO2 CIG 021V026 SLP941 60005 T00890070 10097 20087 51018
KNEL 301800Z AUTO 19007KT 10SM FEW014 OVC032 09/07 A2938 RMK AO2 SLP948 6//// T00940072 10111 20094 51016 PNO $
KWRI 301829Z AUTO 16009KT 10SM SCT018 SCT024 OVC031 09/07 A2935 RMK AO2 SCT024 V BKN SLP942
KTEB 301832Z 17012G21KT 8SM BKN025 BKN030 OVC037 11/08 A2939 RMK AO2 RAE11 P0001
KMMU 301845Z 18005KT 10SM OVC020 09/08 A2940 RMK LTG DSNT E SE
KTEB 301851Z 16009KT 8SM BKN025 OVC033 12/09 A2940 RMK AO2 RAE11 SLP954 P0001 T01170089
KEWR 301851Z 18015G25KT 7SM BKN020 OVC030 12/05 A2939 RMK A02 SLP953
KSMQ 301853Z AUTO A2937 RMK AO2 SLPNO PWINO FZRANO TSNO $
KACY 301854Z 19009G20KT 10SM BKN028 OVC035 09/04 A2939 RMK AO2 SLP952 T00940044
KMIV 301854Z AUTO VRB06G15KT 10SM -RA BKN033 OVC041 08/04 A2937 RMK AO2 RAB45 SLP945 P0000 T00830039
KWRI 301855Z AUTO 14007KT 10SM SCT020 OVC030 09/06 A2937 RMK AO2 SLP946 T00920065
KWRI 301855Z AUTO 14007KT 10SM SCT020 OVC030 09/06 A2937
KNEL 301900Z AUTO 17006KT 10SM OVC030 09/07 A2940 RMK AO2 SLP953 T00940067 PNO $
KWRI 301900Z AUTO 14006KT 10SM SCT019 OVC029 09/06 A2937 RMK AO2 CIG 026V030 SLP947
KWRI 301918Z AUTO 16010KT 10SM FEW019 SCT028 OVC038 09/06 A2937 RMK AO2 FEW V SCT SLP948
KTEB 301927Z 17009G19KT 10SM SCT023 BKN033 OVC040 12/09 A2940 RMK AO2 RAB16E25 P0000
KACY 301951Z 18012G19KT 10SM BKN033 OVC040 09/04 A2941 RMK AO2
KEWR 301951Z 17014G22KT 7SM BKN020 OVC030 12/06 A2942 RMK A02 SLP 963
KTEB 301951Z 16011G16KT 10SM FEW026 OVC035 12/08 A2941 RMK AO2 RAB16E25 SLP958 P0000 T01220083
KACY 301951Z 18012G19KT 10SM BKN033 OVC040 09/04 A2941
KACY 301951Z 18012G19KT 10SM BKN033 OVC040 09/04 A2941 RMK AO2
KACY 301951Z 18012G19KT 10SM BKN033 OVC040 09/04 A2941 RMK AO2
KACY 301951Z 18012G19KT 10SM BKN033 OVC040 09/04 A2941 RMK AO2
KSMQ 301953Z AUTO A2939 RMK AO2 SLPNO PWINO FZRANO TSNO $
KACY 301954Z 19011G19KT 10SM SCT029 BKN036 OVC043 09/04 A2941 RMK AO2 SLP958 T00940039
KMIV 301954Z AUTO VRB05KT 10SM -RA BKN023 OVC034 08/04 A2940 RMK AO2 SLP953 P0000 T00780039
KWRI 301955Z AUTO 16010KT 10SM FEW023 BKN032 OVC045 09/06 A2938 RMK AO2 SLP950 T00930056
KNEL 302000Z AUTO 18006KT 10SM OVC030 09/06 A2941 RMK AO2 SLP957 T00940061 PNO $
KTEB 302004Z 17010G18KT 7SM -RA SCT024 BKN029 OVC035 12/08 A2941 RMK AO2 RAB1958 P0000
KMIV 302034Z AUTO VRB04KT 10SM -RA FEW024 SCT028 OVC038 08/04 A2941 RMK AO2 P0000
KTEB 302034Z 18009KT 5SM SCT026 OVC034 12/08 A2942 RMK AO2 RAB1958E34 P0000
KMMU 302045Z 16003KT 7SM -RA OVC020 10/08 A2942
KEWR 302051Z 18012G17KT 7SM BKN015 OVC030 12/06 A2943 RMK AO2 SLP966 T01180063 52014
KTEB 302051Z 17008KT 7SM -RA FEW030 OVC040 12/08 A2942 RMK AO2 RAB1958 SLP963 P0000 60001 T01170083 53013
KSMQ 302053Z AUTO A2940 RMK AO2 SLPNO 6//// PWINO FZRANO TSNO $
KACY 302054Z 19009G18KT 10SM BKN042 OVC060 09/04 A2943 RMK AO2 SLP965 T00890039 53012
KMIV 302054Z AUTO VRB05KT 10SM -RA SCT026 OVC042 08/04 A2942 RMK AO2 SLP959 P0000 60000 T00780039 51014
KWRI 302055Z AUTO 16006KT 10SM BKN040 OVC048 09/06 A2940 RMK AO2 SLP956 T00910055 53016
KNEL 302100Z AUTO 18005KT 10SM BKN034 OVC044 09/07 A2942 RMK AO2 SLP962 6//// T00940067 51013 PNO $
KMIV 302129Z AUTO VRB03KT 7SM -RA FEW014 BKN025 OVC044 07/04 A2943 RMK AO2 P0001
KMIV 302142Z AUTO 00000KT 10SM -RA FEW014 SCT019 OVC030 07/05 A2943 RMK AO2 P0001
KMMU 302145Z 16005KT 7SM OVC020 09/07 A2945
KEWR 302151Z 18011G17KT 7SM FEW010 BKN020 OVC030 11/05 A2945 RMK AO2 SLP973 T01130054
KTEB 302151Z 21005KT 10SM SCT031 BKN041 OVC049 11/08 A2944 RMK AO2 RAE09 SLP969 P0000 T01110083
KSMQ 302153Z AUTO A2942 RMK AO2 SLPNO PWINO FZRANO TSNO $
KACY 302154Z 21005KT 10SM BKN040 OVC060 08/03 A2945 RMK AO2 SLP973 T00830033
KMIV 302154Z AUTO 00000KT 10SM -RA FEW018 BKN030 OVC037 07/05 A2944 RMK AO2 SLP968 P0002 T00670050
KWRI 302155Z AUTO 16005KT 10SM OVC042 09/05 A2942 RMK AO2 SLP964 T00880050
KNEL 302200Z AUTO 17006KT 10SM OVC028 09/06 A2945 RMK AO2 PNO $
KTEB 302205Z 18006KT 10SM BKN027 OVC040 11/08 A2945 RMK AO2
KNEL 302210Z AUTO 18005KT 10SM OVC032 09/06 A2945 RMK AO2 PNO $
KMMU 302245Z 00000KT 10SM -RA OVC030 09/07 A2947
KMIV 302246Z AUTO VRB03KT 10SM -RA SCT021 BKN028 OVC055 06/04 A2946 RMK AO2 P0000
KTEB 302247Z 20006KT 10SM SCT029 BKN039 OVC060 11/08 A2946 RMK AO2 RAB38E47 P0000
KEWR 302251Z 17010G15KT 7SM FEW010 BKN025 OVC035 11/04 A2946 RMK AO2 SLP 976 T01140041
KTEB 302251Z 20006KT 10SM FEW029 SCT041 OVC047 11/08 A2946 RMK AO2 RAB38E47 SLP975 P0000 T01060083
KMIV 302254Z AUTO VRB05KT 10SM -RA BKN023 BKN028 OVC036 06/04 A2947 RMK AO2 SLP977 P0001 T00610044
KACY 302254Z 20006KT 10SM FEW042 08/03 A2947 RMK AO2 SLP979 T00780033
KWRI 302255Z AUTO 16005KT 10SM BKN042 OVC060 08/04 A2943 RMK AO2 SLP969 T00820044
KNEL 302300Z AUTO 18004KT 10SM OVC032 09/06 A2946 RMK AO2 SLP974 T00890056 PNO $
KMIV 302317Z AUTO VRB04KT 10SM -RA SCT025 OVC043 06/04 A2947 RMK AO2 P0000
KMMU 302345Z 19004KT 10SM OVC020 09/07 A2947
KEWR 302351Z 18009G14KT 7SM SCT015 BKN025 OVC035 11/04 A2947 RMK AO2 SLP980 T01060044 10124 20106 51014
KTEB 302351Z 18006KT 10SM FEW024 BKN043 OVC060 11/07 A2946
KTEB 302351Z 18006KT 10SM FEW024 BKN043 OVC060 11/07 A2946 RMK AO2 SLP975 60001 T01060072 10122 20106 51006
KMIV 302354Z AUTO 18003KT 9SM -RA SCT019 SCT028 OVC037 06/04 A2948 RMK AO2 SLP982 P0001 60004 T00560044 10089 20056 51022
KACY 302354Z 20005KT 10SM OVC037 08/03 A2949 RMK AO2 SLP984 T00780033 10094 20078 51019
KWRI 302355Z AUTO 17004KT 10SM OVC044 08/05 A2945 RMK AO2 SLP974 T00780047 10094 20078 51017
KNEL 310000Z AUTO 18006KT 10SM OVC036 09/05 A2947 RMK AO2 SLP979 6//// T00890050 10094 20089 51012 PNO $
KMIV 310001Z AUTO 00000KT 9SM -RA FEW019 BKN024 OVC041 06/04 A2948 RMK AO2 P0001
KTEB 310002Z 19006KT 10SM BKN026 OVC043 11/07 A2946
KMMU 310045Z 18004KT 7SM OVC020 08/07 A2948
KEWR 310051Z 17010KT 7SM FEW015 BKN025 OVC035 10/04 A2947 RMK AO2 SLP980 T01040044
KTEB 310051Z 20008KT 10SM BKN026 BKN042 OVC050 11/07 A2946 RMK AO2 SLP977 T01060072
KACY 310054Z 21007KT 10SM BKN060 BKN085 07/03 A2950 RMK AO2 SLP988 T00720033
KMIV 310054Z AUTO 00000KT 7SM -RA SCT020 OVC026 06/04 A2949 RMK AO2 SLP986 P0002 T00560044
KWRI 310055Z AUTO 19004KT 10SM BKN036 BKN046 OVC070 07/05 A2946 RMK AO2 SLP977 T00730045
KNEL 310100Z AUTO 20007KT 10SM OVC040 08/04 A2948 RMK AO2 SLP981 T00830044 PNO $
KMMU 310145Z 17005KT 7SM OVC017 08/06 A2948
KTEB 310151Z 20011KT 10SM OVC021 10/07 A2947 RMK AO2 RAB40E50 SLP978 P0000 T01000067
KEWR 310151Z 18012G17KT 7SM FEW015 OVC030 10/04 A2948 RMK AO2 SLP983 T00970042
KMIV 310154Z AUTO 00000KT 10SM -RA SCT017 BKN024 OVC038 06/05 A2949 RMK AO2 SLP986 P0003 T00560050
KACY 310154Z 23007KT 10SM BKN035 OVC044 07/03 A2950 RMK AO2 SLP989 T00720033
KWRI 310155Z AUTO 20005KT 10SM OVC050 07/04 A2947 RMK AO2 SLP980 T00660040
KNEL 310200Z AUTO 22005KT 10SM OVC046 08/04 A2948 RMK AO2 SLP983 T00780044 PNO $
KMIV 310223Z AUTO VRB03KT 10SM -RA FEW020 BKN035 OVC044 06/04 A2950 RMK AO2 P0001
KTEB 310251Z 19010KT 7SM OVC026 09/05 A2948 RMK AO2 SLP981 60000 T00940050 53006
KEWR 310251Z 19009G17KT 9SM FEW015 OVC030 09/03 A2948 RMK AO2 SLP983 T00930030 53003
KMIV 310254Z AUTO 00000KT 10SM -RA SCT024 BKN029 OVC070 06/04 A2949 RMK AO2 SLP986 P0001 60006 T00560044 51005
KACY 310254Z 21008KT 10SM BKN065 07/03 A2951 RMK AO2 SLP992 T00670033 51007
KWRI 310255Z AUTO 20005KT 10SM FEW039 SCT055 BKN160 06/04 A2947 RMK AO2 CIG 037 RWY06 SLP981 T00610038 51007
KNEL 310300Z AUTO 22004KT 10SM SCT041 OVC050 07/04 A2949 RMK AO2 SLP984 6//// T00720044 51008 PNO $
KMIV 310312Z AUTO 00000KT 10SM -RA FEW021 BKN031 OVC042 06/04 A2949 RMK AO2 P0000
KEWR 310351Z 20010G15KT 10SM FEW015 OVC030 09/03 A2948 RMK 802 SLP983 T0090 0033
KTEB 310351Z 18007KT 7SM FEW024 OVC032 09/05 A2947 RMK AO2 SLP980 T00890050
KACY 310354Z 21004KT 10SM FEW040 06/03 A2950 RMK AO2 SLP991 T00610033
KMIV 310354Z AUTO 00000KT 10SM -RA FEW029 OVC060 06/04 A2949 RMK AO2 SLP984 P0000 T00560044
KWRI 310355Z AUTO 20003KT 10SM FEW017 BKN060 06/04 A2947 RMK AO2 SLP982 T00580040
KNEL 310400Z AUTO 22003KT 10SM OVC055 07/04 A2949 RMK AO2 SLP984 T00670044 PNO $
KEWR 310451Z 20010KT 10SM FEW015 OVC030 08/03 A2948 RMK AO2 SLP983 T00820031
KTEB 310451Z 20007KT 7SM OVC036 09/04 A2948 RMK AO2 SLP982 T00890039 401330089
KMIV 310454Z AUTO 00000KT 10SM SCT027 OVC040 06/04 A2949 RMK AO2 RAE02 SLP984 P0000 T00560044 400940056
KACY 310454Z 00000KT 10SM CLR 06/03 A2951 RMK AO2 SLP992 T00560033 401000056
KWRI 310455Z AUTO 16003KT 10SM OVC120 06/04 A2947 RMK AO2 SLP981 T00570042 400990055
KNEL 310500Z AUTO 19004KT 10SM BKN120 07/04 A2949 RMK AO2 SLP984 T00670044 400670067 PNO $
KTEB 310551Z 19005KT 7SM OVC040 08/04 A2947 RMK AO2 RAB28E49 SLP980 P0001 60001 T00830044 10106 20083 58001
KEWR 310551Z 20012KT 10SM FEW015 OVC034 08/03 A2948 RMK A02 SLP983 T00800030 10114 20080 54000
KMIV 310554Z AUTO 00000KT 10SM SCT040 OVC049 06/04 A2949 RMK AO2 SLP985 60006 T00560044 10061 20056 55001
KACY 310554Z 00000KT 10SM BKN060 06/03 A2950 RMK AO2 SLP989 T00610033 10078 20056 58003
KWRI 310555Z AUTO 19004KT 10SM FEW140 05/04 A2947 RMK AO2 SLP982 T00530042 10077 20053 52001
KNEL 310600Z AUTO 21003KT 10SM SCT120 06/04 A2949 RMK AO2 SLP985 6//// T00610039 10089 20061 50001 PNO $
KEWR 310651Z 20006KT 10SM FEW015 OVC035 08/04 A2949 RMK A02 SLP986 T00750039
KTEB 310651Z 20006KT 7SM OVC046 08/04 A2948 RMK AO2 SLP982 T00780039
KMIV 310654Z AUTO 00000KT 10SM SCT046 06/04 A2950 RMK AO2 SLP987 T00560039
KACY 310654Z 19003KT 10SM OVC050 06/04 A2950 RMK AO2 SLP991 T00610039
KWRI 310655Z AUTO 00000KT 10SM CLR 05/04 A2947 RMK AO2 SLP982 T00470038
KNEL 310700Z AUTO 00000KT 10SM BKN060 06/04 A2949 RMK AO2 SLP984 T00560039 PNO $
KEWR 310751Z 20008KT 10SM FEW015 SCT035 BKN120 07/04 A2949 RMK A02 SLP986 T00660054
KTEB 310751Z 22004KT 7SM OVC055 08/04 A2948 RMK AO2 SLP983 T00780039
KACY 310754Z 21003KT 10SM OVC050 06/04 A2951 RMK AO2 SLP992 T00610039
KMIV 310754Z AUTO 00000KT 10SM FEW044 OVC100 05/04 A2950 RMK AO2 SLP990 T00500039
KWRI 310755Z AUTO 00000KT 10SM SCT055 04/03 A2947 RMK AO2 CLDS LWR RWY06 SLP982 T00390032
KNEL 310800Z AUTO 00000KT 10SM OVC050 06/04 A2949 RMK AO2 SLP985 T00560044 PNO $
KEWR 310851Z 20010KT 10SM FEW015 BKN037 OVC120 07/04 A2950 RMK A02 SLP990 T00670037
KTEB 310851Z 00000KT 7SM BKN055 07/04 A2949 RMK AO2 SLP985 T00720039 51005
KACY 310854Z 00000KT 10SM OVC090 06/04 A2952 RMK AO2 SLP997 T00610039 53007
KMIV 310854Z AUTO 00000KT 10SM FEW024 BKN042 OVC085 05/04 A2952 RMK AO2 SLP994 T00500039 53008
KWRI 310855Z AUTO 00000KT 10SM BKN100 04/03 A2948 RMK AO2 SLP986 T00410034 53004
KNEL 310900Z AUTO 00000KT 10SM OVC050 06/04 A2950 RMK AO2 SLP989 6//// T00610044 52001 PNO $
KEWR 310951Z 20006KT 10SM FEW015 BKN037 OVC120 07/04 A2951 RMK AO2 SLP993 T00670037
KTEB 310951Z 19005KT 7SM OVC050 07/04 A2951 RMK AO2 SLP991 T00720039
KMIV 310954Z AUTO 00000KT 10SM FEW036 04/03 A2953 RMK AO2 SLP999 T00440033
KACY 310954Z 00000KT 10SM OVC080 06/04 A2954 RMK AO2 SLP002 T00610039
KWRI 310955Z AUTO 18003KT 10SM OVC095 05/04 A2950 RMK AO2 SLP990 T00500040
KNEL 311000Z AUTO 20003KT 10SM OVC050 06/04 A2951 RMK AO2 SLP993 T00610044 PNO $
KMMU 311045Z 00000KT 10SM OVC050
KEWR 311051Z 20005KT 10SM FEW015 BKN040 OVC120 07/04 A2951 RMK A02 SLP993 T00680042
KTEB 311051Z 22003KT 7SM OVC050 07/04 A2950 RMK AO2 SLP991 T00720039
KACY 311054Z 22003KT 10SM CLR 05/03 A2955 RMK AO2 SLP006 T00500028
KMIV 311054Z AUTO 00000KT 10SM FEW019 SCT100 04/03 A2954 RMK AO2 SLP004 T00440033
KWRI 311055Z AUTO 20004KT 10SM OVC090 05/04 A2951 RMK AO2 SLP995 T00490040
KNEL 311100Z AUTO 23004KT 10SM OVC090 06/04 A2953 RMK AO2 SLP997 T00610044 PNO $
KMMU 311145Z 00000KT 10SM FEW020 BKN050
KEWR 311151Z 21006KT 10SM FEW015 BKN040 BKN120 BKN250 06/04 A2954 RMK AO2 SLP001 70032 T00610039 10080 20056 T00610039 $
KTEB 311151Z 22005KT 10SM OVC055 07/04 A2952 RMK AO2 SLP996 70013 T00720039 10083 20072 51011
KSMQ 311153Z AUTO A2951 RMK AO2 SLPNO 6//// 7//// PWINO FZRANO TSNO $
KMIV 311154Z AUTO 00000KT 10SM CLR 04/03 A2956 RMK AO2 SLP008 70011 T00440033 10061 20039 52014
KACY 311154Z 23003KT 10SM SCT035 06/03 A2956 RMK AO2 SLP011 70020 T00560033 10061 20050 51014
KWRI 311155Z AUTO 22005KT 10SM BKN085 OVC190 05/04 A2952 RMK AO2 SLP000 70005 T00500043 10053 20039 53014
KNEL 311200Z AUTO 20004KT 10SM OVC085 06/04 A2954 RMK AO2 SLP003 6//// 7//// T00610044 10061 20056 53012 PNO $
KMMU 311250Z 19005KT 10SM BKN020 OVC050
KTEB 311251Z 20007KT 10SM CLR 08/04 A2953 RMK AO2 SLP000 T00780039
KEWR 311251Z 21006KT 10SM FEW015 BKN040 BKN120 BKN250 06/04 A2954 RMK A02 SLP001 70032 T00610039 10080 20056 53024
KSMQ 311253Z AUTO A2953 RMK AO2 SLPNO PWINO FZRANO TSNO $
KACY 311254Z AUTO 22003KT 10SM CLR 07/03 A2958 RMK AO2 SLP016 T00670033 TSNO
KMIV 311254Z AUTO 00000KT 10SM FEW050 06/04 A2957 RMK AO2 SLP014 T00610039
KWRI 311255Z AUTO 21006KT 10SM OVC031 06/05 A2953 RMK AO2 SLP003 T00610046
KNEL 311300Z AUTO 24007KT 10SM SCT034 BKN085 07/04 A2955 RMK AO2 SLP005 T00720044 PNO $
KEWR 311311Z 20009KT 10SM SCT020 SCT045 BKN090 BKN250 08/04 A2954 RMK AO2 $
KEWR 311314Z 20009KT 10SM SCT020 BKN090 BKN250 08/04 A2954
KEWR 311339Z 20009KT 10SM BKN015 BKN090 BKN250 08/04 A2954 RMK AO2 $
KMMU 311345Z 23007KT 10SM OVC013
KEWR 311347Z 24008KT 10SM BKN015 BKN035 BKN085 BKN250 08/04 A2955 RMK AO2 $
KTEB 311351Z 21008KT 10SM FEW024 SCT030 BKN090 08/04 A2953 RMK AO2 SLP001 T00830039
KEWR 311351Z 23005KT 10SM BKN015 BKN035 BKN085 BKN250 08/04 A2955 RMK AO2 SLP005 T00780039 $
KSMQ 311353Z AUTO A2953 RMK AO2 SLPNO PWINO FZRANO TSNO $
KACY 311354Z AUTO 24005KT 10SM CLR 08/03 A2958 RMK AO2 SLP018 T00830033 TSNO
KMIV 311354Z AUTO 24007KT 10SM FEW030 BKN049 08/03 A2958 RMK AO2 SLP016 T00830033
KWRI 311355Z AUTO 25010KT 10SM FEW015 SCT210 07/04 A2954 RMK AO2 SLP006 T00710041
KWWD 311355Z AUTO 24010G14KT 10SM FEW049 BKN120 09/03 A2956 RMK AO1 WSHFT 27
KNEL 311400Z AUTO 25011G16KT 10SM FEW020 SCT033 08/03 A2956 RMK AO2 SLP007 T00830033 PNO $
KWWD 311415Z AUTO 23008KT 10SM BKN120 09/02 A2956 RMK AO1
KWWD 311435Z AUTO 23011G14KT 10SM SCT120 10/03 A2956 RMK AO1
KMMU 311445Z 23007KT 10SM BKN012
KEWR 311451Z 22008KT 10SM BKN018 BKN026 08/04 A2955 RMK AO2 SLP006 T00780039 51005 $
KTEB 311451Z 23006KT 10SM FEW023 OVC031 08/04 A2954 RMK AO2 SLP002 T00830039 51006
KSMQ 311453Z AUTO A2953 RMK AO2 SLPNO 6//// 51007 PWINO FZRANO TSNO $
KMIV 311454Z AUTO VRB05KT 10SM OVC049 09/03 A2959 RMK AO2 SLP017 T00890033 51009
KACY 311454Z AUTO 24006KT 10SM FEW044 BKN100 09/02 A2959 RMK AO2 SLP019 T00940017 51009 TSNO
KWRI 311455Z AUTO 28009KT 10SM FEW023 OVC041 09/03 A2954 RMK AO2 SLP006 T00900034 51006
KWWD 311455Z AUTO 22008G14KT 10SM FEW055 10/02 RMK AO1
KNEL 311500Z AUTO 28010KT 10SM FEW024 09/03 A2955 RMK AO2 SLP007 6//// T00940033 51010 PNO $
KWWD 311515Z AUTO 22012G15KT 10SM FEW110 11/03 A2956 RMK AO1
KTEB 311515Z 23010KT 10SM SCT023 BKN029 OVC034 08/04 A2953 RMK AO2
KWWD 311535Z AUTO 25010G15KT 10SM SCT050 11/03 RMK AO1
KMMU 311545Z 26007KT 10SM BKN017
KEWR 311548Z 23012KT 10SM SCT021 BKN035 BKN080 BKN250 10/04 A2955 RMK AO2 $
KEWR 311551Z 22014KT 10SM SCT021 BKN035 BKN080 BKN250 09/04 A2955
KEWR 311551Z 22014KT 10SM SCT021 BKN035 BKN080 BKN250 09/04 A2955 RMK AO2 SLP004 T00940039 $
KTEB 311551Z 21009KT 10SM BKN024 OVC033 08/03 A2954 RMK AO2 SLP001 T00830033
KSMQ 311553Z AUTO A2953 RMK AO2 SLPNO PWINO FZRANO TSNO $
KMIV 311554Z AUTO 22005KT 10SM OVC049 10/02 A2958 RMK AO2 SLP015 T01000022
KACY 311554Z AUTO 27009KT 10SM OVC035 10/02 A2958 RMK AO2 SLP016 T01000022 TSNO
KWRI 311555Z AUTO 24013KT 10SM BKN030 OVC049 10/03 A2954 RMK AO2 SLP005 T01020030
KWWD 311555Z AUTO 25009KT 200V270 10SM FEW050 11/03 RMK AO1
KNEL 311600Z AUTO 24008KT 10SM BKN036 10/02 A2956 RMK AO2 SLP007 T01000022 PNO $
KEWR 311600Z 23013KT 10SM BKN023 BKN035 BKN250 10/03 A2954 RMK AO2 BKN023 V SCT $
KTEB 311611Z 21008KT 10SM SCT026 OVC035 09/03 A2953 RMK AO2
KWWD 311615Z AUTO 26008KT 10SM FEW050 SCT120 11/03 RMK AO1
KTEB 311634Z 20011KT 10SM BKN028 OVC037 09/03 A2953 RMK AO2
KWWD 311635Z AUTO 25009KT 10SM OVC120 11/03 RMK AO1
KEWR 311647Z 26012KT 10SM FEW025 BKN030 BKN065 BKN250 10/02 A2954 RMK AO2 $
KEWR 311651Z 25012KT 10SM FEW025 BKN030 BKN065 BKN250 10/02 A2954 RMK AO2 SLP004 T01000022 $
KTEB 311651Z 24007KT 10SM OVC028 09/02 A2954
KTEB 311651Z 24007KT 10SM OVC028 09/02 A2954 RMK AO2 SLP001 T00890022
KSMQ 311653Z AUTO A2953 RMK AO2 SLPNO PWINO FZRANO TSNO $
KMIV 311654Z AUTO 28012G20KT 10SM SCT035 OVC110 10/02 A2956 RMK AO2 SLP010 P0001 T01000022
KACY 311654Z AUTO 25008KT 10SM FEW039 BKN120 11/01 A2956 RMK AO2 SLP010 T01110011 TSNO
KWWD 311655Z AUTO 22009KT 10SM SCT120 11/03 A2954 RMK AO1
KWRI 311655Z AUTO 26011KT 10SM OVC034 10/02 A2953 RMK AO2 SLP001 T00970022
KTEB 311658Z 22010KT 10SM OVC030 09/03 A2953 RMK AO2
KWWD 311715Z AUTO 23009KT 10SM BKN110 12/03 A2954 RMK AO1
KWWD 311735Z AUTO 26007KT 220V280 10SM BKN100 11/03 RMK AO1
KMMU 311745Z 23010KT 10SM BKN030 RMK WIND ESTIMATED
KEWR 311751Z 24009KT 10SM FEW025 OVC033 10/02 A2954 RMK AO2 SLP003 T01000022 10106 20061 58003 $
KTEB 311751Z 21010KT 10SM OVC034 10/03 A2953 RMK AO2 SLP000 T01000028 10100 20072 58002
KSMQ 311753Z AUTO A2953 RMK AO2 SLPNO 6//// 54000 PWINO FZRANO TSNO $
KMIV 311754Z AUTO 25007KT 10SM FEW036 OVC120 11/03 A2956 RMK AO2 SLP010 60001 T01110028 10111 20044 56007
KACY 311754Z AUTO 22008KT 10SM BKN045 BKN110 12/01 A2956 RMK AO2 SLP008 T01170011 10128 20056 56011 TSNO
KWWD 311755Z AUTO 25006KT 10SM FEW042 BKN090 11/02 A2953 RMK AO1
KWRI 311755Z AUTO 26008KT 10SM OVC036 10/02 A2952 RMK AO2 SLP998 T00990025 10106 20051 58008
KNEL 311800Z AUTO 25006KT 10SM SCT036 OVC100 11/03 A2953 RMK AO2 SLP000 6//// T01060033 10111 20061 58004 PNO $
KWWD 311815Z AUTO 26006KT 10SM FEW041 OVC090 11/02 A2953 RMK AO1
KWWD 311835Z AUTO 24006KT 10SM BKN039 OVC090 11/03 A2953 RMK AO1
KEWR 311851Z 25011KT 10SM FEW032 OVC037 10/03 A2953 RMK AO2 SLP000 T01000028 $
KTEB 311851Z 27009KT 10SM OVC036 10/02 A2952 RMK AO2 SLP997 T01000022
KSMQ 311853Z AUTO A2952 RMK AO2 SLPNO PWINO FZRANO TSNO $
KACY 311854Z AUTO 26008KT 10SM OVC100 11/02 A2956 RMK AO2 SLP008 T01060017 TSNO
KACY 311854Z AUTO 26008KT 10SM OVC100 11/02 A2956 RMK AO2 SLP008 T01060017 TSNO
KACY 311854Z AUTO 26008KT 10SM OVC100 11/02 A2956 RMK AO2 SLP008 T01060017 TSNO
KMIV 311854Z AUTO 26010KT 10SM SCT038 OVC090 11/03 A2956 RMK AO2 SLP008 T01060028
KACY 311854Z AUTO 26008KT 10SM OVC100 11/02 A2956 RMK AO2 SLP008 T01060017 TSNO
KACY 311854Z AUTO 26008KT 10SM OVC100 11/02 A2956 RMK AO2 SLP008 T01060017 TSNO
KWRI 311855Z AUTO 25009KT 10SM OVC032 10/03 A2952 RMK AO2 SLP000 T01020034
KWWD 311855Z AUTO 25006KT 10SM BKN039 OVC095 11/03 A2953 RMK AO1
KNEL 311900Z AUTO 25007KT 10SM OVC038 11/03 A2954 RMK AO2 SLP000 T01060033 PNO $
KNEL 311900Z AUTO 25007KT 10SM OVC038 11/03 A2954 RMK AO2 SLP000 T01060033 PNO $
KNEL 311900Z AUTO 25007KT 10SM OVC038 11/03 A2954 RMK AO2 SLP000 T01060033 PNO $
KNEL 311900Z AUTO 25007KT 10SM OVC038 11/03 A2954 RMK AO2 SLP000 T01060033 PNO $
KNEL 311900Z AUTO 25007KT 10SM OVC038 11/03 A2954 RMK AO2 SLP000 T01060033 PNO $
KWWD 311915Z AUTO 28010G14KT 10SM FEW039 BKN080 BKN095 12/03 A2953 RMK AO1
KWWD 311935Z AUTO 28007KT 10SM OVC080 11/03 A2954 RMK AO1
KEWR 311951Z 23010KT 10SM BKN032 OVC037 10/03 A2954 RMK AO2 SLP001 T01000033 $
KTEB 311951Z 23009KT 10SM OVC036 10/03 A2953 RMK AO2 SLP000 T01000028
KSMQ 311953Z AUTO A2952 RMK AO2 SLPNO PWINO FZRANO TSNO $
KMIV 311954Z AUTO 27003KT 10SM SCT042 OVC080 11/03 A2957 RMK AO2 SLP010 T01060028
KACY 311954Z AUTO 24005KT 10SM OVC080 11/02 A2957 RMK AO2 SLP012 T01060017 TSNO
KWRI 311955Z AUTO 29007KT 10SM OVC035 10/03 A2953 RMK AO2 SLP003 T00990033
KWWD 311955Z AUTO 25006KT 10SM OVC080 11/02 A2954 RMK AO1
KNEL 312000Z AUTO 26006KT 10SM OVC038 11/03 A2954 RMK AO2 SLP003 T01060033 PNO $
KWWD 312015Z AUTO 27006KT 10SM OVC080 11/02 A2954 RMK AO1
KWWD 312035Z AUTO 25006KT 10SM OVC080 11/02 A2955 RMK AO1
KEWR 312051Z 22008KT 10SM OVC032 09/03 A2955 RMK AO2 SLP006 T00940033 53003 $
KTEB 312051Z 23009KT 10SM OVC034 09/03 A2954 RMK AO2 SLP001 T00940028 53001
KSMQ 312053Z AUTO A2954 RMK AO2 SLPNO 6//// 53003 PWINO FZRANO TSNO $
KACY 312054Z AUTO 25003KT 10SM OVC040 10/02 A2958 RMK AO2 SLP017 T01000022 53009 TSNO
KMIV 312054Z AUTO 27007KT 10SM BKN046 OVC070 11/02 A2958 RMK AO2 SLP015 T01060022 53005
KWRI 312055Z AUTO 29005KT 10SM OVC037 09/03 A2955 RMK AO2 SLP008 T00920026 53010
KWWD 312055Z AUTO 26005KT 10SM OVC070 11/02 A2955 RMK AO1 52007
KNEL 312100Z AUTO 27008KT 10SM SCT038 10/03 A2956 RMK AO2 SLP008 6//// T01000028 55001 PNO $
KWWD 312115Z AUTO 26005KT 10SM OVC070 11/03 A2955 RMK AO1
KWWD 312135Z AUTO 27006KT 10SM OVC070 11/03 A2956 RMK AO1
KTEB 312151Z 21009KT 10SM OVC038 09/03 A2955 RMK AO2 SLP007 T00940033
KEWR 312151Z 23009KT 10SM BKN030 OVC040 09/03 A2956 RMK AO2 SLP011 T00940033 $
KSMQ 312153Z AUTO A2956 RMK AO2 SLPNO PWINO FZRANO TSNO $
KMIV 312154Z AUTO 25003KT 10SM BKN070 10/03 A2959 RMK AO2 SLP019 T01000033
KACY 312154Z AUTO 25003KT 10SM OVC044 10/03 A2960 RMK AO2 SLP022 T01000028 TSNO
KWRI 312155Z AUTO 29004KT 10SM OVC038 09/03 A2956 RMK AO2 SLP011 T00870030
KWWD 312155Z AUTO 28005KT 10SM BKN070 OVC090 11/03 A2956 RMK AO1
KNEL 312200Z AUTO 00000KT 10SM SCT040 OVC080 09/03 A2958 RMK AO2 SLP015 T00890033 PNO $
KWWD 312215Z AUTO 28004KT 10SM FEW045 SCT070 OVC090 11/03 A2957 RMK AO1
KWWD 312235Z AUTO 27004KT 10SM FEW045 FEW060 OVC090 11/03 A2958 RMK AO1
KMMU 312245Z 23005KT 10SM OVC030
KTEB 312251Z 22008KT 10SM OVC039 09/03 A2957 RMK AO2 SLP012 T00940033
KEWR 312251Z 24010G16KT 10SM FEW030 BKN040 BKN075 09/03 A2958 RMK AO2 SLP016 T00890033 $
KACY 312254Z AUTO 00000KT 10SM FEW070 OVC100 09/04 A2961 RMK AO2 SLP028 T00890039 TSNO
KMIV 312254Z AUTO 00000KT 10SM OVC075 08/04 A2961 RMK AO2 SLP025 T00780044
KWWD 312255Z AUTO 26005KT 10SM OVC100 11/02 A2958 RMK AO1
KWRI 312255Z AUTO 26003KT 10SM OVC035 08/04 A2958 RMK AO2 SLP019 T00820036
KNEL 312300Z AUTO 00000KT 10SM BKN037 OVC044 08/04 A2960 RMK AO2 SLP022 T00830039 PNO $
KWWD 312315Z AUTO 25005KT 10SM BKN100 11/02 A2958 RMK AO1
KWWD 312335Z AUTO 26005KT 10SM BKN110 11/03 A2959 RMK AO1
KMMU 312345Z 25005KT 10SM OVC030
KEWR 312351Z 25007KT 10SM OVC031 09/03 A2959 RMK AO2 SLP020 T00890028 10106 20083 51015 $
KTEB 312351Z 23009KT 10SM BKN043 OVC070 09/03 A2958 RMK AO2 SLP016 T00890028 10100 20089 51014
KACY 312354Z AUTO 00000KT 10SM SCT049 BKN100 09/04 A2962 RMK AO2 SLP030 T00890039 10122 20089 51013 TSNO
KMIV 312354Z AUTO 00000KT 10SM OVC050 07/05 A2962 RMK AO2 SLP028 T00670050 10111 20067 51013
KWWD 312355Z AUTO 24007KT 10SM BKN100 11/03 A2959 RMK AO1 10120 20110 52014
KWRI 312355Z AUTO 00000KT 10SM CLR 06/03 A2959 RMK AO2 SLP021 T00630032 10106 20063 51013
KNEL 010000Z AUTO 00000KT 10SM SCT047 07/04 A2960 RMK AO2 SLP023 6//// T00670039 10111 20067 53019 PNO $
KWWD 010015Z AUTO 24005KT 10SM FEW100 11/03 A2959 RMK AO1
KWWD 010035Z AUTO 24005KT 10SM FEW050 11/03 A2960 RMK AO1
KMMU 010045Z 23007KT 10SM OVC030
KTEB 010051Z 22006KT 10SM OVC037 08/03 A2958 RMK AO2 SLP017 T00830028
KEWR 010051Z 23007KT 10SM FEW030 BKN040 BKN075 08/03 A2959 RMK AO2 SLP021 T00830028 $
KACY 010054Z AUTO 00000KT 10SM OVC049 08/04 A2963 RMK AO2 SLP033 T00830039 TSNO
KMIV 010054Z AUTO 00000KT 10SM OVC046 07/05 A2962 RMK AO2 SLP031 T00670050
KWWD 010055Z AUTO 25006KT 10SM CLR 11/03 A2960 RMK AO1
KWRI 010055Z AUTO 00000KT 10SM OVC048 06/04 A2959 RMK AO2 SLP023 T00590043
KNEL 010100Z AUTO 00000KT 10SM BKN048 05/04 A2961 RMK AO2 SLP024 T00500039 PNO $
KWWD 010115Z AUTO 25008KT 10SM CLR 10/03 A2960 RMK AO1
KWWD 010135Z AUTO 25007KT 10SM CLR 10/03 A2961 RMK AO1
KMMU 010145Z 23005KT 10SM BKN150
KEWR 010151Z 23008KT 10SM FEW035 SCT075 07/03 A2960 RMK AO2 SLP022 T00720033 $
KTEB 010151Z 22007KT 10SM FEW039 08/03 A2959 RMK AO2 SLP018 T00780028
KMIV 010154Z AUTO 00000KT 10SM BKN040 OVC050 08/04 A2963 RMK AO2 SLP032 T00780044
KACY 010154Z 00000KT 10SM OVC047 08/04 A2963 RMK AO2 SLP034 T00830039
KWRI 010155Z AUTO 00000KT 10SM FEW060 BKN090 06/03 A2959 RMK AO2 SLP024 T00600034
KWWD 010155Z AUTO 26006KT 10SM SCT050 10/03 A2961 RMK AO1
KNEL 010200Z AUTO 00000KT 10SM CLR 04/03 A2961 RMK AO2 SLP025 T00440033 PNO $
KWWD 010215Z AUTO 25008KT 10SM OVC050 10/04 A2961 RMK AO1
KWWD 010235Z AUTO 26007KT 10SM OVC050 11/03 A2961 RMK AO1
KTEB 010251Z 19004KT 10SM BKN040 07/03 A2958 RMK AO2 SLP018 T00720028 50002
KEWR 010251Z 21005KT 10SM FEW035 SCT075 06/03 A2959 RMK AO2 SLP021 T00610028 50001 $
KMIV 010254Z AUTO 00000KT 10SM BKN042 OVC050 07/05 A2963 RMK AO2 SLP033 T00720050 51006
KACY 010254Z 23004KT 10SM OVC041 08/03 A2963 RMK AO2 SLP034 T00830033 51005
KWWD 010255Z AUTO 26007KT 10SM OVC050 11/04 A2961 RMK AO1 52007
KMMU 010255Z AUTO RMK AO2 PWINO PNO TSNO
KWRI 010255Z AUTO 00000KT 10SM CLR 05/03 A2960 RMK AO2 SLP025 T00500029 51003
KNEL 010300Z AUTO 24003KT 10SM BKN048 04/03 A2961 RMK AO2 SLP026 6//// T00440033 51004 PNO $
KMMU 010315Z AUTO RMK AO2 PWINO PNO TSNO
KWWD 010315Z AUTO 25007KT 10SM OVC050 11/04 A2961 RMK AO1
KMMU 010335Z AUTO RMK AO2 PWINO TSNO
KWWD 010335Z AUTO 25008KT 10SM OVC050 11/04 A2960 RMK AO1
KEWR 010351Z 21007KT 10SM FEW035 SCT080 06/03 A2959 RMK AO2 SLP021 T00610028 $
KTEB 010351Z 20004KT 10SM BKN038 07/03 A2958 RMK AO2 SLP017 T00670028
KMIV 010354Z AUTO 00000KT 10SM CLR 06/04 A2963 RMK AO2 SLP031 T00560044
KACY 010354Z 25003KT 10SM OVC048 08/04 A2963 RMK AO2 SLP034 T00830039
KMMU 010355Z AUTO RMK AO2 PWINO PNO TSNO
KWRI 010355Z AUTO 00000KT 10SM BKN130 04/03 A2959 RMK AO2 SLP022 T00410026
KWWD 010355Z AUTO 25007KT 10SM OVC050 11/04 A2960 RMK AO1
KNEL 010400Z AUTO 00000KT 10SM CLR 03/02 A2961 RMK AO2 SLP025 T00330022 PNO $
KMMU 010415Z AUTO RMK AO2 PWINO PNO TSNO
KWWD 010415Z AUTO 25008KT 10SM OVC048 11/04 A2960 RMK AO1
KWWD 010435Z AUTO 26009KT 230V290 10SM OVC046 11/04 A2961 RMK AO1
KMMU 010435Z AUTO RMK AO2 PWINO PNO TSNO
KTEB 010451Z 20004KT 10SM CLR 06/03 A2958 RMK AO2 SLP017 T00610033 401000056
KEWR 010451Z 21006KT 10SM FEW035 BKN090 07/03 A2959 RMK AO2 SLP020 T00670033 401780056 $
KACY 010454Z 25004KT 10SM SCT046 08/03 A2963 RMK AO2 SLP034 T00780033 401280050
KMIV 010454Z AUTO 00000KT 10SM CLR 04/03 A2963 RMK AO2 SLP033 T00440033 401110039
KMMU 010455Z AUTO RMK AO2 PWINO PNO TSNO
KWRI 010455Z AUTO 00000KT 10SM CLR 04/02 A2959 RMK AO2 SLP021 T00420023 401060039
KWWD 010455Z AUTO 28007KT 10SM OVC044 11/04 A2960 RMK AO1
KNEL 010500Z AUTO 00000KT 10SM CLR 03/02 A2960 RMK AO2 SLP023 T00280022 400280028 PNO $
KWWD 010515Z AUTO 28009KT 10SM OVC046 10/04 A2961 RMK AO1
KMMU 010515Z AUTO RMK AO2 PWINO PNO TSNO
KMMU 010535Z AUTO RMK AO2 PWINO PNO TSNO
KWWD 010535Z AUTO 29008G14KT 10SM BKN050 10/03 A2961 RMK AO1
KEWR 010551Z 21007KT 10SM CLR 06/03 A2958 RMK AO2 SLP016 T00610028 10089 20056 58005 $
KTEB 010551Z 19004KT 10SM CLR 06/03 A2957 RMK AO2 SLP012 T00610028 10089 20056 58005
KMIV 010554Z AUTO 00000KT 10SM CLR 03/02 A2963 RMK AO2 SLP033 T00330022 10078 20033 55000
KACY 010554Z 26005KT 10SM CLR 07/03 A2963 RMK AO2 SLP033 T00720028 10089 20067 58001
KMMU 010555Z AUTO RMK AO2 PWINO PNO TSNO
KWWD 010555Z AUTO 28009KT 10SM FEW029 09/02 A2961 RMK AO1 10110 20090 54000
KWRI 010555Z AUTO 23003KT 10SM CLR 04/02 A2959 RMK AO2 SLP021 T00400022 10063 20038 56003
KNEL 010600Z AUTO 00000KT 10SM CLR 03/02 A2960 RMK AO2 SLP023 6//// T00280017 10067 20028 58003 PNO $
KWWD 010615Z AUTO 29008KT 10SM CLR 09/02 A2962 RMK AO1
KMMU 010615Z AUTO RMK AO2 PWINO TSNO
KMMU 010635Z AUTO RMK AO2 PWINO PNO TSNO
KWWD 010635Z AUTO 28007KT 10SM FEW033 09/02 A2962 RMK AO1
KTEB 010651Z 19004KT 10SM CLR 06/03 A2957 RMK AO2 SLP012 T00560028
KEWR 010651Z 21006KT 10SM BKN130 06/03 A2958 RMK AO2 SLP017 T00610028 $
KACY 010654Z 24004KT 10SM CLR 07/02 A2964 RMK AO2 SLP035 T00670022
KMIV 010654Z AUTO 00000KT 10SM CLR 03/02 A2964 RMK AO2 SLP034 T00330022
KWRI 010655Z AUTO 24004KT 10SM CLR 04/02 A2959 RMK AO2 SLP022 T00390021
KWWD 010655Z AUTO 27007KT 10SM CLR 09/02 A2962 RMK AO1
KMMU 010655Z AUTO RMK AO2 PWINO PNO TSNO
KNEL 010700Z AUTO 00000KT 10SM CLR 03/02 A2961 RMK AO2 SLP024 T00280017 PNO $
KWWD 010715Z AUTO 28009KT 10SM CLR 09/02 A2962 RMK AO1
KMMU 010715Z AUTO RMK AO2 PWINO PNO TSNO
KWWD 010735Z AUTO 28009G16KT 10SM CLR 09/02 A2962 RMK AO1
KMMU 010735Z AUTO RMK AO2 PWINO PNO TSNO
KTEB 010751Z 20004KT 10SM CLR 06/03 A2956 RMK AO2 SLP011 T00560028
KEWR 010751Z 20006KT 10SM BKN130 06/03 A2958 RMK AO2 SLP014 T00560028 $
KACY 010754Z 22004KT 10SM CLR 06/02 A2964 RMK AO2 SLP035 T00610022
KMIV 010754Z AUTO 00000KT 10SM CLR 01/01 A2963 RMK AO2 SLP035 T00110006
KWRI 010755Z AUTO 25006KT 10SM CLR 04/02 A2959 RMK AO2 SLP021 T00380019
KMMU 010755Z AUTO RMK AO2 PWINO PNO TSNO
KWWD 010755Z AUTO 27009KT 10SM CLR 09/02 A2962 RMK AO1
KNEL 010800Z AUTO 00000KT 10SM CLR 02/02 A2961 RMK AO2 SLP024 T00220017 PNO $
KMMU 010815Z AUTO RMK AO2 PWINO PNO TSNO
KWWD 010815Z AUTO 26007KT 10SM CLR 09/02 A2962 RMK AO1
KMMU 010835Z AUTO RMK AO2 PWINO PNO TSNO
KWWD 010835Z AUTO 27007KT 10SM CLR 08/02 A2962 RMK AO1
KTEB 010851Z 20006KT 10SM CLR 06/02 A2957 RMK AO2 SLP012 T00560022 55000
KEWR 010851Z 21007KT 10SM SCT130 BKN250 05/02 A2958 RMK AO2 SLP016 T00500022 55001 $
KMIV 010854Z AUTO 00000KT 10SM CLR 02/01 A2964 RMK AO2 SLP036 T00170011 51002
KACY 010854Z 26005KT 10SM CLR 05/02 A2964 RMK AO2 SLP036 T00500017 51003
KWWD 010855Z AUTO 28010G16KT 10SM CLR 08/02 A2962 RMK AO1 52003
KWRI 010855Z AUTO 24004KT 10SM CLR 03/01 A2959 RMK AO2 SLP023 T00300014 53002
KMMU 010855Z AUTO RMK AO2 PWINO TSNO
KNEL 010900Z AUTO 23004KT 10SM CLR 02/01 A2961 RMK AO2 SLP025 6//// T00220011 50001 PNO $
KWWD 010915Z AUTO 28011G18KT 10SM CLR 09/01 A2962 RMK AO1
KMMU 010915Z AUTO RMK AO2 PWINO PNO TSNO
KMMU 010935Z AUTO RMK AO2 PWINO PNO TSNO
KWWD 010935Z AUTO 29011KT 10SM CLR 09/01 A2962 RMK AO1
KTEB 010951Z 20006KT 10SM CLR 05/02 A2957 RMK AO2 SLP014 T00500022
KEWR 010951Z 23007KT 10SM FEW130 SCT250 05/02 A2958 RMK AO2 SLP017 T00500022 $
KMIV 010954Z AUTO 00000KT 10SM CLR 02/01 A2963 RMK AO2 SLP034 T00170011
KACY 010954Z 25005KT 10SM CLR 05/02 A2964 RMK AO2 SLP037 T00500017
KWWD 010955Z AUTO 27009G14KT 10SM CLR 09/01 A2962 RMK AO1
KWRI 010955Z AUTO 24006KT 10SM CLR 03/01 A2959 RMK AO2 SLP024 T00330015
KMMU 010955Z AUTO RMK AO2 PWINO PNO TSNO
KNEL 011000Z AUTO 25005KT 10SM CLR 03/02 A2961 RMK AO2 SLP025 T00280017 PNO $
KMMU 011015Z AUTO RMK AO2 PWINO PNO TSNO
KWWD 011015Z AUTO 28008KT 10SM CLR 08/01 A2962 RMK AO1
KWWD 011035Z AUTO 28013G17KT 10SM CLR 08/01 A2963 RMK AO1
KMMU 011035Z AUTO RMK AO2 PWINO TSNO
KTEB 011051Z 20005KT 10SM FEW070 04/02 A2957 RMK AO2 SLP012 T00440022
KEWR 011051Z 22007KT 10SM FEW130 SCT250 05/02 A2958 RMK AO2 SLP017 T00500022 $
KACY 011054Z AUTO 22003KT 10SM CLR 04/02 A2964 RMK AO2 SLP038 T00440017 TSNO
KMIV 011054Z AUTO 00000KT 10SM CLR 01/01 A2964 RMK AO2 SLP035 T00110006
KWWD 011055Z AUTO 27008G14KT 10SM CLR 08/01 A2963 RMK AO1
KWRI 011055Z AUTO 26003KT 10SM SCT085 04/02 A2959 RMK AO2 SLP022 T00430020
KNEL 011100Z AUTO 25004KT 10SM CLR 03/02 A2961 RMK AO2 SLP024 T00330017 PNO $
KWWD 011115Z AUTO 27008KT 10SM CLR 08/01 A2963 RMK AO1
KWWD 011135Z AUTO 27007KT 10SM CLR 08/01 A2964 RMK AO1
KMMU 011145Z 00000KT 10SM BKN120
KTEB 011151Z 20006KT 10SM SCT060 05/03 A2958 RMK AO2 SLP016 T00500028 10061 20044 53004
KEWR 011151Z 22007KT 10SM SCT180 SCT260 06/02 A2959 RMK AO2 SLP021 T00560022 10061 20050 53005 $
KACY 011154Z AUTO 22004KT 10SM CLR 04/02 A2966 RMK AO2 SLP043 T00390017 10072 20033 53006 TSNO
KMIV 011154Z AUTO 00000KT 10SM BKN090 03/02 A2965 RMK AO2 SLP041 70001 T00280017 10039 20011 53005
KWRI 011155Z AUTO 24004KT 10SM OVC090 05/03 A2960 RMK AO2 SLP026 T00480026 10048 20029 53002
KWWD 011155Z AUTO 27011G15KT 10SM CLR 09/01 A2964 RMK AO1 10090 20080 52007
KNEL 011200Z AUTO 00000KT 10SM BKN090 03/02 A2962 RMK AO2 SLP029 6//// 7//// T00330022 10039 20017 50001 PNO $
KWWD 011215Z AUTO 27009G16KT 10SM CLR 09/01 A2964 RMK AO1
KWWD 011235Z AUTO 26009KT 10SM BKN095 09/01 A2965 RMK AO1
KMMU 011245Z 00000KT 10SM BKN120
KTEB 011251Z 19007KT 10SM CLR 07/03 A2958 RMK AO2 SLP017 T00720033
KEWR 011251Z 22008KT 10SM FEW090 BKN180 BKN260 08/03 A2960 RMK AO2 SLP022 T00780033 $
KSMQ 011253Z AUTO A2959 RMK AO2 SLPNO PWINO FZRANO TSNO $
KMIV 011254Z AUTO 23003KT 10SM CLR 07/03 A2967 RMK AO2 SLP045 T00670033
KACY 011254Z 25006KT 10SM FEW090 07/02 A2967 RMK AO2 SLP047 T00720022
KWWD 011255Z AUTO 27010G16KT 10SM SCT095 09/02 A2965 RMK AO1
KWRI 011255Z AUTO 24008KT 10SM SCT090 SCT190 07/04 A2961 RMK AO2 SLP030 T00690035
KNEL 011300Z AUTO 24006KT 10SM BKN090 07/04 A2963 RMK AO2 SLP031 T00720039 PNO $
KWWD 011315Z AUTO 27010KT 10SM CLR 10/02 A2965 RMK AO1
KWWD 011335Z AUTO 25010G16KT 10SM CLR 10/02 A2965 RMK AO1
KMMU 011345Z 00000KT 15SM BKN200
KTEB 011351Z 25006G14KT 10SM CLR 10/04 A2959 RMK AO2 SLP020 T01000039
KEWR 011351Z 24006KT 10SM FEW030 SCT090 BKN160 BKN260 09/03 A2960 RMK AO2 SLP024 T00940033 $
KMIV 011354Z AUTO 26011G16KT 10SM OVC060 09/03 A2967 RMK AO2 SLP047 T00890033
KACY 011354Z 25008KT 10SM CLR 09/02 A2967 RMK AO2 SLP046 T00940022
KWWD 011355Z AUTO 28013G18KT 10SM CLR 10/02 A2965 RMK AO1
KWRI 011355Z AUTO 27009KT 10SM OVC060 09/03 A2962 RMK AO2 SLP031 T00890035
KNEL 011400Z AUTO 24007KT 10SM BKN060 08/04 A2963 RMK AO2 SLP032 T00830039 PNO $
KWWD 011415Z AUTO 27011KT 10SM CLR 10/02 A2965 RMK AO1
KWWD 011435Z AUTO 29010G17KT 10SM CLR 10/02 A2965 RMK AO1
KMMU 011445Z 00000KT 15SM BKN100
KEWR 011451Z 25015KT 10SM FEW028 SCT060 SCT090 BKN130 BKN260 11/03 A2960 RMK AO2 SLP024 T01060028 50003 $
KTEB 011451Z 26007KT 10SM FEW060 10/03 A2959 RMK AO2 SLP020 T01000033 51004
KSMQ 011453Z AUTO A2960 RMK AO2 SLPNO 6//// PWINO FZRANO TSNO $
KMIV 011454Z AUTO 26011KT 10SM OVC047 09/03 A2968 RMK AO2 SLP048 T00890028 51008
KACY 011454Z 28010KT 10SM SCT065 10/03 A2967 RMK AO2 SLP046 T01000028 51004
KWRI 011455Z AUTO 29012KT 10SM FEW029 OVC060 10/03 A2962 RMK AO2 SLP033 T00970029 51007
KWWD 011455Z AUTO 28013KT 10SM FEW027 11/03 A2965 RMK AO1 52003
KNEL 011500Z AUTO 27012G17KT 10SM SCT028 OVC060 11/03 A2963 RMK AO2 SLP031 6//// T01060033 51008 PNO $
KWWD 011515Z AUTO 26010G17KT 10SM FEW027 11/03 RMK AO1
KWWD 011535Z AUTO 28011G16KT 10SM SCT027 BKN060 11/03 RMK AO1
KEWR 011551Z 27013KT 10SM SCT031 SCT070 BKN100 BKN260 11/03 A2960 RMK AO2 SLP022 T01060028 $
KTEB 011551Z 24008KT 10SM SCT032 BKN060 BKN075 11/03 A2958 RMK AO2 SLP017 T01060033
KSMQ 011553Z AUTO A2960 RMK AO2 SLPNO PWINO FZRANO TSNO $
KACY 011554Z 26011KT 10SM OVC048 09/02 A2967 RMK AO2 SLP046 T00940022
KMIV 011554Z AUTO 27010KT 10SM OVC043 09/03 A2968 RMK AO2 SLP048 T00890028
KWRI 011555Z AUTO 26012KT 10SM FEW029 BKN060 10/03 A2962 RMK AO2 SLP032 T00980031
KWWD 011555Z AUTO 29009G15KT 10SM BKN027 BKN046 OVC050 11/03 RMK AO1
KNEL 011600Z AUTO 27011KT 10SM SCT030 OVC060 10/03 A2963 RMK AO2 SLP032 T01000028 PNO $
KWWD 011615Z AUTO 29011KT 10SM SCT027 BKN038 OVC045 10/03 RMK AO1
KWWD 011635Z AUTO 29008KT 10SM SCT029 OVC038 10/03 RMK AO1
KMMU 011645Z 30006KT 15SM OVC030
KMIV 011646Z AUTO 27009G17KT 10SM BKN027 OVC043 10/03 A2966 RMK AO2
KTEB 011651Z 24006KT 10SM OVC036 11/03 A2957 RMK AO2 SLP012 T01060033
KEWR 011651Z 27014KT 10SM SCT033 BKN060 BKN100 BKN210 11/03 A2959 RMK AO2 SLP018 T01110033 $
KSMQ 011653Z AUTO A2959 RMK AO2 SLPNO PWINO FZRANO TSNO $
KMIV 011654Z AUTO 27012G15KT 10SM BKN027 OVC043 10/03 A2966 RMK AO2 SLP042 T01000033
KACY 011654Z 26008KT 10SM SCT030 BKN045 OVC060 10/03 A2965 RMK AO2 SLP040 T01000028
KWWD 011655Z AUTO 28009G16KT 10SM FEW027 OVC038 10/03 A2963 RMK AO1
KWRI 011655Z AUTO 28011G17KT 10SM OVC032 10/03 A2960 RMK AO2 SLP025 T01030030
KNEL 011700Z AUTO 26008G17KT 10SM SCT030 11/03 A2961 RMK AO2 SLP024 T01110033 PNO $
KWWD 011715Z AUTO 29011G14KT 240V320 10SM BKN038 OVC049 11/03 A2963 RMK AO1
KWWD 011735Z AUTO 27010G15KT 10SM FEW029 BKN040 OVC055 11/03 A2963 RMK AO1
KMIV 011744Z AUTO 25009KT 10SM SCT029 BKN037 OVC047 11/03 A2964 RMK AO2
KEWR 011751Z 25014KT 10SM BKN032 OVC065 11/03 A2957 RMK AO2 SLP014 T01060033 10117 20056 58009 $
KTEB 011751Z 26008KT 10SM OVC036 11/03 A2956 RMK AO2 SLP008 T01060033 10111 20050 58011
KSMQ 011753Z AUTO A2957 RMK AO2 SLPNO 6//// PWINO FZRANO TSNO $
KMIV 011754Z AUTO 28011KT 10SM BKN029 OVC045 11/03 A2965 RMK AO2 SLP038 T01060033 10106 20028 58010
KACY 011754Z 27010KT 10SM SCT030 SCT035 OVC047 10/03 A2964 RMK AO2 SLP036 T01000028 10106 20039 58010
KWRI 011755Z AUTO 29013KT 10SM OVC035 11/03 A2959 RMK AO2 SLP022 T01060031 10108 20051 58011
KWWD 011755Z AUTO 27010KT 10SM SCT028 BKN037 OVC050 11/03 A2963 RMK AO1 10110 20090 57007
KNEL 011800Z AUTO 27012KT 10SM OVC035 11/03 A2960 RMK AO2 SLP021 6//// T01060033 10117 20039 58008 PNO $
KWWD 011815Z AUTO 26009G16KT 10SM SCT030 BKN037 OVC049 10/03 A2962 RMK AO1
KMIV 011825Z AUTO 28010KT 10SM BKN031 BKN039 OVC047 11/03 A2964 RMK AO2
KWWD 011835Z AUTO 26008G14KT 10SM BKN030 BKN035 OVC041 10/03 A2962 RMK AO1
KTEB 011851Z 25010G16KT 10SM OVC036 11/03 A2956 RMK AO2 SLP008 T01060033
KEWR 011851Z 27014KT 10SM OVC035 11/03 A2957 RMK AO2 SLP013 T01110033 $
KSMQ 011853Z AUTO A2957 RMK AO2 SLPNO PWINO FZRANO TSNO $
KMIV 011854Z AUTO 26012KT 10SM FEW030 OVC037 11/03 A2964 RMK AO2 SLP034 T01060033
KACY 011854Z 25008KT 10SM OVC034 11/03 A2963 RMK AO2 SLP034 T01060028
KWWD 011855Z AUTO 27009G15KT 10SM BKN030 OVC035 10/03 A2962 RMK AO1
KWRI 011855Z AUTO 30007KT 10SM OVC035 10/03 A2959 RMK AO2 SLP021 T01020031
KNEL 011900Z AUTO 28009KT 10SM OVC037 11/03 A2960 RMK AO2 SLP021 T01060028 PNO $
KWWD 011915Z AUTO 27011KT 10SM SCT028 OVC038 11/03 A2962 RMK AO1
KWWD 011935Z AUTO 26010KT 10SM OVC035 11/03 A2962 RMK AO1
KMMU 011945Z 31005KT 10SM OVC030
KTEB 011951Z 25008KT 10SM OVC038 11/04 A2956 RMK AO2 SLP010 T01110039
KEWR 011951Z 25014KT 10SM OVC036 11/03 A2958 RMK AO2 SLP015 T01060033 $
KSMQ 011953Z AUTO A2958 RMK AO2 SLPNO PWINO FZRANO TSNO $
KACY 011954Z 28010G15KT 10SM BKN034 OVC042 10/03 A2964 RMK AO2 SLP035 T01000033
KMIV 011954Z AUTO 29011KT 10SM OVC034 10/03 A2964 RMK AO2 SLP037 T01000033
KWWD 011955Z AUTO 27008KT 10SM OVC034 10/03 A2962 RMK AO1
KWRI 011955Z AUTO 30009KT 10SM OVC036 10/03 A2959 RMK AO2 SLP023 T01010032
KNEL 012000Z AUTO 26007KT 10SM OVC037 10/03 A2960 RMK AO2 SLP023 T01000033 PNO $
KWWD 012015Z AUTO 28009G15KT 10SM BKN029 OVC038 10/03 A2962 RMK AO1
KWWD 012035Z AUTO 28009KT 10SM FEW029 OVC038 10/03 A2962 RMK AO1
KMMU 012045Z 29005KT 10SM OVC030
KEWR 012051Z 27012KT 10SM BKN038 OVC055 11/03 A2959 RMK AO2 SLP018 T01110033 53004 $
KTEB 012051Z 25009G15KT 10SM BKN040 OVC060 11/03 A2957 RMK AO2 SLP013 T01110033 53005
KSMQ 012053Z AUTO A2959 RMK AO2 SLPNO 6//// PWINO FZRANO TSNO $
KMIV 012054Z AUTO 28008KT 10SM BKN038 OVC050 10/03 A2964 RMK AO2 SLP038 T01000028 55001
KACY 012054Z 28010KT 10SM OVC041 10/03 A2964 RMK AO2 SLP038 T01000028 53001
KWWD 012055Z AUTO 27007KT 10SM OVC036 10/03 A2963 RMK AO1 54000
KWRI 012055Z AUTO 29009KT 10SM OVC036 10/03 A2960 RMK AO2 SLP025 T00990032 53004
KNEL 012100Z AUTO 27006KT 10SM OVC035 10/04 A2961 RMK AO2 SLP025 6//// T01000039 55001 PNO $
KWWD 012115Z AUTO 29008KT 10SM BKN034 OVC042 10/03 A2963 RMK AO1
KWWD 012135Z AUTO 28009G16KT 10SM SCT036 OVC045 10/03 A2963 RMK AO1
KMMU 012145Z 27003KT 10SM OVC030
KTEB 012151Z 27010KT 10SM OVC038 10/03 A2958 RMK AO2 SLP018 T01000033
KEWR 012151Z 27008G18KT 10SM SCT038 OVC060 10/03 A2960 RMK AO2 SLP022 T01000028 $
KACY 012154Z 27006KT 10SM SCT037 BKN055 09/03 A2965 RMK AO2 SLP040 T00940028
KMIV 012154Z AUTO 27007KT 10SM BKN048 OVC060 09/03 A2966 RMK AO2 SLP044 T00890033
KWRI 012155Z AUTO 29009KT 10SM BKN039 OVC060 09/03 A2961 RMK AO2 SLP029 T00940032
KWWD 012155Z AUTO 28007G14KT 10SM SCT034 SCT040 OVC048 10/02 A2963 RMK AO1
KWWD 012215Z AUTO 27009KT 10SM SCT038 OVC048 10/03 A2964 RMK AO1
KWWD 012235Z AUTO 28010KT 10SM BKN038 OVC048 10/03 A2965 RMK AO1
KEWR 012251Z 24010KT 10SM FEW035 OVC050 10/03 A2961 RMK AO2 SLP026 T01000033 $
KTEB 012251Z 27006KT 10SM OVC055 10/03 A2960 RMK AO2 SLP022 T01000033
KSMQ 012253Z AUTO A2961 RMK AO2 SLPNO PWINO FZRANO TSNO $
KMIV 012254Z AUTO 26006KT 10SM BKN060 08/03 A2968 RMK AO2 SLP049 T00780033
KACY 012254Z 27007KT 10SM BKN049 OVC110 09/03 A2967 RMK AO2 SLP049 T00890028
KWWD 012255Z AUTO 26010G14KT 10SM SCT034 BKN040 OVC050 10/02 A2966 RMK AO1
KWRI 012255Z AUTO 28005KT 10SM OVC042 09/03 A2963 RMK AO2 SLP034 T00900032
KWWD 012315Z AUTO 27010KT 10SM SCT033 SCT041 OVC060 10/02 A2966 RMK AO1
KWWD 012335Z AUTO 26010G15KT 10SM FEW035 BKN041 OVC060 10/02 A2967 RMK AO1
KMMU 012345Z 00000KT 10SM BKN080
KTEB 012351Z 26007KT 10SM OVC050 09/03 A2960 RMK AO2 SLP023 T00940033 10111 20094 51010
KEWR 012351Z 25009KT 10SM FEW035 SCT055 BKN085 BKN130 09/04 A2961 RMK AO2 SLP028 T00940039 10111 20094 51009 $
KSMQ 012353Z AUTO A2961 RMK AO2 SLPNO 6//// PWINO FZRANO TSNO $
KMIV 012354Z AUTO 25005KT 10SM FEW044 BKN100 08/03 A2969 RMK AO2 SLP052 T00830033 10106 20078 51014
KACY 012354Z 25004KT 10SM OVC110 08/03 A2968 RMK AO2 SLP051 T00830028 10106 20083 51014
KWWD 012355Z AUTO 29010KT 10SM FEW036 BKN042 OVC060 10/02 A2967 RMK AO1 10110 20100 401100080 52014
KWRI 012355Z AUTO 26006KT 10SM SCT045 BKN140 08/03 A2963 RMK AO2 SLP036 T00750034 10106 20075 51011
KNEL 020000Z AUTO 25005KT 10SM OVC043 09/04 A2964 RMK AO2 SLP037 6//// T00890039 10106 20089 53012 PNO $
KWWD 020015Z AUTO 28008G15KT 10SM SCT042 OVC060 10/02 A2967 RMK AO1
KWWD 020035Z AUTO 27012KT 10SM SCT041 BKN060 09/02 A2967 RMK AO1
KTEB 020051Z 23006KT 10SM FEW060 BKN090 09/03 A2960 RMK AO2 SLP024 T00890033 $
KEWR 020051Z 23010KT 10SM FEW040 BKN095 BKN140 09/04 A2962 RMK AO2 SLP029 T00890039 $
KMIV 020054Z AUTO 25005KT 10SM BKN075 BKN100 08/03 A2969 RMK AO2 SLP051 T00830033
KACY 020054Z 24005KT 10SM FEW110 08/03 A2969 RMK AO2 SLP053 T00830028
KWWD 020055Z AUTO 27008KT 10SM FEW036 10/02 A2968 RMK AO1
KWRI 020055Z AUTO 24006KT 10SM SCT100 OVC160 07/04 A2963 RMK AO2 SLP037 T00700036
KNEL 020100Z AUTO 24005KT 10SM CLR 07/04 A2965 RMK AO2 SLP037 T00720039 PNO $
KWWD 020115Z AUTO 27009KT 10SM SCT042 BKN055 BKN065 09/03 A2968 RMK AO1
KWWD 020135Z AUTO 27008KT 10SM BKN044 OVC050 09/03 A2968 RMK AO1
KEWR 020151Z 23009KT 10SM FEW040 BKN060 BKN130 09/04 A2962 RMK AO2 SLP031 T00890039 $
KTEB 020151Z 22005KT 10SM OVC060 09/04 A2961 RMK AO2 SLP026 T00890039 $
KMIV 020154Z AUTO 26006KT 10SM OVC065 08/03 A2969 RMK AO2 SLP054 T00830033
KACY 020154Z 23006KT 10SM SCT070 OVC090 08/03 A2969 RMK AO2 SLP054 T00830028
KWRI 020155Z AUTO 27005KT 10SM OVC070 08/04 A2964 RMK AO2 SLP038 T00780037
KWWD 020155Z AUTO 27007KT 10SM FEW042 SCT050 OVC075 09/03 A2968 RMK AO1
KNEL 020200Z AUTO 24003KT 10SM BKN070 OVC095 07/04 A2965 RMK AO2 SLP039 T00720039 PNO $
KWWD 020215Z AUTO 26010G14KT 10SM BKN060 OVC075 09/03 A2968 RMK AO1
KWWD 020235Z AUTO 28009G14KT 10SM OVC060 09/03 A2968 RMK AO1
KEWR 020251Z 24010KT 10SM BKN060 OVC075 09/04 A2962 RMK AO2 SLP031 T00890039 51003 $
KTEB 020251Z 23007KT 10SM OVC060 09/04 A2961 RMK AO2 SLP026 T00940039 51003 $
KACY 020254Z 24007KT 10SM BKN065 OVC090 08/03 A2969 RMK AO2 SLP055 T00830028 51005
KMIV 020254Z AUTO 26010KT 10SM OVC070 09/03 A2970 RMK AO2 SLP057 T00890033 53006
KWRI 020255Z AUTO 28007KT 10SM BKN075 BKN100 OVC130 08/03 A2964 RMK AO2 SLP038 T00840032 51002
KWWD 020255Z AUTO 27008KT 10SM OVC060 09/03 A2969 RMK AO1 52007
KMMU 020255Z AUTO RMK AO2 PWINO PNO TSNO
KNEL 020300Z AUTO 24003KT 10SM OVC080 07/04 A2965 RMK AO2 SLP040 6//// T00720044 51004 PNO $
KWWD 020315Z AUTO 27010G16KT 10SM OVC060 10/03 A2968 RMK AO1
KMMU 020315Z AUTO RMK AO2 PWINO PNO TSNO
KMMU 020335Z AUTO RMK AO2 PWINO TSNO
KWWD 020335Z AUTO 28013KT 10SM OVC060 10/02 A2968 RMK AO1
KTEB 020351Z 24005KT 10SM BKN060 OVC075 09/04 A2961 RMK AO2 RAB17E46 SLP027 P0000 T00890039
KEWR 020351Z 25008KT 10SM BKN060 OVC080 09/04 A2963 RMK AO2 SLP031 T00890039 $
KACY 020354Z 26008KT 10SM OVC070 08/03 A2969 RMK AO2 SLP054 T00830028
KMIV 020354Z AUTO 26007KT 10SM FEW060 BKN085 OVC100 08/03 A2970 RMK AO2 SLP056 T00830033
KMMU 020355Z AUTO RMK AO2 PWINO PNO TSNO
KWRI 020355Z AUTO 27006KT 10SM OVC070 09/03 A2964 RMK AO2 SLP040 T00850033
KWWD 020355Z AUTO 27011G16KT 10SM SCT060 09/03 A2968 RMK AO1
KNEL 020400Z AUTO 24004KT 10SM OVC080 07/04 A2966 RMK AO2 SLP041 T00720044 PNO $
KMMU 020415Z AUTO RMK AO2 PWINO PNO TSNO
KWWD 020415Z AUTO 28012G19KT 10SM BKN060 09/02 A2968 RMK AO1
KMMU 020435Z AUTO RMK AO2 PWINO PNO TSNO
KWWD 020435Z AUTO 28013G18KT 10SM SCT048 OVC060 09/02 A2968 RMK AO1
KTEB 020451Z 26005KT 10SM OVC060 09/04 A2961 RMK AO2 SLP026 T00890039 401110044
KEWR 020451Z 25008KT 10SM BKN060 BKN080 OVC110 09/03 A2962 RMK AO2 SLP031 T00890033 401170050 $
KACY 020454Z 25006KT 10SM OVC075 08/03 A2969 RMK AO2 SLP054 T00830028 401060033
KMIV 020454Z AUTO 27008KT 10SM OVC070 08/03 A2970 RMK AO2 SLP057 T00830028 401060011
KWRI 020455Z AUTO 28008KT 10SM FEW065 BKN080 BKN120 08/03 A2964 RMK AO2 SLP039 T00820029 401080029
KWWD 020455Z AUTO 28012G15KT 10SM OVC060 09/02 A2969 RMK AO1
KMMU 020455Z AUTO RMK AO2 PWINO PNO TSNO
KNEL 020500Z AUTO 25004KT 10SM FEW110 07/04 A2965 RMK AO2 SLP040 T00670044 400670067 PNO $
KMMU 020515Z AUTO RMK AO2 PWINO TSNO
KWWD 020515Z AUTO 28009G14KT 10SM SCT048 OVC060 09/03 A2969 RMK AO1
KWWD 020535Z AUTO 28013G16KT 10SM SCT041 BKN050 OVC060 09/03 A2968 RMK AO1
KMMU 020535Z AUTO RMK AO2 PWINO PNO TSNO
KEWR 020551Z 25008KT 10SM BKN060 BKN080 OVC110 09/03 A2962 RMK AO2 SLP029 T00890033 10094 20089 58002 $
KTEB 020551Z 25004KT 10SM OVC060 09/03 A2961 RMK AO2 SLP026 60000 T00890033 10094 20089 58001
KACY 020554Z 26008KT 10SM OVC070 08/02 A2969 RMK AO2 SLP054 T00830022 10083 20083 56001 $
KMIV 020554Z AUTO 27009KT 10SM OVC065 08/03 A2970 RMK AO2 SLP056 T00830028 10089 20083 58001
KWWD 020555Z AUTO 28011G15KT 10SM SCT041 BKN050 OVC070 09/02 A2968 RMK AO1 10100 20090 57003
KWRI 020555Z AUTO 29007KT 10SM OVC085 08/03 A2964 RMK AO2 SLP039 T00820029 10086 20069 51001
KMMU 020555Z AUTO RMK AO2 PWINO PNO TSNO
KNEL 020600Z AUTO 25004KT 10SM SCT080 07/04 A2965 RMK AO2 SLP039 6//// T00670039 10089 20067 50001 PNO $
KMMU 020615Z AUTO RMK AO2 PWINO PNO TSNO
KWWD 020615Z AUTO 27010G14KT 10SM FEW041 BKN060 OVC090 09/02 A2969 RMK AO1
KACY 020624Z 26008G74KT 10SM SQ OVC070 08/02 A2969 RMK AO2 PK WND 09074/0617 $
KMMU 020635Z AUTO RMK AO2 PWINO PNO TSNO
KWWD 020635Z AUTO 28011G16KT 10SM BKN060 OVC090 09/02 A2968 RMK AO1
KEWR 020651Z 24008KT 10SM OVC065 09/03 A2963 RMK AO2 RAB28E37 SLP032 P0000 T00890033 $
KTEB 020651Z 22005KT 10SM OVC075 09/03 A2961 RMK AO2 SLP028 T00890033
KACY 020654Z 26008KT 10SM OVC065 08/02 A2969 RMK AO2 PK WND 09074/0617 SLP054 T00830022 $
KMIV 020654Z AUTO 27008KT 10SM OVC085 08/03 A2970 RMK AO2 SLP056 T00830028
KWRI 020655Z AUTO 28009KT 10SM BKN065 OVC085 08/03 A2965 RMK AO2 SLP041 T00810029
KWWD 020655Z AUTO 28009G19KT 10SM FEW046 BKN060 BKN100 09/02 A2968 RMK AO1
KMMU 020655Z AUTO RMK AO2 PWINO TSNO
KNEL 020700Z AUTO 25005KT 10SM FEW060 BKN085 OVC100 07/04 A2966 RMK AO2 SLP041 T00720039 PNO $
KWWD 020715Z AUTO 28011G18KT 10SM FEW050 SCT065 BKN075 09/02 A2968 RMK AO1
KMMU 020715Z AUTO RMK AO2 PWINO PNO TSNO
KWWD 020735Z AUTO 28011G17KT 10SM FEW050 SCT065 BKN080 09/02 A2968 RMK AO1
KMMU 020735Z AUTO RMK AO2 PWINO PNO TSNO
KEWR 020751Z 25009KT 10SM OVC070 09/03 A2962 RMK AO2 SLP030 T00890033 $
KTEB 020751Z 25006KT 10SM FEW042 OVC070 08/04 A2961 RMK AO2 RAB0652E04 SLP027 P0000 T00830039
KMIV 020754Z AUTO 26007KT 10SM BKN065 OVC090 07/03 A2970 RMK AO2 SLP055 T00720028
KACY 020754Z 26008KT 10SM FEW070 OVC085 08/02 A2969 RMK AO2 SLP052 T00830022 $
KMMU 020755Z AUTO RMK AO2 PWINO PNO TSNO
KWRI 020755Z AUTO 30008KT 10SM BKN090 08/03 A2964 RMK AO2 SLP038 T00830027
KWWD 020755Z AUTO 28010G16KT 10SM BKN050 BKN085 BKN110 09/02 A2968 RMK AO1
KNEL 020800Z AUTO 27005KT 10SM OVC095 08/04 A2965 RMK AO2 SLP038 T00780039 PNO $
KWWD 020815Z AUTO 28008G15KT 10SM BKN060 BKN075 09/02 A2968 RMK AO1
KMMU 020815Z AUTO RMK AO2 PWINO PNO TSNO
KMMU 020835Z AUTO RMK AO2 PWINO TSNO
KWWD 020835Z AUTO 28011G15KT 10SM FEW060 BKN075 09/02 A2968 RMK AO1
KEWR 020851Z 26011KT 10SM OVC070 09/03 A2962 RMK AO2 SLP031 60000 T00890033 51002 $
KTEB 020851Z AUTO 26007KT 10SM OVC070 09/03 A2961 RMK AO2 SLP027 60000 T00890033 51001
KMIV 020854Z AUTO 27007KT 10SM OVC070 08/03 A2970 RMK AO2 SLP055 T00780028 58001
KACY 020854Z 26005KT 10SM OVC060 07/02 A2969 RMK AO2 SLP053 T00720017 55001 $
KWRI 020855Z AUTO 29004KT 10SM BKN085 BKN140 08/03 A2964 RMK AO2 SLP040 T00760025 52001
KWWD 020855Z AUTO 28011G16KT 10SM BKN060 OVC075 09/02 A2968 RMK AO1 54000
KMMU 020855Z AUTO RMK AO2 PWINO PNO TSNO
KNEL 020900Z AUTO 27007KT 10SM BKN070 08/03 A2965 RMK AO2 SLP039 6//// T00780033 58002 PNO $
KMMU 020915Z AUTO RMK AO2 PWINO PNO TSNO
KWWD 020915Z AUTO 28009KT 10SM BKN060 OVC075 09/01 A2968 RMK AO1
KMMU 020935Z AUTO RMK AO2 PWINO PNO TSNO
KWWD 020935Z AUTO 29010G17KT 10SM SCT060 BKN075 09/01 A2968 RMK AO1
KTEB 020951Z 28006KT 10SM BKN075 OVC110 08/03 A2961 RMK AO2 SLP028 T00830033
KEWR 020951Z 26007KT 10SM SCT070 BKN100 08/03 A2962 RMK AO2 SLP031 T00830033 $
KMIV 020954Z AUTO 27009KT 10SM OVC070 07/02 A2970 RMK AO2 SLP055 T00720017
KACY 020954Z 26006KT 10SM OVC075 07/02 A2969 RMK AO2 SLP053 T00720022 $
KMMU 020955Z AUTO RMK AO2 PWINO PNO TSNO
KWWD 020955Z AUTO 29007G16KT 10SM OVC060 09/01 A2968 RMK AO1
KWRI 020955Z AUTO 30008KT 10SM OVC070 08/02 A2964 RMK AO2 SLP040 T00780024
KNEL 021000Z AUTO 28006KT 10SM OVC080 07/03 A2965 RMK AO2 SLP040 T00720033 PNO $
KWWD 021015Z AUTO 29009G14KT 10SM OVC060 08/01 A2968 RMK AO1
KMMU 021015Z AUTO RMK AO2 PWINO PNO TSNO
KMMU 021035Z AUTO RMK AO2 PWINO PNO TSNO
KWWD 021035Z AUTO 29009KT 250V310 10SM OVC060 08/01 A2969 RMK AO1
KTEB 021051Z 23005KT 10SM OVC080 08/03 A2962 RMK AO2 SLP028 T00830033
KEWR 021051Z 24007KT 10SM BKN080 OVC110 08/03 A2963 RMK AO2 SLP033 T00830033 $
KMIV 021054Z AUTO 28008KT 10SM SCT070 07/01 A2971 RMK AO2 SLP058 T00670006
KACY 021054Z 27007KT 10SM OVC075 07/02 A2969 RMK AO2 SLP054 T00720017 $
KWWD 021055Z AUTO 28010G16KT 10SM OVC060 08/01 A2969 RMK AO1
KWRI 021055Z AUTO 30006KT 10SM SCT060 OVC080 08/02 A2965 RMK AO2 SLP042 T00750023
KNEL 021100Z AUTO 27006KT 10SM OVC080 07/03 A2966 RMK AO2 SLP041 T00720028 PNO $
KWWD 021115Z AUTO 29012G15KT 10SM OVC060 08/01 A2969 RMK AO1
KWWD 021135Z AUTO 28009G16KT 10SM SCT060 08/00 A2969 RMK AO1
KMMU 021145Z 00000KT 10SM BKN030 BKN200
KEWR 021151Z 25009KT 10SM FEW050 BKN080 08/03 A2964 RMK AO2 SLP038 60000 T00830028 10089 20083 53007 $
KTEB 021151Z 28005KT 10SM FEW032 OVC080 08/03 A2963 RMK AO2 SLP033 60000 T00830033 10089 20078 53006
KMIV 021154Z AUTO 27007KT 10SM CLR 06/01 A2972 RMK AO2 SLP062 T00610011 10083 20050 53007
KACY 021154Z 27005KT 10SM BKN075 07/01 A2970 RMK AO2 SLP059 T00670011 10083 20067 53005 $
KWWD 021155Z AUTO 28011G17KT 10SM CLR 08/01 A2970 RMK AO1 10090 20080 52007
KWRI 021155Z AUTO 29005KT 10SM OVC080 07/02 A2966 RMK AO2 SLP045 T00710020 10083 20070 53004
KNEL 021200Z AUTO 28007KT 10SM BKN080 06/03 A2967 RMK AO2 SLP045 6//// 7//// T00610028 10078 20056 53003 PNO $
KWWD 021215Z AUTO 28011KT 10SM CLR 08/01 A2970 RMK AO1
KWWD 021235Z AUTO 27010G18KT 10SM FEW095 08/01 A2971 RMK AO1
KTEB 021251Z 26007KT 10SM BKN055 OVC085 09/03 A2964 RMK AO2 SLP037 T00890028
KEWR 021251Z 25009KT 10SM SCT032 BKN080 08/03 A2966 RMK AO2 SLP042 T00830028 $
KSMQ 021253Z AUTO A2965 RMK AO2 SLPNO PWINO FZRANO TSNO $
KFWN 021253Z AUTO 23003KT 10SM OVC070 07/02 A2964 RMK AO2 SLP039 T00720022 $
KMIV 021254Z AUTO 27007KT 10SM FEW060 BKN110 07/01 A2974 RMK AO2 SLP068 T00720011
KACY 021254Z 27010G16KT 10SM CLR 08/01 A2972 RMK AO2 SLP062 T00830006 $
KWRI 021255Z AUTO 31007KT 10SM OVC075 08/02 A2967 RMK AO2 SLP048 T00780016
KWWD 021255Z AUTO 28011G21KT 10SM FEW095 08/01 A2971 RMK AO1
KNEL 021300Z AUTO 29010KT 10SM SCT075 09/02 A2967 RMK AO2 SLP047 T00890022 PNO $
KWWD 021315Z AUTO 28014G19KT 10SM FEW080 09/02 A2971 RMK AO1
KFWN 021330Z AUTO VRB03KT 10SM BKN027 OVC075 07/02 A2964 RMK AO2 $
KWWD 021335Z AUTO 28013G18KT 10SM FEW080 FEW120 09/02 A2972 RMK AO1
KFWN 021337Z AUTO VRB04KT 10SM SCT029 OVC075 08/02 A2964 RMK AO2 $
KTEB 021351Z 28008KT 10SM OVC080 09/02 A2964 RMK AO2 SLP038 T00940022
KEWR 021351Z 25006KT 10SM FEW027 SCT035 BKN080 10/03 A2966 RMK AO2 SLP042 T01000028 $
KSMQ 021353Z AUTO A2966 RMK AO2 SLPNO PWINO FZRANO TSNO $
KFWN 021353Z AUTO 26005KT 10SM FEW031 OVC075 08/02 A2964 RMK AO2 SLP037 T00780022 $
KACY 021354Z 28010G18KT 10SM SCT060 BKN070 08/01 A2973 RMK AO2 SLP066 T00780006 $
KMIV 021354Z AUTO 28009KT 10SM BKN100 08/02 A2974 RMK AO2 SLP068 T00780017
KWWD 021355Z AUTO 28014G20KT 10SM FEW100 FEW120 09/01 A2971 RMK AO1
KWRI 021355Z AUTO 30011KT 10SM OVC070 08/01 A2968 RMK AO2 SLP053 T00850012
KNEL 021400Z AUTO 29011KT 10SM SCT075 09/02 A2969 RMK AO2 SLP051 T00890017 PNO $
KWWD 021415Z AUTO 28013G18KT 10SM CLR 09/02 A2971 RMK AO1
KWWD 021435Z AUTO 28013G17KT 10SM CLR 10/02 A2971 RMK AO1
KMMU 021445Z 31006KT 10SM SCT030 BKN200 10/03 A2966
KEWR 021451Z 28009G17KT 10SM SCT035 BKN075 11/02 A2965 RMK AO2 SLP040 T01060017 50003 $
KTEB 021451Z 30013G17KT 10SM FEW037 OVC075 11/02 A2964 RMK AO2 SLP036 T01060017 50002
KFWN 021453Z AUTO VRB06KT 10SM BKN075 09/01 A2964 RMK AO2 SLP037 T00940006 50002 $
KMIV 021454Z AUTO 29014G18KT 10SM CLR 11/02 A2973 RMK AO2 SLP066 T01060017 50004
KACY 021454Z 28011G19KT 10SM SCT100 09/01 A2973 RMK AO2 SLP065 T00890006 50007 $
KWWD 021455Z AUTO 29013G19KT 10SM FEW080 10/02 A2971 RMK AO1 52003
KWRI 021455Z AUTO 30014G19KT 10SM BKN075 BKN150 BKN200 08/01 A2968 RMK AO2 SLP051 T00850009 50007
KNEL 021500Z AUTO 27011G19KT 10SM CLR 09/02 A2968 RMK AO2 SLP050 6//// T00890017 53009 PNO $
KWWD 021515Z AUTO 29013G19KT 10SM FEW080 10/02 A2971 RMK AO1
KWWD 021535Z AUTO 29008KT 10SM CLR 10/02 A2971 RMK AO1
KMMU 021545Z 31006KT 15SM BKN030 BKN150 11/03 A2965
KTEB 021551Z 29011G17KT 10SM BKN075 12/02 A2963 RMK AO2 SLP033 T01170017
KEWR 021551Z 25011G14KT 10SM BKN041 BKN075 BKN250 12/02 A2964 RMK AO2 SLP038 T01170022 $
KSMQ 021553Z AUTO A2965 RMK AO2 SLPNO PWINO FZRANO TSNO $
KFWN 021553Z AUTO VRB06KT 10SM FEW044 SCT060 OVC075 10/M01 A2963 RMK AO2 SLP035 T01001006 $
KACY 021554Z 28012KT 10SM SCT041 11/01 A2971 RMK AO2 SLP061 T01110006 $
KMIV 021554Z AUTO 29010G21KT 10SM FEW039 BKN100 11/01 A2973 RMK AO2 SLP064 T01060011
KWRI 021555Z AUTO 28011KT 10SM BKN100 BKN140 09/01 A2967 RMK AO2 SLP050 T00950014
KWWD 021555Z AUTO 28011G15KT 10SM FEW075 11/02 A2970 RMK AO1
KNEL 021600Z AUTO 28011KT 10SM CLR 11/02 A2968 RMK AO2 SLP048 T01060017 PNO $
KWWD 021615Z AUTO 28009KT 10SM BKN075 11/02 A2969 RMK AO1
KWWD 021635Z AUTO 29011KT 10SM FEW037 BKN065 OVC075 10/01 A2969 RMK AO1
KTEB 021651Z 28009KT 10SM FEW048 OVC070 11/00 A2962 RMK AO2 SLP028 T01060000
KEWR 021651Z 28013G20KT 10SM SCT041 BKN070 BKN250 11/00 A2963 RMK AO2 SLP031 VCSH NW T01110000 $
KSMQ 021653Z AUTO A2964 RMK AO2 SLPNO PWINO FZRANO TSNO $
KFWN 021653Z AUTO 10SM FEW048 OVC070 09/M01 A2963 RMK AO2 SLP034 T00941011 $
KMIV 021654Z AUTO 28011G19KT 10SM SCT039 11/01 A2971 RMK AO2 SLP058 T01110006
KACY 021654Z 28013KT 10SM FEW043 SCT110 10/M01 A2969 RMK AO2 SLP055 T01001006 $
KWRI 021655Z AUTO 31011KT 10SM FEW036 SCT150 10/01 A2966 RMK AO2 SLP044 T01020013
KWWD 021655Z AUTO 29010G14KT 270V330 10SM SCT055 BKN070 10/01 A2968 RMK AO1
KNEL 021700Z AUTO 28016G19KT 10SM CLR 11/01 A2966 RMK AO2 SLP043 T01060011 PNO $
KWWD 021715Z AUTO 28010G15KT 10SM CLR 11/01 A2968 RMK AO1
KWWD 021735Z AUTO 30012G17KT 10SM FEW095 SCT120 11/01 A2967 RMK AO1
KEWR 021751Z 29011G20KT 10SM SCT042 BKN060 BKN075 10/01 A2963 RMK AO2 SLP032 T01000011 10122 20083 55008 $
KTEB 021751Z 27012G17KT 10SM OVC070 10/01 A2961 RMK AO2 SLP026 T01000006 10117 20083 56010
KSMQ 021753Z AUTO A2963 RMK AO2 SLPNO 6//// PWINO FZRANO TSNO $
KFWN 021753Z AUTO 29004KT 10SM OVC065 09/M01 A2961 RMK AO2 SLP029 T00941006 10106 20067 58007 $
KMIV 021754Z AUTO 30016G21KT 10SM BKN044 BKN050 OVC070 09/02 A2970 RMK AO2 SLP057 T00940017 10117 20061 56008
KACY 021754Z 29013KT 10SM -RA BKN048 OVC060 10/01 A2968 RMK AO2 RAB53 SLP051 P0000 60000 T01000006 10117 20067 56014 $
KWRI 021755Z AUTO 31014KT 10SM FEW038 SCT049 BKN075 11/02 A2964 RMK AO2 SLP040 T01050016 10113 20073 58011
KWWD 021755Z AUTO 29011G17KT 10SM FEW050 SCT065 SCT095 11/01 A2967 RMK AO1 10110 20080 57014
KNEL 021800Z AUTO 29015G22KT 10SM FEW040 11/01 A2965 RMK AO2 SLP039 6//// T01110011 10117 20061 58008 PNO $
KWWD 021815Z AUTO 30009G14KT 270V330 10SM FEW040 SCT050 BKN065 11/01 A2967 RMK AO1
KWWD 021835Z AUTO 29009G15KT 10SM FEW040 FEW050 SCT090 11/01 A2967 RMK AO1
KMMU 021845Z 27007KT 10SM BKN045 BKN150 10/01 A2963
KEWR 021851Z 26010KT 10SM FEW040 SCT055 BKN070 BKN140 11/01 A2962 RMK AO2 RAB01E10 SLP030 P0000 T01110011 $
KTEB 021851Z 30010KT 10SM OVC075 11/M01 A2961 RMK AO2 SLP026 T01111006
KFWN 021853Z AUTO 01003KT 10SM OVC070 08/01 A2962 RMK AO2 SLP031 T00830011 $
KSMQ 021853Z AUTO A2963 RMK AO2 SLPNO PWINO FZRANO TSNO $
KACY 021854Z 28009KT 10SM OVC085 10/01 A2969 RMK AO2 RAE09 SLP053 P0000 T01000006 $
KMIV 021854Z AUTO 31011KT 10SM BKN055 OVC070 09/01 A2971 RMK AO2 RAB1755E11 SLP058 P0000 T00940006
KWWD 021855Z AUTO 29011G16KT 10SM SCT050 BKN075 BKN080 11/01 A2967 RMK AO1
KWRI 021855Z AUTO 32011G15KT 10SM FEW055 OVC075 10/01 A2964 RMK AO2 SLP040 T01000011
KNEL 021900Z AUTO 29017G21KT 10SM SCT043 12/01 A2965 RMK AO2 SLP038 T01170006 PNO $
KWWD 021915Z AUTO 28011G17KT 10SM BKN041 OVC050 10/01 A2968 RMK AO1
KWWD 021935Z AUTO 29011G20KT 10SM SCT041 BKN050 OVC085 09/02 A2968 RMK AO1
KMMU 021945Z 28005KT 10SM BKN045 OVC100 10/01 A2964
KTEB 021951Z 32006KT 10SM OVC070 10/M01 A2962 RMK AO2 SLP030 T01001006
KEWR 021951Z 30012KT 10SM FEW040 SCT055 BKN070 BKN140 11/M02 A2963 RMK AO2 SLP034 T01061017 $
KSMQ 021953Z AUTO A2964 RMK AO2 SLPNO PWINO FZRANO TSNO $
KFWN 021953Z AUTO 29005KT 10SM FEW035 OVC080 08/01 A2964 RMK AO2 RAB03E13B29E42 SLP036 P0000 T00830011 $
KMIV 021954Z AUTO 29010KT 10SM OVC080 09/01 A2972 RMK AO2 SLP062 T00940011
KACY 021954Z 29011KT 10SM BKN070 BKN085 10/M01 A2970 RMK AO2 SLP056 T01001011
KWWD 021955Z AUTO 30009G15KT 10SM FEW039 BKN050 OVC060 09/02 A2969 RMK AO1
KWRI 021955Z AUTO 31009KT 10SM BKN075 OVC085 09/01 A2966 RMK AO2 SLP045 T00950011
KNEL 022000Z AUTO 29012G17KT 10SM OVC080 10/01 A2967 RMK AO2 SLP045 T01000006 PNO $
KWWD 022015Z AUTO 29008KT 10SM SCT039 BKN048 OVC080 10/02 A2969 RMK AO1
KWWD 022035Z AUTO 29010G22KT 10SM SCT043 BKN050 OVC085 10/00 A2970 RMK AO1
KMMU 022050Z 31007KT 10SM BKN050 OVC100 10/00 A2965
KTEB 022051Z 31007KT 10SM SCT060 OVC075 10/00 A2964 RMK AO2 SLP035 T01000000 53009
KEWR 022051Z 27010KT 10SM FEW040 BKN070 BKN140 11/M01 A2965 RMK AO2 SLP038 60000 T01111006 53006 $
KFWN 022053Z AUTO 31006KT 9SM -RA FEW012 BKN038 OVC055 07/02 A2966 RMK AO2 RAB42 SLP046 P0001 60001 T00670017 53016 $
KMIV 022054Z AUTO 29009KT 10SM OVC090 09/01 A2973 RMK AO2 SLP067 60000 T00940006 53009
KACY 022054Z 29009KT 10SM FEW040 BKN085 09/01 A2972 RMK AO2 SLP062 60000 T00890006 53011
KWWD 022055Z AUTO 29011G18KT 10SM FEW044 SCT050 BKN070 10/00 A2970 RMK AO1 52010
KWRI 022055Z AUTO 30009KT 10SM SCT045 OVC080 10/00 A2967 RMK AO2 SLP050 T00950004 53009
KNEL 022100Z AUTO 28007KT 10SM OVC080 09/01 A2968 RMK AO2 SLP050 6//// T00890011 53002 PNO $
KWWD 022115Z AUTO 30009G15KT 10SM FEW047 SCT050 BKN080 10/00 A2971 RMK AO1
KWWD 022135Z AUTO 29009G14KT 10SM SCT047 BKN060 BKN070 10/00 A2972 RMK AO1
KMMU 022145Z 28006KT 10SM BKN050 OVC100 08/02 A2968
KEWR 022151Z 30017G23KT 10SM FEW035 BKN050 OVC130 10/01 A2967 RMK AO2 SLP047 VCSH SW-NW T01000006 $
KTEB 022151Z 28012G19KT 10SM FEW050 OVC080 09/M01 A2966 RMK AO2 PK WND 28026/2124 SLP043 T00941006
KSMQ 022153Z AUTO A2969 RMK AO2 SLPNO PWINO FZRANO TSNO $
KFWN 022153Z AUTO VRB06G16KT 10SM OVC070 07/M01 A2968 RMK AO2 RAE2055 SLP052 P0000 T00671006 $
KACY 022154Z 30012G22KT 10SM FEW050 SCT070 OVC085 08/01 A2974 RMK AO2 SLP072 T00830006
KMIV 022154Z AUTO 28006KT 10SM OVC090 09/01 A2975 RMK AO2 SLP073 T00890011
KWWD 022155Z AUTO 29011G19KT 10SM SCT047 BKN060 OVC090 10/M01 A2973 RMK AO1
KWRI 022155Z AUTO 30010KT 10SM SCT040 OVC075 09/01 A2970 RMK AO2 CIG 060 RWY06 SLP058 T00880010
KNEL 022200Z AUTO 29012G17KT 10SM OVC080 09/01 A2970 RMK AO2 SLP057 T00890011 PNO $
KWWD 022215Z AUTO 29011G17KT 10SM FEW047 BKN060 OVC090 09/00 A2974 RMK AO1
KWWD 022235Z AUTO 28010G15KT 10SM SCT060 SCT065 OVC095 09/01 A2975 RMK AO1
KMMU 022245Z 31006G16KT 10SM OVC100 07/01 A2972
KEWR 022251Z 31014G24KT 10SM FEW040 BKN070 OVC130 08/01 A2971 RMK AO2 PK WND 28027/2152 RAB2154E12 SLP060 P0000 T00830006 $
KTEB 022251Z 30011KT 10SM OVC055 08/01 A2969 RMK AO2 SLP055 T00830006
KFWN 022253Z AUTO 28004KT 10SM OVC075 06/M01 A2972 RMK AO2 SLP064 T00611006 $
KSMQ 022253Z AUTO A2973 RMK AO2 SLPNO PWINO FZRANO TSNO $
KMIV 022254Z AUTO 28008KT 10SM FEW060 SCT075 OVC090 08/01 A2978 RMK AO2 SLP083 T00830006
KACY 022254Z 28005KT 10SM OVC090 08/01 A2977 RMK AO2 SLP081 T00780006
KWRI 022255Z AUTO 31007KT 10SM OVC075 08/02 A2973 RMK AO2 SLP069 T00800019
KWWD 022255Z AUTO 29012G22KT 10SM FEW049 FEW060 OVC095 09/01 A2976 RMK AO1
KNEL 022300Z AUTO 29009KT 10SM SCT070 OVC085 08/02 A2973 RMK AO2 SLP067 T00830022 PNO $
KWWD 022315Z AUTO 30008G17KT 10SM OVC095 09/01 A2977 RMK AO1
KWRI 022331Z AUTO 31011G19KT 10SM -RA BKN044 BKN050 OVC070 08/02 A2974 RMK AO2 RAB2331 SLP074
KWWD 022335Z AUTO 29012G19KT 10SM FEW060 OVC095 09/00 A2977 RMK AO1
KMMU 022345Z 30010G16KT 10SM BKN100 07/00 A2974
KTEB 022351Z 28013G19KT 10SM OVC075 08/00 A2972 RMK AO2 SLP063 T00780000 10117 20078 51027
KEWR 022351Z 30014G26KT 10SM FEW040 OVC075 08/M01 A2973 RMK AO2 PK WND 29026/2346 SLP066 60000 T00831006 10117 20083 51028 $
KFWN 022353Z AUTO 33003KT 10SM FEW030 OVC060 06/00 A2974 RMK AO2 SLP074 60001 T00560000 10094 20056 53027 $
KACY 022354Z 30008KT 10SM OVC065 08/01 A2978 RMK AO2 SLP086 60000 T00830006 10106 20078 51022
KMIV 022354Z AUTO 28011G17KT 10SM OVC050 09/01 A2980 RMK AO2 SLP089 60000 T00890006 10106 20083 52022
KWWD 022355Z AUTO 29012G20KT 10SM OVC095 09/00 A2977 RMK AO1 10110 20090 401100080 52024
KWRI 022355Z AUTO 31010G19KT 10SM -RA FEW025 BKN045 BKN050 07/03 A2975 RMK AO2 PK WND 30026/2336 RAB2331 CIG 035 RWY06 SLP077 P0000 60000 T00680029 10107 20068 52028
KWRI 022355Z AUTO 31010G19KT 10SM -RA FEW025 BKN045 BKN050 07/03 A2975
KWRI 022358Z AUTO 31010KT 10SM FEW025 BKN045 BKN050 07/03 A2975 RMK AO2 RAE2358 SLP077
KNEL 030000Z AUTO 30010G16KT 10SM BKN060 OVC075 08/02 A2975 RMK AO2 SLP074 6//// T00780017 10117 20078 53022 PNO $
KWWD 030015Z AUTO 28014G22KT 10SM FEW055 OVC095 10/00 A2978 RMK AO1
KWWD 030035Z AUTO 30017G26KT 10SM BKN065 OVC095 09/01 A2978 RMK AO1
KMMU 030045Z 31010G18KT 10SM BKN100 06/01 A2976
KEWR 030051Z 30017G25KT 10SM FEW035 BKN075 OVC120 07/M01 A2975 RMK AO2 PK WND 29027/0037 SLP074 T00721006 $
KTEB 030051Z 31014G20KT 10SM OVC080 07/00 A2974 RMK AO2 SLP070 T00720000
KFWN 030053Z AUTO 29009G17KT 10SM FEW032 OVC070 06/M01 A2975 RMK AO2 SLP077 T00561006 $
KMIV 030054Z AUTO 31010KT 10SM FEW044 OVC060 09/01 A2982 RMK AO2 SLP096 T00890006
KACY 030054Z 29008KT 10SM BKN045 OVC060 08/01 A2980 RMK AO2 SLP092 T00830011
KWRI 030055Z AUTO 30010KT 10SM BKN070 07/01 A2977 RMK AO2 RAE2358 SLP082 P0000 T00660013
KWWD 030055Z AUTO 29015G22KT 10SM OVC055 09/00 A2979 RMK AO1
KNEL 030100Z AUTO 29010KT 10SM SCT065 BKN085 07/01 A2977 RMK AO2 SLP079 T00720011 PNO $
KWWD 030115Z AUTO 29014G21KT 10SM FEW045 OVC050 09/00 A2980 RMK AO1
KWWD 030135Z AUTO 29012G17KT 10SM FEW043 OVC050 09/00 A2980 RMK AO1
KMMU 030145Z 31008G15KT 10SM BKN100 06/00 A2977
KTEB 030151Z 30010G18KT 10SM OVC080 07/00 A2975 RMK AO2 SLP074 T00670000
KEWR 030151Z 29011G20KT 10SM FEW075 OVC100 07/00 A2976 RMK AO2 SLP078 T00670000 $
KFWN 030153Z AUTO VRB04KT 10SM FEW032 OVC075 06/M01 A2976 RMK AO2 SLP078 T00561011 $
KMIV 030154Z AUTO 31012G21KT 10SM BKN049 OVC060 08/00 A2984 RMK AO2 SLP102 T00830000
KACY 030154Z 30012KT 10SM OVC055 08/00 A2982 RMK AO2 SLP099 T00780000
KWWD 030155Z AUTO 29014G23KT 10SM FEW043 OVC060 09/M01 A2981 RMK AO1
KWRI 030155Z AUTO 29008KT 10SM FEW075 BKN100 BKN130 06/01 A2978 RMK AO2 SLP088 T00640013
KNEL 030200Z AUTO 29009G15KT 10SM SCT075 07/01 A2979 RMK AO2 SLP085 T00670006 PNO $
KWWD 030215Z AUTO 29010G17KT 10SM BKN043 BKN049 OVC060 09/00 A2981 RMK AO1
KWWD 030235Z AUTO 31009G15KT 10SM OVC041 09/01 A2981 RMK AO1
KTEB 030251Z 31009G17KT 10SM OVC095 06/00 A2976 RMK AO2 SLP076 T00610000 51014
KEWR 030251Z 29014KT 10SM FEW070 OVC090 07/M01 A2977 RMK AO2 SLP080 T00671006 51014 $
KFWN 030253Z AUTO 00000KT 10SM BKN055 OVC080 05/M01 A2976 RMK AO2 SLP081 T00501011 51007 $
KMIV 030254Z AUTO 31013G19KT 10SM SCT060 OVC075 08/01 A2985 RMK AO2 PK WND 33026/0159 SLP106 T00780006 51017
KACY 030254Z 30008KT 10SM BKN075 07/00 A2983 RMK AO2 SLP101 T00670000 51015
KMMU 030255Z AUTO 28009G14KT 10SM 06/00 A2978 RMK AO2 LTG DSNT SE
KWWD 030255Z AUTO 32007KT 260V330 10SM OVC039 09/01 A2982 RMK AO1 52017
KWRI 030255Z AUTO 32011G18KT 10SM SCT070 BKN090 06/M00 A2979 RMK AO2 CIG 065 RWY06 SLP090 60000 T00631001 51013
KNEL 030300Z AUTO 30012G17KT 10SM CLR 06/01 A2979 RMK AO2 SLP087 6//// T00610006 51018 PNO $
KMMU 030315Z AUTO 29008G15KT 10SM 05/00 A2978 RMK AO2
KWWD 030315Z AUTO 31007G14KT 10SM OVC037 09/01 A2982 RMK AO1
KMMU 030335Z AUTO 29005G18KT 10SM -RA 04/01 A2978 RMK AO2 LTG DSNT SE
KWWD 030335Z AUTO 31009G15KT 10SM BKN037 OVC044 09/01 A2983 RMK AO1
KEWR 030351Z 29012G19KT 10SM FEW035 SCT085 BKN120 06/M01 A2977 RMK AO2 SLP081 T00611006 $
KTEB 030351Z 30013G17KT 10SM FEW080 SCT100 BKN120 06/M01 A2976 RMK AO2 SLP077 T00611006
KFWN 030353Z AUTO VRB03KT 10SM OVC036 05/M02 A2976 RMK AO2 SLP079 T00501017 $
KACY 030354Z AUTO 28008KT 10SM CLR 06/00 A2984 RMK AO2 SLP103 T00610000 TSNO
KMIV 030354Z AUTO 30009KT 10SM CLR 07/01 A2986 RMK AO2 SLP108 T00670006
KWRI 030355Z AUTO 31015G22KT 10SM CLR 06/M01 A2980 RMK AO2 SLP092 T00581009
KMMU 030355Z AUTO 30008KT 10SM 05/00 A2977 RMK AO2
KWWD 030355Z AUTO 32007G14KT 290V350 10SM BKN035 OVC044 09/01 A2983 RMK AO1
KNEL 030400Z AUTO 30012G16KT 10SM CLR 06/00 A2980 RMK AO2 SLP089 T00560000 PNO $
KMMU 030415Z AUTO 29008G15KT 270V330 10SM 05/M00 A2977 RMK AO2
KWWD 030415Z AUTO 31008G14KT 10SM BKN035 BKN045 OVC050 08/01 A2983 RMK AO1
KMMU 030435Z AUTO 29007G15KT 10SM 05/M00 A2978 RMK AO2
KWWD 030435Z AUTO 31009G17KT 10SM FEW037 SCT043 BKN050 08/01 A2983 RMK AO1
KEWR 030451Z 29009KT 10SM FEW035 SCT085 BKN120 06/M01 A2977 RMK AO2 SLP082 T00561011 401220056 $
KTEB 030451Z 27005KT 10SM SCT080 05/M01 A2976 RMK AO2 SLP078 T00501006 401170050
KFWN 030453Z AUTO VRB03KT 10SM BKN034 OVC075 05/M02 A2976 RMK AO2 SLP081 T00501017 401060050 $
KMIV 030454Z AUTO 30007KT 10SM SCT050 OVC090 07/01 A2986 RMK AO2 SLP110 T00670011 401170050
KACY 030454Z AUTO 30009KT 10SM CLR 06/00 A2984 RMK AO2 SLP106 T00560000 401170056 TSNO
KWRI 030455Z AUTO 31009KT 10SM CLR 05/M01 A2980 RMK AO2 SLP095 T00531009 401130052
KMMU 030455Z AUTO 29006G17KT 10SM 05/M00 A2978 RMK AO2
KWWD 030455Z AUTO 32008G16KT 10SM FEW038 SCT043 BKN048 08/00 A2983 RMK AO1
KNEL 030500Z AUTO 29007KT 10SM CLR 05/M01 A2981 RMK AO2 SLP092 T00501006 400500050 PNO $
KWWD 030515Z AUTO 29010G14KT 10SM SCT036 BKN046 08/00 A2983 RMK AO1
KMMU 030515Z AUTO 28006KT 10SM 05/M00 A2978 RMK AO2 LTG DSNT E
KMMU 030535Z AUTO 28007KT 10SM 05/M00 A2978 RMK AO2
KWWD 030535Z AUTO 29012G21KT 270V330 10SM BKN036 OVC046 08/00 A2983 RMK AO1
KEWR 030551Z 29010KT 10SM FEW040 SCT075 BKN130 BKN200 06/M01 A2977 RMK AO2 SLP081 T00561011 10083 20056 50001 $
KTEB 030551Z 30009G16KT 10SM SCT080 06/M01 A2976 RMK AO2 SLP077 T00611011 10078 20050 50000
KFWN 030553Z AUTO 00000KT 10SM OVC032 05/M02 A2977 RMK AO2 SLP081 T00501017 10056 20050 53000 $
KACY 030554Z AUTO 28008KT 10SM SCT080 06/M01 A2985 RMK AO2 SLP108 T00561006 10083 20056 51006 TSNO
KMIV 030554Z AUTO 31008KT 10SM BKN090 07/00 A2986 RMK AO2 SLP108 T00670000 10094 20067 50002
KWWD 030555Z AUTO 31009G17KT 10SM BKN036 OVC044 08/01 A2983 RMK AO1 10100 20080 52003
KMMU 030555Z AUTO 26004KT 10SM 05/M00 A2978 RMK AO2
KWRI 030555Z AUTO 31007KT 10SM SCT140 05/M01 A2980 RMK AO2 SLP092 60000 T00511008 10068 20051 50001
KNEL 030600Z AUTO 29010KT 10SM CLR 05/M01 A2980 RMK AO2 SLP089 6//// T00501006 10083 20050 53007 PNO $
KMMU 030615Z AUTO 27005KT 10SM 05/00 A2978 RMK AO2
KWWD 030615Z AUTO 29011KT 10SM BKN036 OVC044 08/00 A2983 RMK AO1
KMMU 030635Z AUTO 26003KT 10SM 04/M00 A2978 RMK AO2
KWWD 030635Z AUTO 29010G18KT 10SM BKN036 OVC044 08/00 A2983 RMK AO1
KTEB 030651Z 30009KT 10SM CLR 06/M01 A2976 RMK AO2 SLP077 T00561011
KEWR 030651Z 29009KT 10SM FEW040 SCT075 SCT130 BKN200 06/M01 A2978 RMK AO2 SLP082 T00561011 $
KFWN 030653Z AUTO 28003KT 10SM OVC032 05/M02 A2977 RMK AO2 SLP082 T00501017 $
KMIV 030654Z AUTO 29011G17KT 10SM OVC085 07/00 A2986 RMK AO2 SLP109 T00670000
KACY 030654Z AUTO 27006KT 10SM BKN085 06/00 A2985 RMK AO2 SLP107 T00560000 TSNO
KMMU 030655Z AUTO 28005KT 10SM 05/00 A2978 RMK AO2
KWRI 030655Z AUTO 30008KT 10SM OVC085 06/M01 A2980 RMK AO2 SLP093 T00581007
KWWD 030655Z AUTO 30011G18KT 10SM BKN036 OVC044 08/00 A2983 RMK AO1
KNEL 030700Z AUTO 28006KT 10SM CLR 04/M01 A2981 RMK AO2 SLP092 T00441006 PNO $
KMMU 030715Z AUTO 26004KT 10SM 05/M00 A2978 RMK AO2
KWWD 030715Z AUTO 30010G15KT 10SM SCT036 OVC044 08/00 A2983 RMK AO1
KMMU 030735Z AUTO 28003KT 10SM 05/M00 A2978 RMK AO2
KWWD 030735Z AUTO 30010G18KT 10SM BKN036 OVC044 08/00 A2983 RMK AO1
KEWR 030751Z 27009KT 10SM FEW080 SCT130 SCT200 06/M01 A2978 RMK AO2 SLP082 T00561011 $
KTEB 030751Z 31007KT 10SM CLR 05/M01 A2976 RMK AO2 SLP078 T00501011
KFWN 030753Z AUTO 29008G15KT 10SM BKN032 OVC075 05/M02 A2977 RMK AO2 SLP083 T00501017 $
KMIV 030754Z AUTO 30011G18KT 10SM OVC050 07/00 A2986 RMK AO2 SLP110 T00670000
KACY 030754Z 28010KT 10SM OVC090 06/00 A2984 RMK AO2 SLP104 T00610000
KMMU 030755Z AUTO 00000KT 10SM 04/M00 A2978 RMK AO2
KWRI 030755Z AUTO 30008KT 10SM OVC090 06/M00 A2980 RMK AO2 SLP093 T00591005
KWWD 030755Z AUTO 29012G19KT 10SM OVC036 08/M01 A2983 RMK AO1
KNEL 030800Z AUTO 29009KT 10SM OVC090 06/00 A2980 RMK AO2 SLP090 T00560000 PNO $
KWWD 030815Z AUTO 29012G18KT 10SM OVC036 08/00 A2984 RMK AO1
KMMU 030815Z AUTO 00000KT 10SM 05/M00 A2979 RMK AO2
KMMU 030835Z AUTO 29007KT 10SM 05/M00 A2979 RMK AO2
KWWD 030835Z AUTO 30011G16KT 10SM OVC038 08/M01 A2984 RMK AO1
KEWR 030851Z 28007KT 10SM FEW100 SCT200 06/M01 A2979 RMK AO2 SLP086 T00561011 53005 $
KTEB 030851Z 30008KT 10SM CLR 06/M01 A2977 RMK AO2 SLP081 T00561011 53004
KFWN 030853Z AUTO VRB05KT 10SM SCT033 BKN040 OVC075 05/M02 A2978 RMK AO2 SLP087 T00501017 53006 $
KMIV 030854Z AUTO 29009KT 10SM SCT055 06/M01 A2987 RMK AO2 SLP113 T00611006 53004
KACY 030854Z 28008KT 10SM FEW090 05/M01 A2986 RMK AO2 SLP111 T00501006 53003
KWRI 030855Z AUTO 31010KT 10SM BKN038 OVC090 06/M01 A2981 RMK AO2 SLP096 T00591006 53005
KMMU 030855Z AUTO 29003KT 10SM 05/M00 A2979 RMK AO2
KWWD 030855Z AUTO 29011KT 10SM OVC040 08/M01 A2984 RMK AO1 52003
KNEL 030900Z AUTO 29011G18KT 10SM OVC090 06/M01 A2982 RMK AO2 SLP095 6//// T00561006 56002 PNO $
KWWD 030915Z AUTO 29012G16KT 10SM BKN037 OVC044 08/M01 A2985 RMK AO1
KMMU 030915Z AUTO 30006KT 10SM 05/M00 A2980 RMK AO2
KWWD 030935Z AUTO 30014G18KT 10SM SCT037 OVC046 08/M01 A2986 RMK AO1
KMMU 030935Z AUTO 30006KT 10SM 05/M00 A2980 RMK AO2
KTEB 030951Z 29006KT 10SM CLR 05/M01 A2978 RMK AO2 SLP084 T00501011
KEWR 030951Z 29010KT 10SM FEW100 SCT200 06/M01 A2980 RMK AO2 SLP090 T00561011 $
KFWN 030953Z AUTO VRB05KT 10SM CLR 04/M02 A2979 RMK AO2 SLP090 T00441017 $
KMIV 030954Z AUTO 28009KT 10SM OVC050 06/M01 A2989 RMK AO2 SLP119 T00611006
KACY 030954Z 28008KT 10SM OVC045 06/00 A2987 RMK AO2 SLP114 T00560000
KWWD 030955Z AUTO 30010G20KT 10SM SCT041 OVC049 07/M01 A2986 RMK AO1
KWRI 030955Z AUTO 30010G17KT 10SM FEW044 OVC090 06/M01 A2982 RMK AO2 CIG 045 RWY06 SLP102 T00561012
KMMU 030955Z AUTO 29006G10KT 10SM 05/M00 A2980 RMK AO2
KNEL 031000Z AUTO 29009KT 10SM BKN042 OVC095 06/M01 A2983 RMK AO2 SLP100 T00561006 PNO $
KMMU 031015Z AUTO 29008KT 10SM 05/M01 A2981 RMK AO2
KWWD 031015Z AUTO 30015G21KT 10SM SCT048 OVC050 07/M02 A2987 RMK AO1
KWWD 031035Z AUTO 30008G19KT 10SM FEW037 FEW045 OVC050 07/M01 A2987 RMK AO1
KMMU 031035Z AUTO 29006KT 10SM 05/M00 A2982 RMK AO2
KMMU 031045Z 28010KT 10SM FEW080 05/00 A2982
KEWR 031051Z 28007KT 10SM FEW100 SCT200 06/M01 A2981 RMK AO2 SLP094 T00561011 $
KTEB 031051Z 30007KT 10SM CLR 06/M01 A2980 RMK AO2 SLP090 T00561011
KFWN 031053Z AUTO 30003KT 10SM BKN031 OVC042 05/M02 A2981 RMK AO2 SLP096 T00501017 $
KACY 031054Z 29009KT 10SM OVC045 06/M01 A2988 RMK AO2 SLP119 T00561006
KMIV 031054Z AUTO 30014G20KT 10SM OVC050 06/M02 A2990 RMK AO2 SLP123 T00611017
KWRI 031055Z AUTO 31010KT 10SM OVC043 06/M02 A2984 RMK AO2 SLP107 T00561022
KWWD 031055Z AUTO 30012G19KT 10SM SCT036 BKN047 OVC050 07/M01 A2987 RMK AO1
KNEL 031100Z AUTO 29008KT 10SM OVC040 06/M01 A2984 RMK AO2 SLP104 T00561011 PNO $
KWWD 031115Z AUTO 30010G19KT 10SM SCT038 BKN047 OVC050 07/M02 A2988 RMK AO1
KWWD 031135Z AUTO 32009G20KT 10SM SCT038 OVC048 07/M02 A2989 RMK AO1
KMMU 031145Z 29008KT 15SM BKN060 RMK WINDS ESTIMATED
KEWR 031151Z 28009KT 10SM FEW040 SCT080 SCT250 06/M01 A2983 RMK AO2 SLP101 T00561011 10056 20050 53015 $
KTEB 031151Z 30006KT 10SM CLR 06/M01 A2982 RMK AO2 SLP098 T00561011 10061 20050 53017
KFWN 031153Z AUTO 30004KT 10SM OVC031 05/M01 A2984 RMK AO2 SLP105 70001 T00501011 10056 20044 53018 $
KSMQ 031153Z AUTO A2985 RMK AO2 SLPNO 6//// 7//// PWINO FZRANO TSNO $
KACY 031154Z 29010KT 10SM OVC041 06/M01 A2990 RMK AO2 SLP124 T00611011 10061 20050 53014
KMIV 031154Z AUTO 31012G18KT 10SM OVC046 06/M02 A2992 RMK AO2 SLP130 T00611017 10072 20061 53017
KWWD 031155Z AUTO 32009G19KT 290V350 10SM SCT036 OVC044 07/M01 A2989 RMK AO1 10080 20070 52017
KWRI 031155Z AUTO 31010KT 10SM OVC042 06/M02 A2986 RMK AO2 SLP113 T00591019 10061 20050 53016
KNEL 031200Z AUTO 29012KT 10SM FEW100 06/M02 A2986 RMK AO2 SLP110 6//// 7//// T00561017 10061 20039 51014 PNO $
KWWD 031215Z AUTO 32008G15KT 10SM FEW036 OVC050 07/M02 A2990 RMK AO1
KWWD 031235Z AUTO 30007G16KT 10SM FEW036 SCT044 OVC050 07/M02 A2991 RMK AO1
KMMU 031245Z 28005KT 10SM BKN045 BKN080 06/00 A2987
KEWR 031251Z 30010KT 10SM FEW030 SCT060 SCT200 07/M01 A2985 RMK AO2 SLP108 T00721006 $
KTEB 031251Z 32011KT 10SM CLR 07/M01 A2984 RMK AO2 SLP104 T00671006
KSMQ 031253Z AUTO A2987 RMK AO2 SLPNO PWINO FZRANO TSNO $
KFWN 031253Z AUTO VRB03KT 10SM SCT030 BKN035 OVC047 06/M01 A2986 RMK AO2 SLP113 T00561006 $
KMIV 031254Z AUTO 30009G17KT 10SM OVC048 06/M02 A2994 RMK AO2 SLP137 T00611017
KACY 031254Z 29013G20KT 10SM OVC045 06/M01 A2992 RMK AO2 SLP131 T00611011
KWWD 031255Z AUTO 32014G20KT 10SM FEW036 OVC048 07/M02 A2991 RMK AO1
KWRI 031255Z AUTO 31013G17KT 10SM OVC043 06/M01 A2987 RMK AO2 SLP118 T00651012
KNEL 031300Z AUTO 29009G19KT 10SM FEW041 07/M02 A2988 RMK AO2 SLP116 T00721017 PNO $
KWWD 031315Z AUTO 31009G18KT 10SM OVC048 07/M02 A2992 RMK AO1
KWWD 031335Z AUTO 30012G19KT 10SM OVC048 07/M02 A2992 RMK AO1
KMMU 031345Z 31009G16KT 10SM BKN030 BKN080 08/01 A2987
KEWR 031351Z 30020G24KT 10SM FEW040 SCT090 SCT200 08/M01 A2986 RMK AO2 PK WND 29026/1337 SLP110 T00831011 $
KTEB 031351Z 31016G24KT 10SM CLR 08/M01 A2984 RMK AO2 SLP105 T00781006
KFWN 031353Z AUTO VRB03KT 10SM OVC033 07/M01 A2987 RMK AO2 SLP116 T00671006 $
KSMQ 031353Z AUTO A2988 RMK AO2 SLPNO PWINO FZRANO TSNO $
KMIV 031354Z AUTO 31011G21KT 10SM OVC046 07/M02 A2995 RMK AO2 SLP140 T00721017
KACY 031354Z 30013G22KT 10SM OVC045 07/M02 A2993 RMK AO2 SLP134 T00721017
KWRI 031355Z AUTO 31010G19KT 10SM OVC042 07/M01 A2989 RMK AO2 SLP123 T00711013
KWWD 031355Z AUTO 32010G20KT 10SM OVC048 07/M02 A2992 RMK AO1
KNEL 031400Z AUTO 30012G20KT 10SM FEW043 08/M02 A2988 RMK AO2 SLP118 T00831017 PNO $
KWWD 031415Z AUTO 32014G18KT 10SM OVC048 07/M03 A2992 RMK AO1
KWWD 031435Z AUTO 31009G16KT 10SM OVC046 08/M02 A2992 RMK AO1
KMMU 031445Z 32015KT 20SM BKN030 BKN080 08/00 A2987
KTEB 031451Z 34015G27KT 10SM CLR 09/M01 A2985 RMK AO2 PK WND 33027/1444 SLP108 T00891011 51010
KEWR 031451Z 31017G23KT 10SM FEW040 09/M01 A2986 RMK AO2 PK WND 30026/1424 SLP111 T00941011 51010 $
KFWN 031453Z AUTO 32007G19KT 10SM BKN037 OVC048 07/M01 A2987 RMK AO2 SLP117 T00671011 51012 $
KACY 031454Z 31013G24KT 10SM OVC043 08/M02 A2992 RMK AO2 SLP132 T00781017 50007
KMIV 031454Z AUTO 31014G17KT 10SM OVC046 08/M02 A2994 RMK AO2 SLP139 T00831022 50009
KWRI 031455Z AUTO 32010G20KT 10SM SCT043 09/M01 A2988 RMK AO2 SLP119 T00861010 50007
KWWD 031455Z AUTO 31014G22KT 10SM FEW039 OVC046 07/M03 A2992 RMK AO1 52010
KWWD 031515Z AUTO 31011G20KT 10SM BKN046 OVC050 08/M02 A2992 RMK AO1
KWWD 031535Z AUTO 32012G20KT 10SM OVC044 08/M02 A2992 RMK AO1
KTEB 031551Z 31013G23KT 10SM SCT041 09/00 A2984 RMK AO2 SLP105 T00940000
KEWR 031551Z 29017G26KT 10SM SCT046 11/M01 A2986 RMK AO2 PK WND 31027/1516 SLP110 T01061006 $
KFWN 031553Z AUTO 32006KT 10SM OVC035 07/M01 A2987 RMK AO2 SLP118 T00721006 $
KSMQ 031553Z AUTO A2987 RMK AO2 SLPNO PWINO FZRANO TSNO $
KACY 031554Z 31012G20KT 10SM OVC043 08/M02 A2992 RMK AO2 SLP132 T00831017
KMIV 031554Z AUTO 31012G23KT 10SM OVC042 08/M02 A2994 RMK AO2 SLP138 T00781017
KWWD 031555Z AUTO 31012G20KT 10SM OVC042 08/M02 A2991 RMK AO1
KWRI 031555Z AUTO 33011G21KT 10SM OVC043 09/M01 A2988 RMK AO2 SLP120 T00871011
KNEL 031600Z AUTO 31012G24KT 10SM BKN042 09/M02 A2987 RMK AO2 PK WND 28028/1528 SLP114 T00891017 PNO $
KWWD 031615Z AUTO 30014G19KT 10SM OVC042 08/M02 A2991 RMK AO1
KWWD 031635Z AUTO 32012G21KT 280V360 10SM OVC042 08/M02 A2991 RMK AO1
KMMU 031645Z 30013G19KT 10SM BKN030 09/00 A2986
KEWR 031651Z 29016G23KT 10SM BKN046 11/M01 A2984 RMK AO2 SLP106 T01061006 $
KTEB 031651Z 32017G25KT 10SM BKN047 09/M01 A2983 RMK AO2 PK WND 32026/1628 SLP101 T00941006
KFWN 031653Z AUTO VRB04KT 10SM OVC038 07/00 A2986 RMK AO2 SLP114 T00720000 $
KSMQ 031653Z AUTO A2986 RMK AO2 SLPNO PWINO FZRANO TSNO $
KMIV 031654Z AUTO 32014G23KT 10SM OVC044 08/M02 A2993 RMK AO2 SLP134 T00781017
KACY 031654Z 32020G23KT 10SM BKN045 09/M02 A2990 RMK AO2 PK WND 33027/1644 SLP124 T00891022
KWRI 031655Z AUTO 30015G23KT 10SM OVC044 09/M01 A2986 RMK AO2 SLP115 T00861012
KWWD 031655Z AUTO 31013G19KT 10SM BKN042 OVC049 08/M02 A2990 RMK AO1
KNEL 031700Z AUTO 30013G27KT 10SM OVC044 09/M02 A2986 RMK AO2 PK WND 29027/1658 SLP111 T00941017 PNO $
KWWD 031715Z AUTO 32010G19KT 10SM BKN042 OVC050 08/M02 A2990 RMK AO1
KWWD 031735Z AUTO 31009G20KT 290V350 10SM OVC044 08/M01 A2990 RMK AO1
KMMU 031745Z 30011G17KT 10SM BKN030 09/00 A2985
KEWR 031751Z 29013G20KT 10SM BKN046 12/M01 A2984 RMK AO2 PK WND 30029/1700 SLP105 T01171006 10117 20056 56006 $
KTEB 031751Z 30019G27KT 10SM BKN047 10/M01 A2982 RMK AO2 PK WND 30027/1749 SLP099 T01001011 10100 20056 56008
KFWN 031753Z AUTO 31007G15KT 10SM BKN045 BKN050 08/M01 A2985 RMK AO2 SLP110 T00831011 10089 20050 58007 $
KACY 031754Z 29017G23KT 10SM OVC045 09/M02 A2990 RMK AO2 PK WND 30026/1725 SLP126 T00891022 10100 20061 55005
KMIV 031754Z AUTO 31013G23KT 10SM OVC042 08/M02 A2993 RMK AO2 PK WND 30026/1708 SLP132 T00831017 10083 20061 58006
KWWD 031755Z AUTO 31008G21KT 10SM OVC044 08/M02 A2990 RMK AO1 10080 20070 57007
KWRI 031755Z AUTO 31011KT 10SM OVC047 09/M01 A2986 RMK AO2 SLP113 T00931012 10100 20059 58007
KNEL 031800Z AUTO 32012G20KT 10SM OVC046 09/M02 A2986 RMK AO2 SLP109 6//// T00941017 10100 20056 58006 PNO $
KWWD 031815Z AUTO 31010G18KT 10SM OVC044 08/M02 A2990 RMK AO1
KWWD 031835Z AUTO 31010G20KT 10SM OVC044 08/M02 A2990 RMK AO1
KMMU 031845Z 30007G16KT 10SM BKN030 BKN150 09/00 A2985
KTEB 031851Z 32015G22KT 10SM BKN047 10/M01 A2983 RMK AO2 PK WND 32027/1753 SLP100 T01001006
KEWR 031851Z 31013G21KT 10SM BKN049 BKN100 12/M01 A2984 RMK AO2 SLP105 T01171011 $
KFWN 031853Z AUTO VRB06KT 10SM SCT042 BKN049 08/M01 A2986 RMK AO2 SLP112 T00781006 $
KMIV 031854Z AUTO 30017G23KT 10SM OVC044 08/M02 A2993 RMK AO2 SLP134 T00831017
KACY 031854Z 29017G25KT 10SM OVC045 09/M02 A2990 RMK AO2 PK WND 30028/1814 SLP126 T00891017
KWWD 031855Z AUTO 31014G22KT 270V330 10SM OVC042 08/M01 A2991 RMK AO1
KWRI 031855Z AUTO 29014G23KT 10SM OVC048 09/M01 A2986 RMK AO2 SLP114 T00911014
KNEL 031900Z AUTO 30016G22KT 10SM OVC048 09/M02 A2986 RMK AO2 SLP111 T00941017 PNO $
KWWD 031915Z AUTO 30014G20KT 10SM OVC042 08/M01 A2991 RMK AO1
KWWD 031935Z AUTO 30010G23KT 10SM OVC042 08/M01 A2991 RMK AO1
KTEB 031951Z 32015G21KT 10SM OVC049 09/M01 A2985 RMK AO2 SLP107 T00941011
KEWR 031951Z 30013G26KT 10SM BKN050 BKN150 10/M02 A2986 RMK AO2 PK WND 30027/1932 SLP112 T01001017 $
KSMQ 031953Z AUTO A2988 RMK AO2 SLPNO PWINO FZRANO TSNO $
KFWN 031953Z AUTO 33006G16KT 10SM OVC050 08/M02 A2987 RMK AO2 SLP117 T00831017 $
KMIV 031954Z AUTO 30015G26KT 10SM OVC046 08/M02 A2995 RMK AO2 PK WND 31026/1950 SLP140 T00831017
KACY 031954Z 30016G21KT 10SM OVC047 09/M02 A2992 RMK AO2 SLP133 T00891017
KWWD 031955Z AUTO 30012G21KT 10SM OVC042 08/M01 A2992 RMK AO1
KWRI 031955Z AUTO 30013G19KT 10SM OVC049 09/M02 A2988 RMK AO2 SLP120 T00891015
KNEL 032000Z AUTO 31011G22KT 10SM OVC050 09/M02 A2988 RMK AO2 SLP118 T00941022 PNO $
KWWD 032015Z AUTO 31009G18KT 10SM OVC044 08/M01 A2992 RMK AO1
KWWD 032035Z AUTO 31011G20KT 10SM OVC040 08/M01 A2992 RMK AO1
KMMU 032045Z 29009G16KT 10SM BKN040 BKN150 08/00 A2989
KEWR 032051Z 30018G23KT 10SM BKN055 OVC150 09/M02 A2988 RMK AO2 SLP116 T00941017 53012 $
KTEB 032051Z 32012G21KT 10SM OVC055 09/M01 A2986 RMK AO2 SLP113 T00891006 53014
KFWN 032053Z AUTO 31009G20KT 10SM BKN049 07/M01 A2989 RMK AO2 SLP122 T00721011 53012 $
KMIV 032054Z AUTO 30015G22KT 10SM OVC048 08/M02 A2995 RMK AO2 SLP140 T00831017 51008
KACY 032054Z 31014G20KT 10SM OVC049 08/M02 A2993 RMK AO2 SLP135 T00831017 53008
KWWD 032055Z AUTO 31009G19KT 10SM OVC040 08/M01 A2992 RMK AO1 52007
KWRI 032055Z AUTO 31011KT 10SM OVC049 08/M01 A2989 RMK AO2 SLP124 T00841014 53012
KNEL 032100Z AUTO 30014G20KT 10SM OVC050 09/M02 A2989 RMK AO2 SLP121 6//// T00891017 53006 PNO $
KWWD 032115Z AUTO 31012G19KT 10SM OVC042 08/M01 A2992 RMK AO1
KWWD 032135Z AUTO 32014G19KT 290V350 10SM OVC042 08/M02 A2993 RMK AO1
KMMU 032145Z 21011G16KT 10SM BKN035 07/00 A2990
KEWR 032151Z 30013G23KT 10SM BKN050 09/M02 A2989 RMK AO2 SLP119 T00891017 $
KTEB 032151Z 34010G19KT 10SM BKN055 08/M02 A2987 RMK AO2 SLP115 T00831017
KSMQ 032153Z AUTO A2990 RMK AO2 SLPNO PWINO FZRANO TSNO $
KFWN 032153Z AUTO 28003G15KT 10SM SCT055 06/M02 A2990 RMK AO2 SLP128 T00561017 $
KMIV 032154Z AUTO 30008G17KT 10SM BKN050 07/M02 A2996 RMK AO2 SLP143 T00721017
KACY 032154Z 30012KT 10SM OVC047 08/M02 A2993 RMK AO2 SLP137 T00781017
KWRI 032155Z AUTO 30014G22KT 10SM OVC050 08/M02 A2990 RMK AO2 SLP126 T00801017
KWWD 032155Z AUTO 32010G20KT 10SM OVC042 08/M01 A2993 RMK AO1
KWWD 032215Z AUTO 31011G21KT 10SM OVC044 08/M02 A2994 RMK AO1
KWWD 032235Z AUTO 31013G25KT 10SM SCT044 08/M02 A2994 RMK AO1
KMMU 032245Z 31008KT 10SM BKN040 07/M01 A2991
KTEB 032251Z 29011KT 10SM SCT044 BKN055 08/M01 A2989 RMK AO2 SLP123 T00781011
KEWR 032251Z 31010G19KT 10SM SCT055 08/M02 A2991 RMK AO2 SLP127 T00831017 $
KFWN 032253Z AUTO VRB04KT 10SM FEW033 SCT055 06/M02 A2992 RMK AO2 SLP135 T00561017 $
KMIV 032254Z AUTO 30008KT 10SM BKN050 07/M01 A2997 RMK AO2 SLP148 T00721011
KACY 032254Z 29008KT 10SM BKN049 07/M02 A2995 RMK AO2 SLP141 T00721017
KWWD 032255Z AUTO 30013G20KT 10SM CLR 08/M02 A2995 RMK AO1
KWRI 032255Z AUTO 30011G20KT 10SM OVC050 08/M02 A2992 RMK AO2 SLP134 T00781021
KNEL 032300Z AUTO 31008G14KT 10SM OVC050 08/M02 A2992 RMK AO2 SLP132 T00831022 PNO $
KWWD 032315Z AUTO 30011G17KT 10SM BKN050 08/M02 A2995 RMK AO1
KWWD 032335Z AUTO 30008G16KT 260V350 10SM FEW041 SCT050 08/M01 A2996 RMK AO1
KMMU 032345Z 33007G16KT 10SM SCT035 06/M01 A2994
KEWR 032351Z 31011G21KT 10SM FEW055 07/M02 A2993 RMK AO2 PK WND 32027/2300 SLP136 T00721017 10117 20072 53020 $
KTEB 032351Z 31007KT 10SM CLR 07/M01 A2992 RMK AO2 SLP130 T00671011 10111 20067 53018
KFWN 032353Z AUTO VRB05KT 10SM BKN034 BKN055 05/M02 A2994 RMK AO2 SLP141 T00501017 10089 20044 53018 $
KACY 032354Z 27006KT 10SM BKN049 07/M02 A2997 RMK AO2 SLP148 T00671017 10094 20067 53013
KMIV 032354Z AUTO 28005KT 10SM OVC050 07/M01 A2998 RMK AO2 SLP153 T00671006 10089 20067 53011
KWRI 032355Z AUTO 30011G16KT 10SM OVC048 07/M02 A2993 RMK AO2 SLP139 T00751020 10093 20074 53014
KWWD 032355Z AUTO 31009G16KT 10SM FEW042 BKN049 08/M01 A2997 RMK AO1 10080 20080 401000070 52017
KNEL 040000Z AUTO VRB05KT 10SM OVC048 08/M02 A2994 RMK AO2 SLP138 6//// T00781022 10100 20078 53014 PNO $
KWWD 040015Z AUTO 31010G17KT 10SM OVC049 08/M01 A2997 RMK AO1
KWWD 040035Z AUTO 31010G15KT 280V360 10SM OVC049 08/M01 A2996 RMK AO1
KMMU 040045Z 31008G16KT 10SM FEW035 05/M01 A2995
KEWR 040051Z 33015G21KT 10SM FEW055 07/M02 A2994 RMK AO2 SLP138 T00671017 $
KTEB 040051Z 32007G16KT 10SM CLR 06/M02 A2993 RMK AO2 SLP134 T00611017
KFWN 040053Z AUTO VRB03G15KT 10SM BKN037 OVC060 04/M02 A2995 RMK AO2 SLP143 T00441017 $
KMIV 040054Z AUTO 30008KT 10SM OVC050 07/M01 A2998 RMK AO2 SLP152 T00721011
KACY 040054Z 29007KT 10SM OVC049 07/M02 A2997 RMK AO2 SLP150 T00671017
KWWD 040055Z AUTO 32010G16KT 10SM FEW042 OVC049 08/M02 A2996 RMK AO1
KWRI 040055Z AUTO 31012G19KT 10SM OVC047 07/M02 A2994 RMK AO2 SLP139 T00731021
KNEL 040100Z AUTO 33009G16KT 10SM OVC048 08/M02 A2994 RMK AO2 SLP139 T00781022 PNO $
KWWD 040115Z AUTO 32012G20KT 10SM OVC049 08/M02 A2997 RMK AO1
KWWD 040135Z AUTO 32010G18KT 10SM OVC049 08/M02 A2998 RMK AO1
KMMU 040145Z 33006KT 10SM FEW030 05/M01 A2995
KTEB 040151Z 31011G16KT 10SM CLR 06/M02 A2993 RMK AO2 SLP135 T00561017
KEWR 040151Z 31011KT 10SM FEW055 06/M02 A2995 RMK AO2 SLP141 T00611017 $
KFWN 040153Z AUTO 00000KT 10SM FEW033 04/M02 A2994 RMK AO2 SLP142 T00441022 $
KACY 040154Z 33006KT 10SM OVC049 07/M02 A2999 RMK AO2 SLP156 T00721022
KMIV 040154Z AUTO 29008KT 10SM OVC048 07/M01 A3000 RMK AO2 SLP157 T00721006
KWRI 040155Z AUTO 30010G19KT 10SM OVC046 07/M02 A2995 RMK AO2 SLP144 T00701020
KWWD 040155Z AUTO 32011G19KT 10SM OVC047 08/M02 A2998 RMK AO1
KNEL 040200Z AUTO 31009G15KT 10SM OVC048 07/M02 A2996 RMK AO2 SLP144 T00721022 PNO $
KWWD 040215Z AUTO 33009G16KT 10SM OVC045 08/M02 A2999 RMK AO1
KWWD 040235Z AUTO 33009G17KT 280V350 10SM OVC047 08/M02 A2998 RMK AO1
KEWR 040251Z 31009G19KT 10SM FEW055 06/M02 A2995 RMK AO2 SLP143 T00561017 51007 $
KTEB 040251Z 31016G21KT 10SM CLR 06/M02 A2993 RMK AO2 SLP135 T00561017 51005
KFWN 040253Z AUTO VRB03KT 10SM CLR 04/M02 A2994 RMK AO2 SLP140 T00391022 58001 $
KMIV 040254Z AUTO 32006KT 10SM OVC044 07/M01 A3001 RMK AO2 SLP162 T00721011 53010
KACY 040254Z 32007KT 10SM OVC049 07/M02 A3000 RMK AO2 SLP159 T00671022 53012
KWWD 040255Z AUTO 33008G15KT 10SM OVC047 08/M02 A2999 RMK AO1 52007
KMMU 040255Z AUTO 32005KT 10SM -SN 04/M01 A2996 RMK AO2
KWRI 040255Z AUTO 33011G22KT 10SM OVC044 06/M03 A2997 RMK AO2 SLP152 T00621027 53013
KNEL 040300Z AUTO 32006G17KT 10SM CLR 06/M03 A2997 RMK AO2 SLP148 6//// T00611028 51012 PNO $
KWWD 040315Z AUTO 31008G16KT 290V350 10SM OVC047 08/M02 A2999 RMK AO1
KMMU 040315Z AUTO 31006KT 10SM -SN 04/M01 A2997 RMK AO2
KWWD 040335Z AUTO 31011G18KT 10SM OVC045 08/M02 A2999 RMK AO1
KMMU 040335Z AUTO 00000KT 10SM -SN 04/M01 A2997 RMK AO2
KEWR 040351Z 29010KT 10SM FEW070 05/M02 A2996 RMK AO2 SLP143 T00501017 $
KTEB 040351Z 29010KT 10SM CLR 05/M02 A2994 RMK AO2 SLP139 T00501017
KFWN 040353Z AUTO VRB04KT 10SM FEW031 04/M02 A2995 RMK AO2 SLP144 T00441022 $
KACY 040354Z 30005KT 10SM BKN047 06/M02 A3001 RMK AO2 SLP162 T00561017 $
KMIV 040354Z AUTO 32006KT 10SM OVC046 07/M02 A3002 RMK AO2 SLP164 T00671022
KMMU 040355Z AUTO 30004KT 10SM -SN 04/M01 A2996 RMK AO2
KWRI 040355Z AUTO 30010KT 10SM CLR 05/M02 A2998 RMK AO2 SLP154 T00491024
KWWD 040355Z AUTO 32008G14KT 10SM OVC045 08/M02 A2999 RMK AO1
KNEL 040400Z AUTO 29007KT 10SM CLR 04/M03 A2998 RMK AO2 SLP152 T00441028 PNO $
KMMU 040415Z AUTO 28004KT 10SM -SN 03/M01 A2997 RMK AO2
KWWD 040415Z AUTO 33009KT 10SM OVC045 08/M02 A2999 RMK AO1
KMMU 040435Z AUTO 28005KT 10SM -SN 04/M01 A2997 RMK AO2
KWWD 040435Z AUTO 34005KT 10SM OVC045 08/M02 A2999 RMK AO1
KTEB 040451Z 30006KT 10SM CLR 05/M02 A2996 RMK AO2 SLP144 T00501017 401110044
KEWR 040451Z 29007KT 10SM FEW070 05/M02 A2997 RMK AO2 SLP149 T00501017 401170044 $
KFWN 040453Z AUTO 00000KT 10SM OVC031 04/M02 A2997 RMK AO2 SLP150 T00441017 400890033 $
KMIV 040454Z AUTO 30006KT 10SM BKN046 06/M02 A3003 RMK AO2 SLP167 T00611022 400890061
KACY 040454Z 32008KT 10SM CLR 05/M03 A3001 RMK AO2 SLP163 T00501028 401000044
KMMU 040455Z AUTO 32004KT 10SM -SN 04/M01 A2998 RMK AO2
KWWD 040455Z AUTO 33007KT 10SM OVC045 08/M02 A3000 RMK AO1
KWRI 040455Z AUTO 30007KT 10SM CLR 05/M02 A2998 RMK AO2 SLP154 T00461023 401000045
KNEL 040500Z AUTO 30005KT 10SM CLR 04/M03 A2999 RMK AO2 SLP153 T00441028 400440044 PNO $
KFWN 040509Z AUTO 27003KT 10SM OVC029 04/M02 A2997 RMK AO2 $
KMMU 040515Z AUTO 30005KT 10SM -SN 04/M01 A2997 RMK AO2
KWWD 040515Z AUTO 33008KT 10SM OVC045 08/M02 A3000 RMK AO1
KWWD 040535Z AUTO 33010G15KT 10SM OVC045 07/M02 A3000 RMK AO1
KMMU 040535Z AUTO 30006KT 10SM -SN 04/M01 A2997 RMK AO2
KEWR 040551Z 28008KT 10SM CLR 04/M02 A2996 RMK AO2 SLP145 T00441017 10072 20044 50003 $
KTEB 040551Z 31006KT 10SM CLR 04/M02 A2995 RMK AO2 SLP142 T00441017 10067 20044 50006
KFWN 040553Z AUTO VRB04KT 10SM OVC029 04/M02 A2997 RMK AO2 SLP149 T00441017 10050 20033 50009 $
KACY 040554Z 28005KT 10SM CLR 04/M03 A3002 RMK AO2 SLP165 T00391028 10072 20039 51006
KMIV 040554Z AUTO 28005KT 10SM BKN044 04/M02 A3003 RMK AO2 SLP169 T00391017 10078 20033 51006
KMMU 040555Z AUTO 32005KT 10SM -SN 04/M01 A2997 RMK AO2
KWRI 040555Z AUTO 30007KT 10SM CLR 04/M02 A2998 RMK AO2 SLP153 T00401025 10075 20040 50001
KWWD 040555Z AUTO 33007G15KT 300V360 10SM OVC045 07/M02 A3000 RMK AO1 10080 20070 52003
KNEL 040600Z AUTO 00000KT 10SM CLR 03/M02 A2998 RMK AO2 SLP152 6//// T00281022 10078 20022 51009 PNO $
KWWD 040615Z AUTO 33007KT 300V360 10SM OVC045 07/M02 A3000 RMK AO1
KWWD 040715Z AUTO 33008KT 310V010 10SM OVC039 07/M02 A3000 RMK AO1
KMMU 040715Z AUTO 34003KT 10SM -SN 04/M01 A2996 RMK AO2
KMMU 040615Z AUTO 33004KT 10SM -SN 04/M01 A2997 RMK AO2
KMMU 040715Z AUTO 34003KT 10SM -SN 04/M01 A2996
KFWN 040722Z AUTO 00000KT 10SM BKN027 04/M01 A2995 RMK AO2 $
KFWN 040627Z AUTO VRB03KT 10SM BKN031 04/M02 A2996 RMK AO2 $
KMMU 040735Z AUTO 00000KT 10SM -SN 04/M01 A2996
KWWD 040635Z AUTO 33008KT 10SM OVC045 07/M03 A3000 RMK AO1
KMMU 040635Z AUTO 33003KT 10SM -SN 04/M01 A2997 RMK AO2
KWWD 040735Z AUTO 32007KT 10SM OVC039 07/M02 A2999 RMK AO1
KMMU 040735Z AUTO 00000KT 10SM -SN 04/M01 A2996 RMK AO2
KEWR 040651Z 29007KT 10SM CLR 04/M02 A2997 RMK AO2 SLP146 T00441017 $
KTEB 040651Z 31010KT 10SM CLR 04/M02 A2995 RMK AO2 SLP141 T00441017
KFWN 040653Z AUTO VRB03KT 10SM SCT031 04/M02 A2995 RMK AO2 SLP145 T00391017 $
KACY 040654Z 27004KT 10SM CLR 03/M03 A3002 RMK AO2 SLP167 T00331028
KMIV 040654Z AUTO 31007KT 10SM FEW042 05/M03 A3003 RMK AO2 SLP167 T00501028
KWRI 040655Z AUTO 27007KT 10SM CLR 03/M03 A2998 RMK AO2 SLP154 T00321026
KWWD 040655Z AUTO 34006KT 10SM OVC041 07/M02 A3000 RMK AO1
KMMU 040655Z AUTO 31003KT 10SM -SN 04/M01 A2997 RMK AO2
KNEL 040800Z AUTO 29006KT 10SM CLR 01/M02 A2998 RMK AO2 SLP149 T00111022 PNO $
KWWD 040815Z AUTO 32006KT 10SM OVC041 07/M02 A2999 RMK AO1
KMMU 040815Z AUTO 31004KT 10SM -SN 04/M01 A2996 RMK AO2
KFWN 040821Z AUTO VRB03KT 10SM SCT025 03/M02 A2995 RMK AO2 $
KWWD 040835Z AUTO 33007KT 10SM BKN041 06/M02 A2999 RMK AO1
KMMU 040835Z AUTO 30005KT 10SM 04/M01 A2996 RMK AO2
KEWR 040851Z 28006KT 10SM CLR 04/M01 A2996 RMK AO2 SLP144 T00391011 55001 $
KTEB 040851Z 31006KT 10SM CLR 04/M01 A2994 RMK AO2 SLP138 T00441011 56004
KFWN 040853Z AUTO 31004KT 10SM FEW025 03/M01 A2995 RMK AO2 SLP145 T00331011 55004 $
KMIV 040854Z AUTO 33004KT 10SM CLR 02/M02 A3001 RMK AO2 SLP163 T00221022 56006
KACY 040854Z 00000KT 10SM CLR 01/M03 A3002 RMK AO2 SLP165 T00111028 55000 $
KWWD 040855Z AUTO 33004KT 10SM OVC039 07/M02 A3000 RMK AO1 54000
KWRI 040855Z AUTO 26006KT 10SM CLR 03/M03 A2998 RMK AO2 SLP153 T00261033 54000
KMMU 040855Z AUTO 31006KT 10SM -SN 04/M01 A2996 RMK AO2
KNEL 040900Z AUTO 29003KT 10SM CLR 00/M03 A2998 RMK AO2 SLP152 6//// T00001028 58004 PNO $
KMMU 040915Z AUTO 29007KT 10SM -SN 03/M00 A2997 RMK AO2
KWWD 040915Z AUTO 32007KT 10SM OVC039 07/M02 A3000 RMK AO1
KWWD 040935Z AUTO 33006KT 300V360 10SM OVC039 07/M02 A3000 RMK AO1
KMMU 040935Z AUTO 29004KT 10SM -SN 03/M00 A2997 RMK AO2
KEWR 040951Z 27007KT 10SM CLR 04/M01 A2997 RMK AO2 SLP149 T00391011 $
KTEB 040951Z 29005KT 10SM CLR 04/M02 A2996 RMK AO2 SLP144 T00391017
KFWN 040953Z AUTO 00000KT 10SM CLR 03/M02 A2997 RMK AO2 SLP150 T00281017 $
KACY 040954Z 25003KT 10SM CLR 01/M03 A3002 RMK AO2 SLP166 T00111033 $
KMIV 040954Z AUTO 00000KT 10SM CLR 00/M02 A3003 RMK AO2 SLP168 T00001022
KWWD 040955Z AUTO 32006KT 10SM OVC039 06/M02 A3000 RMK AO1
KWRI 040955Z AUTO 27006KT 10SM CLR 02/M03 A2998 RMK AO2 SLP155 T00221031
KMMU 040955Z AUTO 00000KT 10SM -SN 03/M01 A2998 RMK AO2
KNEL 041000Z AUTO 27004KT 10SM CLR M01/M03 A2999 RMK AO2 SLP154 T10061028 PNO $
KMMU 041015Z AUTO 00000KT 10SM -SN 03/M01 A2998 RMK AO2
KWWD 041015Z AUTO 33006KT 10SM SCT039 06/M02 A3001 RMK AO1
KMMU 041035Z AUTO 32003KT 10SM -SN 03/M01 A2998 RMK AO2
KWWD 041035Z AUTO 32009KT 10SM CLR 06/M03 A3001 RMK AO1
KTEB 041051Z 31007KT 10SM CLR 03/M02 A2996 RMK AO2 SLP144 T00331017
KEWR 041051Z 31006KT 10SM CLR 04/M01 A2998 RMK AO2 SLP150 T00391011 $
KFWN 041053Z AUTO VRB03KT 10SM SCT025 03/M02 A2997 RMK AO2 SLP152 T00281017
KMIV 041054Z AUTO 25004KT 10SM CLR M01/M03 A3003 RMK AO2 SLP169 T10111028
KACY 041054Z 30006KT 10SM CLR 01/M03 A3002 RMK AO2 SLP166 T00111028 $
KWWD 041055Z AUTO 33008G14KT 10SM SCT037 06/M03 A3001 RMK AO1
KWRI 041055Z AUTO 29005KT 10SM CLR 02/M03 A2998 RMK AO2 SLP155 T00181029
KNEL 041100Z AUTO 29005KT 10SM CLR 00/M03 A2999 RMK AO2 SLP154 T00001028 PNO $
KWWD 041115Z AUTO 32009KT 310V010 10SM OVC037 06/M02 A3001 RMK AO1
KWWD 041135Z AUTO 33005KT 10SM OVC037 06/M02 A3002 RMK AO1
KEWR 041151Z 30005KT 10SM FEW050 SCT250 04/M01 A2999 RMK AO2 SLP154 T00391011 10044 20033 51009 $
KTEB 041151Z 31004KT 10SM CLR 03/M01 A2997 RMK AO2 SLP148 T00331011 10050 20033 51010
KFWN 041153Z AUTO 00000KT 10SM SCT023 03/M02 A2998 RMK AO2 SLP155 T00331017 10044 20022 51010 $
KACY 041154Z 26006KT 10SM CLR 01/M03 A3004 RMK AO2 SLP173 T00111028 10039 21006 53008 $
KMIV 041154Z AUTO 25004KT 10SM CLR M02/M03 A3005 RMK AO2 SLP176 T10171028 10056 21022 53013
KWRI 041155Z AUTO 29007KT 10SM CLR 02/M03 A2998 RMK AO2 SLP156 T00211026 10040 20017 51003
KWWD 041155Z AUTO 33008KT 10SM OVC037 06/M02 A3003 RMK AO1 10070 20060 52010
KNEL 041200Z AUTO 30003KT 10SM CLR 01/M02 A3000 RMK AO2 SLP156 6//// 7//// T00061022 10028 21011 51005 PNO $
KWWD 041215Z AUTO 34006KT 10SM BKN037 06/M02 A3003 RMK AO1
KWWD 041235Z AUTO 33006KT 10SM BKN037 07/M02 A3004 RMK AO1
KMMU 041245Z 34008KT 10SM SKC 04/00 A3000
KEWR 041251Z 30007KT 10SM FEW040 SCT250 06/M01 A3000 RMK AO2 SLP158 T00561006 $
KTEB 041251Z VRB04KT 10SM CLR 06/M01 A2998 RMK AO2 SLP152 T00561006
KFWN 041253Z AUTO 00000KT 10SM CLR 04/M01 A2999 RMK AO2 SLP158 T00441011 $
KSMQ 041253Z AUTO A2999 RMK AO2 SLPNO PWINO FZRANO TSNO $
KMIV 041254Z AUTO 30005KT 10SM CLR 05/M01 A3006 RMK AO2 SLP179 T00501011
KACY 041254Z 29007KT 10SM CLR 04/M02 A3005 RMK AO2 SLP178 T00391022 $
KWWD 041255Z AUTO 33007KT 10SM OVC037 07/M02 A3004 RMK AO1
KWRI 041255Z AUTO 27007KT 10SM CLR 04/M02 A3001 RMK AO2 SLP164 T00441021
KNEL 041300Z AUTO 29006KT 10SM CLR 04/M02 A3001 RMK AO2 SLP162 T00441017 PNO $
KWWD 041315Z AUTO 33005KT 10SM OVC037 07/M02 A3004 RMK AO1
KFWN 041330Z AUTO VRB05KT 10SM BKN027 06/M01 A2999 RMK AO2 $
KWWD 041335Z AUTO 32008KT 300V360 10SM OVC037 07/M02 A3003 RMK AO1
KMMU 041345Z 35010KT 25SM SKC 06/00 A3000
KTEB 041351Z 33010G17KT 10SM CLR 07/M01 A2998 RMK AO2 SLP151 T00721006
KEWR 041351Z 31008KT 10SM FEW040 SCT250 07/M01 A3000 RMK AO2 SLP157 T00721006 $
KSMQ 041353Z AUTO A2999 RMK AO2 SLPNO PWINO FZRANO TSNO $
KFWN 041353Z AUTO VRB04KT 10SM OVC027 05/M01 A2999 RMK AO2 SLP156 T00501011 $
KMIV 041354Z AUTO 30010KT 10SM CLR 07/M02 A3005 RMK AO2 SLP174 T00671017
KACY 041354Z 32012KT 10SM CLR 06/M02 A3005 RMK AO2 SLP175 T00611022 $
KWWD 041355Z AUTO 33006KT 10SM OVC037 07/M02 A3003 RMK AO1
KWRI 041355Z AUTO 28009KT 10SM CLR 06/M02 A3001 RMK AO2 SLP163 T00611016
KNEL 041400Z AUTO 29010KT 10SM CLR 07/M01 A3001 RMK AO2 SLP160 T00671011 PNO $
KWWD 041415Z AUTO 32007KT 10SM OVC037 07/M02 A3003 RMK AO1
KWWD 041435Z AUTO 32007KT 10SM OVC037 07/M02 A3003 RMK AO1
KTEB 041451Z 34009KT 10SM CLR 08/M01 A2997 RMK AO2 SLP149 T00781006 50001
KEWR 041451Z 31007KT 10SM FEW040 SCT250 08/M01 A2999 RMK AO2 SLP154 T00831006 50000 $
KFWN 041453Z AUTO 35006KT 10SM BKN029 07/M01 A2999 RMK AO2 SLP156 T00671011 51001 $
KSMQ 041453Z AUTO A2999 RMK AO2 SLPNO 6//// PWINO FZRANO TSNO $
KMIV 041454Z AUTO 31009G15KT 10SM BKN037 07/M02 A3004 RMK AO2 SLP172 T00721017 58003
KACY 041454Z 31011KT 10SM CLR 07/M02 A3003 RMK AO2 SLP170 T00721017 58003 $
KWWD 041455Z AUTO 34008G14KT 10SM OVC037 07/M02 A3002 RMK AO1 57003
KWRI 041455Z AUTO 31010KT 10SM CLR 07/M01 A2999 RMK AO2 SLP157 T00731009 50002
KNEL 041500Z AUTO 31007KT 10SM CLR 08/M01 A2999 RMK AO2 SLP155 6//// T00781011 50006 PNO $
KFWN 041502Z AUTO 36008G17KT 10SM SCT031 07/M02 A2998 RMK AO2 $
KWWD 041515Z AUTO 32007G14KT 290V350 10SM OVC035 07/M01 A3002 RMK AO1
KWWD 041535Z AUTO 29008KT 10SM OVC035 08/M01 A3001 RMK AO1
KMMU 041545Z 31010KT 10SM SKC 08/01 A2998
KEWR 041551Z 31010G14KT 10SM FEW040 SCT250 10/M01 A2997 RMK AO2 SLP148 T01001006 $
KTEB 041551Z 32008KT 10SM CLR 09/00 A2996 RMK AO2 SLP145 T00890000
KSMQ 041553Z AUTO A2997 RMK AO2 SLPNO PWINO FZRANO TSNO $
KFWN 041553Z AUTO VRB04G18KT 10SM SCT033 07/M01 A2997 RMK AO2 SLP151 T00671011 $
KMIV 041554Z AUTO 28013G18KT 10SM OVC037 07/M02 A3003 RMK AO2 SLP168 T00721017
KACY 041554Z 31013G17KT 10SM BKN038 08/M02 A3002 RMK AO2 SLP166 T00831017 $
KWWD 041555Z AUTO 32009G14KT 280V350 10SM OVC035 08/M01 A3000 RMK AO1
KWRI 041555Z AUTO 27009KT 10SM SCT034 08/M01 A2998 RMK AO2 SLP155 T00821009
KNEL 041600Z AUTO 29009KT 10SM CLR 08/M01 A2999 RMK AO2 SLP153 T00831011 PNO $
KWWD 041615Z AUTO 29009G14KT 10SM OVC035 08/M01 A3000 RMK AO1
KWWD 041635Z AUTO 27010G14KT 10SM OVC035 08/M01 A3000 RMK AO1
KMMU 041645Z 31006KT 10SM SCT040 08/00 A2996
KTEB 041651Z VRB05KT 10SM CLR 10/00 A2994 RMK AO2 SLP139 T01000000
KEWR 041651Z 30009G15KT 10SM FEW040 SCT250 11/00 A2995 RMK AO2 SLP143 T01060000 $
KFWN 041653Z AUTO VRB05KT 10SM OVC035 07/M01 A2996 RMK AO2 SLP147 T00721011 $
KSMQ 041653Z AUTO A2996 RMK AO2 SLPNO PWINO FZRANO TSNO $
KMIV 041654Z AUTO 30010G19KT 10SM OVC035 07/M02 A3002 RMK AO2 SLP165 T00671017
KACY 041654Z 29013KT 10SM SCT040 09/M02 A3000 RMK AO2 SLP159 T00891017 $
KWWD 041655Z AUTO 27011G15KT 10SM OVC037 09/M01 A2999 RMK AO1
KWRI 041655Z AUTO 29011KT 10SM BKN037 09/M01 A2996 RMK AO2 SLP148 T00891007
KNEL 041700Z AUTO 30009G14KT 10SM FEW036 09/M01 A2996 RMK AO2 SLP146 T00941011 PNO $
KWWD 041715Z AUTO 29010G16KT 10SM OVC037 08/M01 A2998 RMK AO1
KWWD 041735Z AUTO 30010G16KT 270V350 10SM BKN039 08/M01 A2997 RMK AO1
KTEB 041751Z 29009KT 250V320 10SM CLR 11/00 A2993 RMK AO2 SLP133 T01060000 10106 20033 58015
KEWR 041751Z 28007G17KT 10SM BKN040 BKN250 11/00 A2994 RMK AO2 SLP138 T01110000 10117 20039 56016 $
KSMQ 041753Z AUTO A2994 RMK AO2 SLPNO 6//// 57017 PWINO FZRANO TSNO $
KFWN 041753Z AUTO VRB05KT 10SM OVC039 07/M01 A2995 RMK AO2 SLP145 T00721011 10083 20033 56011 $
KMIV 041754Z AUTO 30010G17KT 10SM OVC037 07/M02 A3001 RMK AO2 SLP161 T00721017 10078 21011 58013
KACY 041754Z 28012G17KT 10SM BKN040 08/M02 A2999 RMK AO2 SLP155 T00831017 10094 20011 56015 $
KWRI 041755Z AUTO 29007KT 10SM OVC038 08/M01 A2995 RMK AO2 SLP144 T00831007 10094 20024 58013
KWWD 041755Z AUTO 30010G16KT 10SM BKN039 09/M01 A2997 RMK AO1 10090 20060 57017
KNEL 041800Z AUTO 30011KT 10SM OVC038 09/M01 A2995 RMK AO2 SLP142 6//// T00941006 10106 20006 58015 PNO $
KWWD 041815Z AUTO 31008G15KT 290V350 10SM OVC039 08/M01 A2997 RMK AO1
KWWD 041835Z AUTO 30010G19KT 10SM BKN039 08/M01 A2997 RMK AO1
KMMU 041845Z 32008G16KT 10SM BKN040 08/M01 A2995
KTEB 041851Z 27012G19KT 10SM SCT044 10/00 A2992 RMK AO2 SLP131 T01000000
KEWR 041851Z 29012G22KT 10SM BKN043 BKN250 11/00 A2994 RMK AO2 SLP136 T01110000 $
KSMQ 041853Z AUTO A2994 RMK AO2 SLPNO PWINO FZRANO TSNO $
KFWN 041853Z AUTO 36008KT 10SM OVC039 07/M02 A2995 RMK AO2 SLP144 T00721017 $
KACY 041854Z 31012KT 10SM BKN040 09/M02 A2998 RMK AO2 SLP153 T00891017 $
KMIV 041854Z AUTO 29010G17KT 10SM OVC037 07/M02 A3000 RMK AO2 SLP157 T00721017
KWWD 041855Z AUTO 32009G16KT 10SM BKN039 08/M01 A2997 RMK AO1
KWRI 041855Z AUTO 29008KT 10SM OVC038 08/M01 A2995 RMK AO2 SLP145 T00791008
KNEL 041900Z AUTO 28010KT 10SM OVC038 09/M01 A2996 RMK AO2 SLP143 T00891011 PNO $
KWWD 041915Z AUTO 31008G16KT 10SM BKN039 08/M01 A2996 RMK AO1
KWWD 041935Z AUTO 30010G16KT 270V330 10SM OVC037 08/M01 A2996 RMK AO1
KMMU 041945Z 35008G14KT 10SM BKN040 08/M01 A2996
KEWR 041951Z 30013G21KT 10SM BKN043 BKN250 09/M01 A2994 RMK AO2 SLP139 T00941011 $
KTEB 041951Z 29011KT 10SM OVC046 10/00 A2993 RMK AO2 SLP134 T01000000
KFWN 041953Z AUTO 31006KT 10SM OVC037 07/M01 A2996 RMK AO2 SLP146 T00671006 $
KMIV 041954Z AUTO 31012KT 10SM BKN037 08/M02 A3000 RMK AO2 SLP157 T00781017
KACY 041954Z 30010KT 10SM FEW040 08/M02 A2998 RMK AO2 SLP152 T00781022 $
KWRI 041955Z AUTO 29010KT 10SM OVC040 08/M01 A2995 RMK AO2 SLP143 T00791009
KWWD 041955Z AUTO 31007G16KT 10SM OVC033 08/M01 A2997 RMK AO1
KNEL 042000Z AUTO 29010KT 270V340 10SM OVC040 08/M01 A2996 RMK AO2 SLP143 T00831006 PNO $
KWWD 042015Z AUTO 30008G14KT 10SM OVC033 07/M01 A2997 RMK AO1
KWWD 042035Z AUTO 31009G14KT 10SM OVC033 07/M01 A2997 RMK AO1
KMMU 042045Z 34010G15KT 10SM OVC040 07/M02 A2996
KEWR 042051Z 29009G19KT 10SM BKN042 BKN250 09/M01 A2995 RMK AO2 SLP141 T00891011 53003 $
KTEB 042051Z 31009KT 10SM BKN046 08/M01 A2994 RMK AO2 SLP137 T00831006 53003
KSMQ 042053Z AUTO A2996 RMK AO2 SLPNO 6//// PWINO FZRANO TSNO $
KFWN 042053Z AUTO VRB05KT 10SM OVC041 06/M01 A2996 RMK AO2 SLP146 T00611011 53001 $
KMIV 042054Z AUTO 29008KT 10SM CLR 07/M02 A3000 RMK AO2 SLP159 T00671017 55002
KACY 042054Z 30010KT 10SM FEW044 08/M02 A2998 RMK AO2 SLP153 T00831017 55002 $
KWWD 042055Z AUTO 32009G16KT 290V350 10SM OVC033 07/M01 A2997 RMK AO1 54000
KWRI 042055Z AUTO 29013KT 10SM OVC040 07/M01 A2995 RMK AO2 SLP144 T00741013 55001
KNEL 042100Z AUTO 29008KT 10SM OVC042 08/M01 A2996 RMK AO2 SLP143 6//// T00781006 56003 PNO $
KWWD 042115Z AUTO 31007G15KT 10SM OVC033 07/M02 A2998 RMK AO1
KWWD 042135Z AUTO 31008KT 10SM FEW035 06/M02 A2998 RMK AO1
KMMU 042145Z 33006KT 10SM OVC040 07/M01 A2997
KTEB 042151Z 30009KT 10SM FEW046 07/M01 A2994 RMK AO2 SLP138 T00721011
KEWR 042151Z 31010KT 10SM BKN041 BKN250 08/M01 A2995 RMK AO2 SLP143 T00781011 $
KCDW 042153Z AUTO 32004KT 07/M01 A2996 RMK AO2 SLP152 T00671011 TSNO $
KSMQ 042153Z AUTO A2996 RMK AO2 SLPNO PWINO FZRANO TSNO $
KFWN 042153Z AUTO 30005KT 10SM OVC043 06/M02 A2996 RMK AO2 SLP147 T00611017 $
KACY 042154Z 32008KT 10SM OVC042 07/M02 A2999 RMK AO2 SLP155 T00671017 $
KMIV 042154Z AUTO 30007KT 10SM SCT040 06/M02 A3000 RMK AO2 SLP159 T00561017
KWRI 042155Z AUTO 30012KT 10SM OVC039 07/M02 A2996 RMK AO2 SLP148 T00671015
KWWD 042155Z AUTO 31006KT 10SM CLR 06/M02 A2998 RMK AO1
KNEL 042200Z AUTO 30009KT 10SM OVC042 07/M01 A2996 RMK AO2 SLP146 T00721011 PNO $
KWWD 042215Z AUTO 30009KT 10SM CLR 06/M02 A2999 RMK AO1
KWWD 042235Z AUTO 30008KT 10SM CLR 06/M02 A2999 RMK AO1
KMMU 042245Z 31004KT 10SM SCT044 06/M01 A2998
KEWR 042251Z 31007KT 10SM SCT045 BKN250 07/M01 A2997 RMK AO2 SLP148 T00721006 $
KTEB 042251Z 31008KT 10SM CLR 07/M01 A2995 RMK AO2 SLP143 T00671011
KCDW 042253Z AUTO 00000KT CLR 06/M01 A2997 RMK AO2 SLP155 T00561011 TSNO $
KFWN 042253Z AUTO 32003KT 10SM OVC043 05/M01 A2997 RMK AO2 SLP152 T00501011 $
KACY 042254Z 33005KT 10SM OVC042 06/M02 A3000 RMK AO2 SLP161 T00561017
KMIV 042254Z AUTO 29008KT 10SM SCT039 04/M02 A3001 RMK AO2 SLP163 T00441017
KWRI 042255Z AUTO 29010KT 10SM OVC038 06/M02 A2998 RMK AO2 SLP154 T00621017
KWWD 042255Z AUTO 30007KT 10SM CLR 06/M02 A3000 RMK AO1
KNEL 042300Z AUTO 30008KT 10SM OVC040 07/M01 A2998 RMK AO2 SLP152 T00671011 PNO $
KWWD 042315Z AUTO 31006KT 10SM CLR 06/M02 A3000 RMK AO1
KWWD 042335Z AUTO 31004KT 10SM CLR 06/M02 A3000 RMK AO1
KMMU 042345Z 35005KT 10SM OVC048 06/M01 A2999
KTEB 042351Z 32009KT 10SM OVC046 07/M01 A2997 RMK AO2 SLP148 T00671006 10111 20067 53011
KEWR 042351Z 31009KT 10SM OVC048 07/M01 A2998 RMK AO2 SLP152 T00721006 10117 20067 53011 $
KCDW 042353Z AUTO 30004KT OVC049 06/M01 A2998 RMK AO2 SLP160 6//// T00611011 10172 20050 TSNO $
KFWN 042353Z AUTO 32005KT 10SM OVC043 05/M02 A2998 RMK AO2 SLP154 T00501017 10072 20050 53007 $
KMIV 042354Z AUTO 28005KT 10SM SCT040 03/M02 A3002 RMK AO2 SLP167 T00281017 10083 20028 53008
KACY 042354Z 32003KT 10SM OVC042 05/M02 A3001 RMK AO2 SLP164 T00501017 10100 20050 53011
KWWD 042355Z AUTO 32004KT 10SM CLR 06/M02 A3001 RMK AO1 10090 20060 400900060 52014
KWRI 042355Z AUTO 31011KT 10SM OVC040 06/M02 A2997 RMK AO2 SLP153 T00591022 10083 20059 50009